place_name,alternate_names,admin_level_2,admin_level_1,admin_level_0,continent,notes,feature_type,ambigous_county,latitude,longitude,matched_name
Acapulco,[],,,Mexico,,,,,16.84942,-99.90891,Acapulco de Juarez
Adams County,[],Adams County,Ohio,,,mouth of Ohio Brush Creek,,,38.84551,-83.47215,Adams County
Adamstown,[],Lancaster County,Pennsylvania,,,,,,40.2412,-76.05633,Adamstown
Africa,[],,,,Africa,,,,37.84033,-87.07277,Africa
Albany,['Albanien'],,New York,,,,,,42.65258,-73.75623,Albany
Algiers,[],,,,,,,,38.48727,-87.17501,Algiers
Allegheny,"['Allegena', 'Allegene']",,,,,also used for Ohio Territory | River and Territory,,,35.98844,-82.66736,Allegheny
Allegheny River,"['also Allegene', 'Aligena']",,,,,area | Mountains,H,,40.4434,-80.01505,Allegheny River
Allentown,['Allenstown'],,Pennsylvania,,,,,,40.60843,-75.49018,Allentown
Amboy,[],,,,,,,,34.80592,-92.29154,Amboy
America,[],,,,,,,,37.13838,-89.12368,America
Amherstburg,[],,Ontario,,,,,,42.10009,-83.09985,Amherstburg
Ancaster,[],,Ontario,,,,,,43.20917,-80.01194,Ancaster
Annapolis,[],,Maryland,,,,,,38.97859,-76.49184,Annapolis
Astrachan,[],,,Russia,,,,,59.62276,33.66004,Astrachi
Asylum,[],Bradford County,Pennsylvania,,,,,,41.71313,-76.33355,Asylum
Atlantic Ocean,['Coast'],,,,,,H,,48.54997,-55.98154,Atlantic Lake
Attike,"['Attique', 'Kittanning', 'Pennsylvania']",,,,,,,,40.81645,-79.52199,Kittanning
Augusta,[],Bracken County,Kentucky,,,,,,38.77174,-84.00576,Augusta
Baltimore,[],,Maryland,,,,,,39.29038,-76.61219,Baltimore
Barbados,[],,,Barbados,,West Indies,,,13.16453,-59.55165,Barbados
Barby,[],,,,,Moravian Center in Germany,,,51.96711,11.88261,Barby
Barton,[],,Ontario,,,,,,43.23341,-79.86633,Barton
Bass Islands,[],,,,,Lake Erie | Middle and South,,,41.68338,-82.81241,Bass Islands
Bath,[],Steuben County,New York,,,,,,42.33702,-77.31776,Bath
Bay of Quinte,[],,,,,Lake Ontario,H,,44.15012,-77.24946,Bay of Quinte
Beaver,['Beavertown'],,Pennsylvania,,,,,,40.69534,-80.30478,Beaver
Beaver Creek,['Little Beaver River'],,Ohio,,,Little,H,,39.94145,-83.76132,Beaver Creek
Beaver Dam,[],,,,,,,,45.78915,-66.69517,Beaver Dam
Beaver River,[],,,,,Great | Creek,H,,53.73547,-60.93575,Beaver River
Bedford,[],Bedford County,Pennsylvania,,,,,,40.01869,-78.50391,Bedford
Bedford,[],,Massachusetts,,,England,,,42.49065,-71.27617,Bedford
Bedford County,[],Bedford County,Pennsylvania,,,,,,40.00656,-78.49032,Bedford County
Beersheba,[],,,,,,,,35.03791,-81.31925,Beersheba
Belle River,[],,,,,Western Ontario,H,,45.97366,-62.84619,Belle River
Belmont County,[],Belmont County,Ohio,,,,,,40.0158,-80.98854,Belmont County
Berbice,[],,,,South America,British Guyana,,,5.45,-57.95,Berbice
Berks County,['Berkshire'],Berks County,Pennsylvania,,,,,,40.4163,-75.926,Berks County
Berlin,[],,,Germany,,,,,54.03573,10.44987,Berlin
Bern,[],,,Switzerland,,,,,46.94809,7.44744,Bern
Berthelsdorf,[],,,Germany,,near Herrnhut,,,51.04679,14.22197,Berthelsdorf
Bethabara,[],,North Carolina,,,,,,35.00704,-83.66239,Bethabara Church
Bethel,[],Berks County,Pennsylvania,,,,,,40.47454,-76.29134,Bethel
Bethlehem,[],,Pennsylvania,,,Moravian Center,,,40.86173,-78.73031,Bethlehem
Bethlehem,[],,New Hampshire,,,Palestine,,,44.28034,-71.68814,Bethlehem
Big Beaver Creek,[],,Pennsylvania,,,,H,,39.94816,-76.25162,Big Beaver Creek
Big Sodus Bay,[],,New York,,,,H,,43.33817,-76.72821,Blind Sodus Bay
Bigbear Creek,[],,Ontario,,,,H,,48.862,-84.49419,Bear Creek
Black Creek,[],,,,,tribut. of St. Marys River,H,,46.2501,-62.44864,Black Creek
Black River,['presumably'],,Ohio,,,,H,,41.47282,-82.18404,Black River
Blue Mountains,[],,Pennsylvania,,,,T,,40.12453,-77.66638,Blue Mountain
Blue Mountains,[],Franklin County,Pennsylvania,,,,T,,39.95037,-77.93667,Big Mountain
Boston,[],,Massachusetts,,,,,,42.35843,-71.05977,Boston
Bound Brook,['Bambrug'],Somerset County,New Jersey,,,,,,40.56844,-74.53849,Bound Brook
Brant's Town,"['probably Brantford', 'Ontario']",,,,,,,,49.25014,-84.49983,Ontario
Brantford,['called Brownstown'],,Ontario,,,Brand's Town | Mohawk Town,,,43.1668,-80.29967,Brantford
Bremen,[],,,Germany,,,,,53.08333,8.83333,Bremen
Bristol,[],Bucks County,Pennsylvania,,,,,,40.10067,-74.85183,Bristol
Broad Mountain,[],,,,,Pocono Plateau,T,,39.98231,-77.8225,Broad Mountain
Brotherton,['Brothertown'],,New York,,,Mohawk River,,,42.94868,-75.42128,Brothertown
Brownstown,[],,Michigan,,,mouth of Huron River below Detroit,,,42.07782,-83.18937,Brownstown Creek
Bucks County,[],Bucks County,Pennsylvania,,,,,,40.33694,-75.10687,Bucks County
Buffalo,[],,New York,,,,,,42.88645,-78.87837,Buffalo
Buffalo Creek,[],Brooke County,West Virginia,,,,H,,40.26451,-80.61535,Buffalo Creek
Burlington,[],,Ontario,,,,,,43.38621,-79.83713,Burlington
Burlington,[],,New Jersey,,,,,,40.07122,-74.86489,Burlington
Butler County,['Fort Hamilton'],Butler County,Ohio,,,,,,39.43865,-84.57566,Butler County
Caledonia,[],Livingston County,New York,,,,,,42.97312,-77.85278,Caledonia
California,[],,California,,,,,,39.00934,-120.77076,California
Cambridge,[],Guernsey County,Ohio,,,,,,40.03118,-81.58846,Cambridge
Camden,[],,Ontario,,,,,,42.56678,-82.06649,Camden
Canaan,[],Litchfield County,Connecticut,,,,,,42.02731,-73.32928,Canaan
Canada,[],,,Canada,,,,,60.10867,-113.64258,Canada
Canajoharis,"['Connitschochery', 'Conitshaggery']",Montgomery County,New York,,,,,,42.90563,-74.57181,Canajoharie
Canandagua,[],Ontario County,New York,,,,,,42.87423,-77.28804,Canandaigua
Canaseraga Creek,[],Livingston County,New York,,,,H,,42.75534,-77.84056,Canaseraga Creek
Canoos,['Oil Creek'],,New York,,,,,,42.16979,-78.38891,Oil Creek
Canoos,['Oil Creek'],,Pennsylvania,,,,,,39.86427,-76.88998,Oil Creek
Canterbury,[],,,,,England,,,45.89541,-67.46781,Canterbury
Canton,[],,Ohio,,,,,,40.79895,-81.37845,Canton
Cape Cod,[],,Massachusetts,,,,T,,41.6862,-70.24308,Cape Cod
Cape of Good Hope,[],,,,,,T,,-34.35027,18.47909,Cape of Good Hope
Caribbean Islands,[],,,,,,,,27.63059,-97.30332,Caribbean Park
Carleton Island,[],,,,,Lake Ontario,,,58.05029,-102.01744,Carleton Island
Carlisle,[],Cumberland County,Pennsylvania,,,,,,40.20148,-77.18887,Carlisle
Carolina,[],,,,,Colony,,,31.24073,-86.52774,Carolina
Catskill,[],,New York,,,County | Greene,,,42.21731,-73.86457,Catskill
Catskill Mountains,[],,New York,,,,T,,42.25036,-74.24987,Catskill Mountains
Cayuga,['town'],,New York,,,,,,42.91896,-76.72634,Cayuga
Cayuga Lake,[],,New York,,,,,,42.58171,-76.63492,Cayuga Lake
Chartiers Creek,[],Allegheny County,Pennsylvania,,,,H,,40.46507,-80.05283,Chartiers Creek
Chemung,"['Schammungk', 'Schommunk', 'Shammunk', 'Shommunk', 'Uschummo', 'Uschommung']",,New York,,,town in Chemung County,,,42.00841,-76.62384,Chemung
Chenango,[],,,,,,,,30.33242,-91.25622,Chenango
Cherokee River,[],,,,,,H,,40.41672,-83.79521,Cherokee Run
Chester,[],,Pennsylvania,,,near Philadelphia,,,39.84967,-75.35707,Chester
Chester County,[],Chester County,Pennsylvania,,,,,,39.97314,-75.74845,Chester County
Chestnut Hill,[],,,,,,T,,39.65094,-75.77049,Chestnut Hill
Chestnut Hill near Gnadenhutten,['Kastanienberg'],Carbon County,Pennsylvania,,,,T,,41.04148,-75.63741,Chestnut Ridge
Chippawa,['Chippaway'],,Ontario,,,,,,43.0571,-79.04717,Chippawa
Chippewa,[],,,,,,,,44.49736,-76.82644,Chippewa
Chippewa Creek,[],,Ontario,,,near Niagara,H,,46.3001,-79.46633,Chippewa Creek
Chippewa Town,[],,Ontario,,,,,,44.49736,-76.82644,Chippewa
Christian Spring,[],,Pennsylvania,,,,,,40.73426,-75.34074,Christian Springs
Christiansbrunn,['Christian Spring'],,Pennsylvania,,,place near Nazareth,,,39.95483,-75.99689,Christiana
Cincinnati,[],,Ohio,,,,,,39.12711,-84.51439,Cincinnati
Cleveland,['Cleveland'],,Ohio,,,,,,41.4995,-81.69541,Cleveland
Clinton River,[],,Michigan,,,,H,,42.59476,-82.77547,Clinton River
Codorus Creek,['Catores'],York County,Pennsylvania,,,,H,,40.05843,-76.64413,Codorus Creek
Columbia,[],Hamilton County,Ohio,,,,,,39.11173,-84.43466,Columbia
Conestoga,[],Lancaster County,Pennsylvania,,,,,,39.94066,-76.34635,Conestoga
Connecticut,[],,Connecticut,,,,,,41.66704,-72.66648,Connecticut
Conrad Weiser's Creek,['Tulpehocken Creek'],Berks County,Pennsylvania,,,,H,,40.34454,-75.95021,Tulpehocken Creek
Copenhagen,[],,,Denmark,,,,,55.67594,12.56553,Copenhagen
Cornelius Creek,[],,,,,tributary to Muskingum River,H,,34.71259,-87.84614,Cornelius Creek
Cornwall,[],Litchfield County,Connecticut,,,,,,41.84371,-73.32928,Cornwall
Coshocton,[],,,,,former Goschachgunk,,,40.27202,-81.85958,Coshocton
Cranberry,"['also Crambarry', 'Cramburry', 'etc.']",,New Jersey,,,,,,39.85206,-74.1932,Cranberry Hill
Credit River,[],,Ontario,,,,H,,43.55206,-79.59372,Credit River
Croton River,['Groodens Revier'],,,,,,H,,41.18371,-73.87958,Croton River
Cumberland County,[],Cumberland County,Pennsylvania,,,,,,40.16363,-77.26555,Cumberland County
Cunningham Island,[],,Ontario,,,probably Pelee Island,,,45.4168,-75.74935,Cunningham Island
Cuyahoga River,[],,,,,,H,,41.50366,-81.71235,Cuyahoga River
Cuyahoga River and place,"['Cajihaga', 'Cayahaga', 'Gajahaga']",,Ohio,,,Akron,H,,41.50366,-81.71235,Cuyahoga River
Damascus,[],,,,,8 miles from Goschgoschunk | place on Allegheny River,,,45.462,-65.80302,Damascus
Danbury,['Tenburey'],Fairfield County,Connecticut,,,,,,41.39482,-73.45401,Danbury
Dansville,['Danville'],Livingston County,New York,,,,,,42.5609,-77.69611,Dansville
Dartmouth College,[],,,,,,,,43.70035,-72.28641,Dartmouth College
Dartmouth College,[],Hanover,New Hampshire,,,,,Hanover,43.70035,-72.28641,Dartmouth College
Dauphin County,['Dauphiny'],Dauphin County,Pennsylvania,,,,,,40.41544,-76.77947,Dauphin County
Deer Creek,[],Pickaway County,Ohio,,,,H,,39.61213,-83.24082,Deer Creek Lake
Delaware River,[],,,,,Water Gap,H,,39.43261,-75.52881,Delaware River
Delaware River Valley,[],,,,,,T,,41.36509,-74.68961,Delaware River Gorge
Derby,[],New Haven County,Connecticut,,,,,,41.32065,-73.089,Derby
Detroit,[],,Michigan,,,City and Fort,,,42.33143,-83.04575,Detroit
Detroit River,[],,,,,,H,,42.04116,-83.14986,Detroit River
Detroit River Island,[],,,,,,H,,42.04116,-83.14986,Detroit River
Dry Ridge,[],,Pennsylvania,,,,,,39.98091,-78.65807,Dry Ridge
Dublin,[],,,Ireland,,,,,53.33306,-6.24889,Dublin
Dundas,[],,Ontario,,,,,,43.27291,-79.94216,Dundas
Dungannon,[],,Ontario,,,,,,45.05012,-77.7495,Dungannon
Dutchess County,[],Dutchess County,New York,,,,,,41.76515,-73.74286,Dutchess County
East Indies,[],,,,,,,,42.06318,-73.19284,East Indies Pond
Easton,[],,Pennsylvania,,,,,,41.12728,-79.54088,Easton
Elizabeth,['Elizabeth Point'],,New Jersey,,,,,,40.66399,-74.2107,Elizabeth
Elizabethtown,[],Lancaster County,Pennsylvania,,,,,,40.15287,-76.60275,Elizabethtown
Emmaus,[],,Pennsylvania,,,,,,40.53954,-75.49685,Emmaus
England,[],,,,,,,,34.54426,-91.96903,England
Ephrata,[],Lancaster County,Pennsylvania,,,,,,40.17982,-76.17884,Ephrata
Esopus,[],Ulster County,New York,,,Sopus & Kingston & Kingston & Kingston | Sopus,,,41.82787,-73.96514,Esopus
Europe,[],,,,Europe,,,,45.27262,-86.98636,Europe Lake
Eva Creek,[],,,,,,H,,51.03466,-127.34628,Eva Creek
Fairfield,['Old Fairfield'],,Connecticut,,,,,,41.14121,-73.26373,Fairfield
Falls of the Ohio,[],,,,,,H,,38.27201,-85.75218,Falls of the Ohio
Fannetsburg,[],Franklin County,Pennsylvania,,,,,,40.06509,-77.82944,Fannettsburg
Farmington,"['Firmingtown', 'Vermonthaun']",Hartford County,Connecticut,,,,,,41.71982,-72.83204,Farmington
Fayette County,[],Fayette County,Pennsylvania,,,,,,39.9199,-79.64737,Fayette County
Ferry House,[],,,,,Thames River,,,41.68611,-73.89444,Ferry House
Fighting Island,[],,,,,below Detroit,,,42.21679,-83.11655,Fighting Island
Forks of the Road,[],,,,,,,,36.01201,-89.15896,Forks of the River
Fort Cumberland,[],,Maryland,,,,,,39.65056,-78.76583,Fort Cumberland (historical)
Fort Edward,[],Washington County,New York,,,,,,43.26702,-73.58456,Fort Edward
Fort Erie,[],,Ontario,,,,,,42.90012,-78.93286,Fort Erie
Fort Hamilton,[],,,,,,,,40.61872,-74.0332,Fort Hamilton
Fort Harmer,[],,Ohio,,,mouth of Muskingum River,,,39.40972,-81.45833,Fort Harmer (historical)
Fort Hunter,[],,New York,,,,,,42.74313,-73.94262,Fort Hunter
Fort Laurena,[],,,,,,,,40.63978,-81.45762,Fort Laurens Cemetery
Fort Laurens,"['Laurence', 'Lawrence']",,Ohio,,,near Bolivar,,,40.63978,-81.45762,Fort Laurens Cemetery
Fort Ligonier,[],,,,,,,,40.24063,-79.23725,Fort Ligonier
Fort Littleton,[],,Pennsylvania,,,Futon County,,,40.06286,-77.96361,Fort Littleton
Fort Loudoun,[],Franklin County,Pennsylvania,,,,,,39.91481,-77.90472,Fort Loudon
Fort McIntosh,[],,,,,Ohio River at Beaver Creak,,,27.51585,-99.52115,Fort McIntosh
Fort McIntosh,[],,,,,Ohio River,,,27.51585,-99.52115,Fort McIntosh
Fort Meigs,[],,Ohio,,,Weed County | Maumee River rapids,,,41.55172,-83.64021,Fort Meigs Cemetery
Fort Ontario,[],,New York,,,Oswego,,,43.46833,-76.50583,Fort Ontario Cemetery
Fort Oswego,[],,New York,,,,,,43.46139,-76.51444,Fort Oswego (historical)
Fort Pitt,[],,,,,,,,53.65018,-109.75154,Fort Pitt
Fort Plain,[],,New York,,,,,,42.93146,-74.62264,Fort Plain
Fort Schuyler,"['Skulker', 'Skuyler']",,New York,,,Utica,,,43.10229,-75.21905,Fort Schuyler Park
Fort Stanwix,[],,New York,,,Rome & original name of Fort Schuyler,,,43.21694,-75.45333,Fort Stanwix Park
Fort Wabash,"['Vincennes', 'Indiana']",,,,,,,,38.67727,-87.52863,Vincennes
Fort Wayne,[],,Indiana,,,Kikeyuak | also Gigeyunk,,,41.1306,-85.12886,Fort Wayne
Forty Mile Creek,[],,,,,,H,,43.20011,-79.54961,Forty Mile Creek
Four Brothers,['Vier Bruder'],,,,,,,,49.23299,-121.65255,Four Brothers
Four Mile Creek,[],Butler County,Ohio,,,,H,,39.42506,-84.54356,Four Mile Creek
France,[],,,France,,,,,45.60366,-0.84802,France
Franckfurth,['Frankford'],Philadelphia County,Pennsylvania,,,,,,40.01384,-75.07859,Frankford
Frederickstown,['Friedrickstown'],Montgomery County,Pennsylvania,,,,,,40.30288,-75.52935,Frederick
Freehold,[],,New York,,,Greens County,,,42.35925,-74.04986,Freehold
Freehold,[],Monmouth County,New Jersey,,,,,,40.26011,-74.27376,Freehold
Frenchtown,[],,Pennsylvania,,,,,,41.612,-80.02172,Frenchtown
Friedenshutten,[],,Pennsylvania,,,Bethlehem & Wyalusing | on Susquehanna,,,40.73454,-75.61602,Friedens
Friedensthal,[],,Pennsylvania,,,near Nazareth,,,40.73454,-75.61602,Friedens
Gallipolis,['Galliopolis'],,Ohio,,,Gallis County | O & Gallis County,,,38.8098,-82.20237,Gallipolis
Ganawacu,[],,,,,,,,35.68924,-90.64317,Ganaway Creek
Genesee River,"['Chennessee', 'Tscheneshee']",,New York,,,,H,,43.2584,-77.60222,Genesee River
Geneseo,[],,,,,,,,38.51612,-98.15672,Geneseo
Geneseo,"['Zoneschio', 'Zonesschio']",Livingston County,New York,,,,,,42.7959,-77.81695,Geneseo
Genessie River,['Chenessie'],,New York,,,near Rochester,H,,43.2584,-77.60222,Genesee River
Geneva,[],Ontario County,New York,,,,,,42.86896,-76.97774,Geneva
Georgetown,[],,,,,District of Columbia,,,47.49989,-53.21478,Georgetown
Georgetown,[],Beaver County,Pennsylvania,,,,,,40.64145,-80.49784,Georgetown
Georgia,[],,Georgia,,,,,,32.75042,-83.50018,Georgia
Germantown,[],,Pennsylvania,,,,,,39.76927,-77.14804,Germantown
Germantown,[],Montgomery County,,,,Pennsylvania,,Montgomery County,45.66819,-64.81549,Germantown
Gigeijunk,['Maumee'],,Indiana,,,Fort Wayne | town at the Forks of Miami River,,,39.02116,-86.26165,Maumee
Gigeyunk,['Fort Wayne'],,,,,,,,41.1306,-85.12886,Fort Wayne
Glass House,['?'],,,,,Highlands New York,,,37.2207,-76.78524,Glass House
Gnadenfroi,[],,,Germany,,,,,48.71312,11.17083,Gnadenfeld
Gnadenhutten,['White settlement'],Tuscarawas County,Ohio,,,,,,40.3584,-81.43428,Gnadenhutten
Gnadenhutten,['M.'],,Ohio,,,on Muskingum River,,,40.3584,-81.43428,Gnadenhutten
Goshen,[],,New York,,,,,,41.40204,-74.32432,Goshen
Gothenburg,[],,,Sweden,,,,,57.70066,11.94737,Gothenburg Port
Grace Half,['Fulneck'],,,,,England | Yorkshire,,,41.18371,-73.86541,Grace Hall
Graceham,[],,Maryland,,,,,,39.61427,-77.38165,Graceham
Grand River,[],,Ohio,,,,H,,41.76032,-81.28066,Grand River
Grand River,['Schwago'],,Ontario,,,,H,,42.85011,-79.56631,Grand River
Grand River,[],,Ohio,,,Cuyahoga River,H,,41.76032,-81.28066,Grand River
Granville,[],Licking County,Ohio,,,,,,40.06812,-82.5196,Granville
Great Beaver Creek,[],,,,,,H,,54.44988,-123.66985,Great Beaver Creek
Great Creek,"['Ohio River', 'Lehigh River']",,,,,,H,,34.78822,-76.48631,Great Creek
Great Island,[],Clinton County,Pennsylvania,,,in West Branch Susquehanna River & below Lock Haven | West Branch Susquehanna,,,41.14007,-77.40692,Great Island
Great Island,[],,,,,,,,47.23879,-52.77995,Great Island
Great Lakes,"['Laks', 'Lacks']",,,,,,,,42.30919,-87.85007,Great Lakes
Great Miami,[],,Ohio,,,,,,39.10867,-84.81439,Great Miami River
Great Miami River,[],,,,,,H,,39.10867,-84.81439,Great Miami River
Green Bay,[],,Wisconsin,,,,H,,45.02971,-87.46094,Green Bay
Greenland,[],,,Greenland,,,,,72.0,-40.0,Greenland
Greensburg,[],Westmoreland County,Pennsylvania,,,,,,40.30146,-79.53893,Greensburg
Greentown,[],,Ohio,,,near Mansfield | Sambesink | Penexit's Town | also Armstrong's Town,,,40.25146,-80.76842,Greentown
Greenville,[],Darke County,Ohio,,,,,,40.10283,-84.63301,Greenville
Greenwich,[],,Connecticut,,,County | Fairfield,,,41.02649,-73.62846,Greenwich
Greenwich,[],Washington County,New York,,,,,,43.09063,-73.49873,Greenwich
Guernsey County,[],Guernsey County,Ohio,,,,,,40.05205,-81.49426,Guernsey County
Gulf of Lawrence,[],,,,,,H,,49.00003,-58.99849,Gulf of St. Lawrence
Hagerstown,[],,Maryland,,,,,,39.64176,-77.71999,Hagerstown
Hamilton,[],Hamilton,Ohio,,,,,Hamilton,39.3995,-84.56134,Hamilton
Hannastown,[],,Pennsylvania,,,,,,40.35368,-79.49671,Hannastown
Harrisburg,[],,Pennsylvania,,,,,,40.2737,-76.88442,Harrisburg
Harrison's Ferry,"['Harrisburg', 'Pennsylvania']",,Pennsylvania,,,Harrisburg | Harris Ferry,,,40.2737,-76.88442,Harrisburg
Hartford,[],,Connecticut,,,,,,41.76371,-72.68509,Hartford
Havanna,['Awanna'],,,,,,,,35.3673,-88.10031,Havanna Church
Hebron,[],Lebanon County,Pennsylvania,,,,,,40.33898,-76.3994,Hebron
Heidelberg,[],Berks County,Pennsylvania,,,,,,40.36093,-76.13161,Heidelberg Cemetery
Herrnbaag,[],,,Germany,,,,,49.7043,12.25063,Herrnbach
Herrnhut,[],,,Germany,,,,,51.01624,14.74381,Herrnhut
Hickory Tavern,[],,New Jersey,,,,,,40.74649,-74.4321,Hickory Tree
Hocking River,[],,,,,tribut. of Ohio River,H,,39.18424,-81.7543,Hocking River
Hokendaugua Creek,[],Northampton County,Pennsylvania,,,,H,,40.67676,-75.48991,Hokendauqua Creek
Holland,[],,,,,,,,48.9168,-65.41542,Holland
Holsbon River,[],,Tennessee,,,,H,,35.95925,-83.85018,Holston River
Hope,[],,New Jersey,,,,,,40.91121,-74.96739,Hope
Hope,['Hoop'],,,Suriname,,,,,5.91667,-56.41667,Hope
Hopedale,[],,,,,Labrador,,,55.46737,-60.20319,Hopedale
Horn River,['Eskenne'],,,,,,H,,61.50026,-118.01951,Horn River
Horseshoe Fall,[],,Ontario,,,Niagara River,,,43.07732,-79.07501,Horseshoe Falls
Housatonic River,[],,Connecticut,,,,H,,41.16926,-73.10844,Housatonic River
Hudson,[],Summit County,Ohio,,,,,,41.24006,-81.44067,Hudson
Hudson,[],,,,,,,,45.45008,-74.14922,Hudson
Hudson Bay,[],,,,,,H,,44.68342,-76.28269,Hudson Bay
Hudson River,['North River'],,New York,,,,H,,40.69677,-74.0282,Hudson River
Humber River,[],,Ontario,,,,H,,43.63342,-79.4663,Humber River
Hurley,[],Ulster County,New York,,,,,,41.92454,-74.06125,Hurley
Huron River,['Petquotting River'],,,,,O,H,,46.90992,-88.03679,Huron River
Huron River,"['al', 'Petquotting']",,Ohio,,,,H,,41.3981,-82.54906,Huron River
Huron River,['Clinton'],,Michigan,,,,H,,46.90992,-88.03679,Huron River
Huron River Macomb County,['Clinton River'],,Michigan,,,,H,,46.90992,-88.03679,Huron River
Hutberg,[],,,Germany,,hill near Herrnhut,,,52.05,14.65,Hutberg
Illinois,[],,Illinois,,,,,,40.00032,-89.25037,Illinois
Illinois River,[],,,,,,H,,35.48926,-95.09774,Illinois River
Industry,[],,Ohio,,,place on Mahony Creek,,,41.07728,-81.19427,Industry
Islington,[],,,,,England,,,47.76659,-53.48139,Islington
Jamaica,[],,,Jamaica,,West Indies,,,18.16667,-77.25,Jamaica
Jefferson County,[],Jefferson County,Ohio,,,,,,40.38502,-80.76097,Jefferson County
Jena,[],,,Germany,,,,,50.92878,11.5899,Jena
Jenky Hall,[],,,,,Detroit,,,38.14955,-80.99482,Jenky
Johnson's Harbor,"['probably Kuckville', 'New York']",,,,,,,,39.68529,-93.92688,New York
Jongquakamik Landing,[],,Ontario,,,,,,46.89837,-84.37823,Jones Landing
Jongquakamik River,['East Sydenham'],,Ontario,,,,H,,45.2668,-75.69935,Jock River
Juniata Crossings,[],Bedford County,Pennsylvania,,,,,,39.99453,-78.26862,Juniata Crossing
Juniata River,[],,Pennsylvania,,,Tachochniato,H,,40.40092,-77.01359,Juniata River
Kanawha River,['Canhawa'],,West Virginia,,,,H,,38.83786,-82.14264,Kanawha River
Ke-kek-ton long timber,['Mohawk'],,,,,,,,33.06819,-93.18517,Mohawk
Kent,[],Litchfield County,Connecticut,,,,,,41.72482,-73.47707,Kent
Kentucky,"['Kentuk', 'Kentuke']",,Kentucky,,,,,,38.20042,-84.87762,Kentucky
Kinderhook,[],Columbia County,New York,,,,,,42.39536,-73.6979,Kinderhook
King's Island,['Grosse Ile'],,Michigan,,,,,,42.12532,-83.15826,Grosse Ile
Kingston,"['Esopa', 'Sopus']",,Ontario,,,N.Y,,,44.22976,-76.48098,Kingston
Kingston New York,['Esopus'],,,,,,,,41.82787,-73.96514,Esopus
Kitigan,[],,Ontario,,,Chippewa town,,,49.38444,-82.29889,Kitigan
Kittannuk,[],,Pennsylvania,,,Kittanning,,,40.81645,-79.52199,Kittanning
Kittatinny Hills,['Blue Mountains'],,Pennsylvania,,,,T,,40.02481,-77.83833,Kittatinny Mountain
Konigsfeld,[],,,Germany,,,,,51.06667,12.75,Konigsfeld
Ktukquiminschi,['Black Walnut'],,Pennsylvania,,,Erie | town near Presqu'isle,,,41.61424,-76.11743,Black Walnut
Kui-lu-ta-men,['Delaware'],,,,,Place of surprise,,,42.91679,-81.41646,Delaware
Labrador,[],,,,,Terra,,,47.09778,-77.5275,Lac Labrador
Lac,['also Long Lake'],,New York,,,Poponming Pond Monroe County,,,43.31404,-74.71794,Long Lake
Lackawanna River,[],,Pennsylvania,,,,H,,41.34147,-75.79269,Lackawanna River
Lake,['Poponoming'],,,,,,,,44.71683,-77.74949,Lake
Lake Erie,"['Lake', 'Lack', 'Lac']",,,,,,,,42.2501,-80.99973,Lake Erie
Lake George,[],Warren County,New York,,,,,,43.60192,-73.57946,Lake George
Lake Huron,[],,,,,,,,44.64083,-81.76806,Lake Huron
Lake Michigan,[],,,,,,,,44.00778,-86.75698,Lake Michigan
Lake Ontario,['Dundas'],,,,,,,,43.75012,-77.99951,Lake Ontario
Lake St. Clair,['Sinclair'],,,,,,,,45.41681,-79.06631,Sinclair
Lake Superior,[],,,,,,,,48.33222,-87.09861,Lake Superior
Lancaster,[],,Pennsylvania,,,Pennsylvania? | Massachusetts? & Moravian place,,,40.03788,-76.30551,Lancaster
Lancaster,[],Fairfield County,Ohio,,,,,,39.71368,-82.59933,Lancaster
Lancaster County,[],Lancaster County,Pennsylvania,,,,,,40.04244,-76.2477,Lancaster County
Laramie Creek,[],Shelby County,Ohio,,,,H,,40.18894,-84.24217,Loramie Creek
Laurel Hill,[],,Pennsylvania,,,Westmoreland and Somerset County,T,,40.69093,-75.53713,Laurel Hill
Leek Island,[],,,,,Delaware River,,,45.2168,-80.13298,Leek Island
Lees Creek,[],,Ohio,,,Fayette and Highland County,H,,39.33729,-83.49131,Lees Creek
Leh-cha-week,['Delaware'],,,,,,,,42.91679,-81.41646,Delaware
Leh-cha-wi-tank,['Delaware'],,,,,,,,42.91679,-81.41646,Delaware
Leh-oha-wa-hen-neek,['Delaware'],,,,,the Forks,,,42.91679,-81.41646,Delaware
Lehigh River,['Lecha'],,Pennsylvania,,,,H,,40.68899,-75.20434,Lehigh River
Leipzig,[],,,Germany,,,,,51.33962,12.37129,Leipzig
Licking,['Zanesville'],Muskingum County,Ohio,,,,,,39.94035,-82.01319,Zanesville
Ligonier,[],,Pennsylvania,,,,,,40.24313,-79.23753,Ligonier
Limestone,[],Mason County,Kentucky,,,Maysville,,,38.64757,-83.76048,Limestone Creek
Litchfield,[],Litchfield County,Connecticut,,,,,,41.74732,-73.18872,Litchfield
Lititz,[],,Pennsylvania,,,Moravian Center,,,40.15732,-76.3069,Lititz
Little Beaver Creek,[],,Ohio,,,,H,,38.84591,-82.3896,Little Beaver Creek
Little Lake,[],,,,,,,,53.53346,-60.16491,Little Lake
Little Lehigh Creek,[],Lehigh County,Pennsylvania,,,,H,,40.59722,-75.44861,Little Lehigh Creek
Little Miami River,[],,Ohio,,,,H,,39.07812,-84.433,Little Miami River
Little Schuylkill River,[],,Pennsylvania,,,,H,,40.5787,-76.0266,Little Schuylkill River
Little Stillwater Creek,[],,Ohio,,,Tuscarawas and Harrison County,H,,40.40423,-81.34122,Little Stillwater Creek
Little Yellow Creek,[],Columbiana County,Pennsylvania,,,,H,Columbiana County,40.85479,-80.09867,Little Yellow Creek
Locust Point,[],Ottawa County,Ohio,,,,S,,41.59571,-83.10581,Locust Point Cemetery
Locust Point Ottawa County,['called Honey Locust Point'],,Ohio,,,,S,,41.59571,-83.10581,Locust Point Cemetery
London,[],,,,,England,,,43.08339,-81.29975,London
Long Island,[],Lycoming County,Pennsylvania,,,West Branch of Susquehanna,,,41.2023,-77.24691,Long Island
Long Island,[],,New York,,,,,,43.86506,-74.45433,Long Island
Long Island Sound,[],,,,,,,,54.80029,-79.36635,Long Island Sound
Long Island. New York,[],,,,,,,,34.38787,-86.18581,Little New York
Louisiana,[],,Louisiana,,,,,,31.00047,-92.0004,Louisiana
Lower Sandusky,"['St. Dusky', 'Fremont']",,Ohio,,,Fremont,,,41.35033,-83.12186,Fremont
Luzerne County,"['Wajomick', 'Wajomik']",Luzerne County,Pennsylvania,,,,,,41.17701,-75.98903,Luzerne County
Machilusing,"['Machelusing Machwihilussunk', 'Wichlusing', 'Wichloosing', 'Wichilusing', 'Wihilusing', 'Wialusing', 'Wyalusing']",,,,,,,,41.66813,-76.26188,Wyalusing
Mackinaw City,['Makina'],,Michigan,,,,,,45.7777,-84.72982,Mackinaw City
Macungie,['also Maguntsche'],Lehigh County,,,,,,Lehigh County,40.51593,-75.55519,Macungie
Mahoning Creek,['Mahony'],,Pennsylvania,,,Pa & Ohio between Ravenna and Canfield,H,,40.93312,-79.46115,Mahoning Creek
Mahoning Creek Carbon County,['Mahoni'],,Pennsylvania,,,,H,,40.93312,-79.46115,Mahoning Creek
Mahony,[],,,,,,,,39.03778,-94.94608,Mahon
Makkinak,"['Mackinaw City', 'Michigan']",,,,,,,,45.7777,-84.72982,Mackinaw City
Malden,['also Fort Malden'],,Ontario,,,,,,42.08339,-83.04985,Malden
Manheim,[],Lancaster County,Pennsylvania,,,,,,40.16343,-76.39496,Manheim
Marbletown,[],Ulster County,New York,,,,,,41.88343,-74.1132,Marbletown
Marienborn,[],,,Germany,,,,,51.4,9.5,Marienborn
Marietta,[],,,,,,,,31.14101,-86.77718,Marietta
Marietta,[],Washington County,Ohio,,,,,,39.41535,-81.45484,Marietta
Maryland,[],,Maryland,,,,,,39.00039,-76.74997,Maryland
Massachusetts,[],,Massachusetts,,,,,,42.36565,-71.10832,Massachusetts
Massch-piuk,['Delaware'],,,,,Wonderful Water,,,42.91679,-81.41646,Delaware
Maumee Bay,['Miami'],,,,,also Tawa Bay,H,,41.72144,-83.40465,Maumee Bay
Maumee River,"['Miami', 'often called Miami', 'Great Miami', 'Miami of the Lake', 'Tawa River']",,Ohio,,,O,H,,41.69949,-83.45993,Maumee River
Mesheppen Creek,['Meshopping'],Wyoming County,Pennsylvania,,,,H,,41.61258,-76.05048,Meshoppen Creek
Mexico,[],,,Mexico,,,,,19.4,-99.73333,Mexico
Miami Bay,['Maumee'],,,,,,H,,41.72144,-83.40465,Maumee Bay
Miami River,"['Great Miami', 'Maumee', 'Great Niami']",,Ohio,,,Ohio-Indians & Ohio-Indiana & Great Miami River | also Unami,H,,39.10867,-84.81439,Great Miami River
Miami Towns,['Maumee'],,Indiana,,,,,,39.02116,-86.26165,Maumee
Michigan,[],,Michigan,,,,,,44.25029,-85.50033,Michigan
Middle Mountain Franklin County,['also Kittanning Mountain'],,Pennsylvania,,,,T,,41.23648,-75.27713,Middle Mountain
Middletown,['Middle Town'],Dauphin County,Pennsylvania,,,,,,40.19981,-76.73108,Middletown
Mifflin County,[],Mifflin County,Pennsylvania,,,,,,40.61041,-77.61704,Mifflin County
Milford,['Old Milford'],New Haven County,Connecticut,,,,,,41.22232,-73.0565,Milford
Milk River,[],Milk River,Michigan,,,,H,Milk River,42.46059,-82.87547,Milk River
Minisink,[],,Pennsylvania,,,Upper Delaware River,,,40.99871,-75.13712,Minisink Hills
Mississinnawa,[],,Indiana,,,tributary of Wabash River | also Lemachtschesink,,,40.26504,-85.12414,Mississinewa Church
Mississippi River,[],,,,,,H,,45.43341,-76.28268,Mississippi River
Mississippi River and area,[],,,,,,L,,45.3,-93.77611,Mississippi River Park
Missouri River,[],,,,,,H,,38.8136,-90.1198,Missouri River
Moch-a-weam-ing,['Delaware'],,,,,where water runs through large clear flats,,,42.91679,-81.41646,Delaware
Mohawk River,[],,New York,,,,H,,42.76091,-73.68706,Mohawk River
Mohawk town,[],,Ontario,,,Brantford | Brand's Town,,,43.13391,-80.23158,Mohawk Lake
Mombaccus,['Monbacos'],Ulster County,New York,,,Rochester Township,,,41.81509,-74.31154,Mombaccus
Monocacy Creek,[],,Pennsylvania,,,,H,,40.25982,-75.76519,Monocacy Creek
Monocacy River,"['Manakosy', 'Manakosi']",,Maryland,,,,H,,39.22288,-77.45415,Monocacy River
Monongahela,"['Monongahela', 'Monongahala']",,,,,,,,40.20313,-79.92616,Monongahela
Monongahela River,[],,Pennsylvania,,,,H,,40.44174,-80.01616,Monongahela River
Montgomery County,[],Montgomery County,Pennsylvania,,,,,,40.21083,-75.3673,Montgomery County
Montmirail,[],,,Switzerland,,,,,47.01654,7.02622,Montmirail
Montreal,[],Montreal,Quebec,Canada,,,,,45.50884,-73.58781,Montreal
Mooch-han-nook,['Delaware'],,,,,Large River,,,42.91679,-81.41646,Delaware
Morgantown,[],,West Virginia,,,,,,39.62953,-79.9559,Morgantown
Morristown,[],,New Jersey,,,,,,40.42511,-74.25376,Morristown
Morristown,[],Belmont County,Ohio,,,,,,40.06313,-81.07427,Morristown
Moscow,[],,,Russia,,,,,55.75222,37.61556,Moscow
Mount Joy,[],Lancaster County,Pennsylvania,,,,,,40.10982,-76.5033,Mount Joy
Mount Pleasant,[],Jefferson County,Ohio,,,,,,40.17535,-80.79786,Mount Pleasant
Mount Rock,[],Cumberland County,Pennsylvania,,,,,,40.16064,-77.31721,Mount Rock
Muddy Creek,['Moden Creek'],Lancaster County,,,,Pa,H,Lancaster County,46.41684,-63.94873,Muddy Creek
Muncey,[],,Ontario,,,Thames River,,,42.82132,-81.44094,Muncey
Muncie,[],Delaware County,Indiana,,,,,,40.19338,-85.38636,Muncie
Musconetcong,['Miskanika'],,New Jersey,,,River and Mountain,,,40.59232,-75.18879,Musconetcong River
Muskingum,[],,Ohio,,,River and area,,,39.41619,-81.45818,Muskingum Park
Muskingum Camp,[],,,,,,,,39.96542,-81.94438,Muskingum County
Muskingum River,[],,,,,,H,,39.40924,-81.45623,Muskingum River
Muskingum River and Country,['Muschkingum'],,Ohio,,,,H,,39.40924,-81.45623,Muskingum River
Nanticoke,['Nanticoke Town'],Luzerne County,Pennsylvania,,,,,,41.20536,-76.00492,Nanticoke
Nanticoke Town,[],Luzerne County,Pennsylvania,,,,,,41.20536,-76.00492,Nanticoke
Nanticoke Town,[],,,,,,,,42.80011,-80.06635,Nanticoke
Nazareth,[],,Pennsylvania,,,,,,40.74038,-75.30962,Nazareth
Nazareth Hall,[],,,,,,,,45.03913,-93.16911,Nazareth Hall
Nescopeck,[],,Pennsylvania,,,,,,41.05203,-76.22077,Nescopeck
Nescopeck,"['Neeskipecky Neschopega', 'also Neskopeke', 'etc.', 'Neskopeko', 'Nessgabeke']",Luzerne County,Pennsylvania,,,,,,41.05203,-76.22077,Nescopeck
Neshaminy,['New Shammony'],Bucks County,Pennsylvania,,,,,,40.22955,-75.13878,Neshaminy
Neuwied,[],,,Germany,,,,,50.4336,7.47057,Neuwied
New Connecticut,[],,,,,,,,42.27313,-76.14798,New Connecticut
New England,[],,,,,,,,53.05006,-105.40102,New England
New Fairfield,[],Fairfield County,Connecticut,,,,,,41.46648,-73.48568,New Fairfield
New Fairfield,[],,,,,,,,39.50699,-84.97246,New Fairfield
New France,[],,,,,,,,44.31685,-65.76714,New France
New Hampshire,[],,New Hampshire,,,,,,43.66702,-71.4998,New Hampshire
New Haven,[],,Connecticut,,,,,,41.30815,-72.92816,New Haven
New London,[],,Connecticut,,,,,,41.35565,-72.09952,New London
New London County,[],New London County,Connecticut,,,,,,41.46678,-72.1065,New London County
New Milford,[],Litchfield County,Connecticut,,,,,,41.57704,-73.40845,New Milford
New Orleans,[],,Louisiana,,,,,,29.95465,-90.07507,New Orleans
New Philadelphia,[],,Ohio,,,,,,40.48979,-81.44567,New Philadelphia
New River,[],,West Virginia,,,,H,,38.16177,-81.1965,New River
New Salem,[],,,,,,,,45.42341,-64.78989,New Salem
New York,[],,New York,,,,,,43.00035,-75.4999,New York
New York City,[],,,,,,,,40.71427,-74.00597,New York City
Newark,[],,,,,,,,42.97449,-80.68678,Newark
Newark on Niagara River,[],,Ontario,,,,H,,43.26681,-79.04957,Niagara River
Newcomerstown,[],,Ohio,,,see Gekelemukpechunk,,,40.27229,-81.60595,Newcomerstown
Newell,['Newelstown'],Fayette County,Pennsylvania,,,,,,40.07563,-79.8981,Newell
Newfoundland,[],,,,,,,,48.56476,-55.77879,Newfoundland
Newtown,[],Fairfield County,Connecticut,,,,,,41.41398,-73.30345,Newtown
Newtown,['Newton'],,New York,,,site of Elmira,,,42.53895,-78.95698,Newtown
Niagara Falls,[],,,,,,H,,43.08342,-79.06627,Niagara Falls
Niagara-on-the-Lake,['Niagaratown'],,Ontario,,,,,,43.25655,-79.08527,Niagara-on-the-Lake
North Bend,[],Hamilton County,Ohio,,,,,,39.15256,-84.748,North Bend
North Branch,[],,New York,,,,,,43.31403,-74.79364,North Branch
North Branch,[],,New Jersey,,,,,,40.60205,-74.67738,North Branch
North Carolina,[],,North Carolina,,,Wachau,,,35.50069,-80.00032,North Carolina
Northampton County,[],Northampton County,Pennsylvania,,,,,,40.75423,-75.30742,Northampton County
Northumberland,[],,Pennsylvania,,,,,,40.89175,-76.79747,Northumberland
Nova Scotia,[],,Nova Scotia,,,,,,45.00015,-62.99865,Nova Scotia
Oblong,[],,,,,New York-Connecticut,,,39.00199,-87.90892,Oblong
Ohio,[],,Ohio,,,State,,,40.25034,-83.00018,Ohio
Ohio River,[],,,,,,H,,45.55015,-62.08189,Ohio River
Oil Creek,['Cances'],Venango County,Pennsylvania,,,,H,,41.43173,-79.70922,Oil Creek
Oil Creek,['Canoos'],,New York,,,,H,,42.16979,-78.38891,Oil Creek
Okak,[],,,,,Labrador,,,57.55025,-61.96477,Okak
Old Beaver Dam,[],,,,,,,,44.41047,-112.19721,Old Beaver
Old Mexico,[],,,,,,,,38.11971,-108.81455,Old Mexico Mine
Old Pennsylvania Road,[],,,,,,,,40.42896,-79.23253,Old Pennsylvania Canal
Oley,[],,,,,,,,40.38759,-75.78964,Oley
Oley,[],Berks County,Pennsylvania,,,,,,40.38759,-75.78964,Oley
Oneida,[],,New York,,,town east of Oneida Lake,,,43.09257,-75.65129,Oneida
Oneida Lake,[],,New York,,,,,,43.2032,-75.90984,Oneida Lake
Onengo,['Venango'],,,,,,,,38.6389,-97.98644,Venango
Onondaga Town,['Onondago'],,Ontario,,,Grand River,,,43.1334,-80.11635,Onondaga
Ontario,[],,Ontario,,,Town and Township & Thames River,,,49.25014,-84.49983,Ontario
Orford,[],,,,,Ontario. Gegoraphic Names,,,45.38314,-72.20069,Orford
Oswego,[],Oswego County,,,,New York Gegoraphic Names,,Oswego County,37.16757,-95.10996,Oswego
Oswego,['Ohsweken'],,Ontario,,,possibly Mingo place near Grand River,,,43.06681,-80.11635,Ohsweken
Oswego,[],,New York,,,New York Gegoraphic Names,,,43.45535,-76.5105,Oswego
Oswego River,[],,,,,New York Gegoraphic Names,H,,39.6581,-74.5277,Oswego River
Ottawa Channel,[],,,,,,,,42.93558,-86.06671,Ottawa Church
Owego,[],,,,,,,,42.27944,-96.15446,Owego
Owego,['Oweke'],Tioga County,New York,,,,,,42.10341,-76.26215,Owego
Owego River,[],,New York,,,,H,,43.46507,-76.51383,Oswego River
Owenachki,[],,Indiana,,,White River | Hackingpomaka's Town,,,38.45812,-85.5419,Owen
Owl Creek,[],,,,,Kekesing | possibly Gokhesing,H,,49.40011,-88.63335,Owl Creek
Oxford,[],,Ontario,,,,,,43.13339,-80.83301,Oxford
Paint Creek,"['probably Vermilion River', 'Ohio']",,,,,,H,,42.65289,-81.74978,Paint Creek
Paint River,[],,,,,Wulamanink,H,,45.96384,-88.24513,Paint River
Painted Post,[],Steuben County,New York,,,,,,42.16202,-77.09414,Painted Post
Partners,[],,,,,Second Nine,,,41.68952,-75.68741,Partners Creek
Paxtang,"['also Paxton', 'Paxton', 'Paxtown']",Dauphin County,Pennsylvania,,,,,,40.25898,-76.83192,Paxtang
Pennsbury Manor,['Pennsbury'],Bucks County,Pennsylvania,,,,,,40.13372,-74.76877,Pennsbury Manor State Park
Perth Amboy,[],,New Jersey,,,,,,40.50677,-74.26542,Perth Amboy
Petquotting Creek,['Huron River'],,Ohio,,,,H,,41.3981,-82.54906,Huron River
Petquotting River,['Huron River'],,,,,,H,,46.90992,-88.03679,Huron River
Philadelphia,[],,Pennsylvania,,,Barracks,,,39.95238,-75.16362,Philadelphia
Pickaway Plains,[],Pickaway County,Ohio,,,,,,39.54173,-82.99157,Pickaway Plains
Pigeon Roost,[],,,,,place near Blanchard River,,,34.69231,-83.97797,Pigeon Roost
Pinery,[],,Ontario,,,place on Thames River,,,45.31566,-78.13431,Pinery Lake
Pipe Creek,[],Erie County,Ohio,,,,H,,41.44727,-82.6649,Pipe Creek
Pittsburg,['Fort Pitt'],,Pennsylvania,,,,,,39.94677,-76.40302,Pittsburg
Pittsburgh,['Fort Pitt'],,Pennsylvania,,,,,,40.44062,-79.99589,Pittsburgh
Plains,[],,,,,,,,27.40948,-81.18423,Plains
Pohopoco Creek,"['also Puchgapuchga', 'Puchkepuch', 'Puchquapuchque', 'Buggaguchga', 'Bugabuga', 'etc.']",,Pennsylvania,,,Monroe and Carbon County,H,,40.81565,-75.67241,Pohopoco Creek
Point Pleasant,[],,West Virginia,,,Hasen County,S,,39.28481,-80.48676,Point Pleasant Church
Pommern,[],,,Germany,,Swedish,,,50.16667,7.28333,Pommern
Potomac River,"['Petowmac', 'Patomick']",,,,,,H,,46.22256,-82.98847,Potomac River
Poughkeepsie,[],Dutchess County,New York,,,,,,41.70037,-73.92097,Poughkeepsie
Presqu' Isle,['Prisqueisle'],,Pennsylvania,,,Erie,,,42.16311,-80.10117,Presque Isle
Princeton,['Prinstown'],,New Jersey,,,,,,40.34872,-74.65905,Princeton
Province Island,[],,Pennsylvania,,,Philadelphia & Philadelphia,,,39.88539,-75.22907,Province Island
Put in Bay,['Pudding Bay'],,,,,Ohio Georgraphic Names | Lake Eire,H,,37.41347,-76.3405,Put in Creek
Quebec,[],,Quebec,Canada,,,,,52.00017,-71.99907,Quebec
Queenston,['Queenstown'],,Ontario,,,,,,43.16682,-79.04957,Queenston
Race Hill,[],,,,,,T,,41.36704,-72.66371,Race Hill
Ravenna,[],,Ohio,,,,,,41.15756,-81.24205,Ravenna
Reading,[],,Pennsylvania,,,,,,40.33565,-75.92687,Reading
Red Hook,[],Dutchess County,New York,,,,,,41.99509,-73.87541,Red Hook
Redding,[],Fairfield County,Connecticut,,,,,,41.3026,-73.38345,Redding
Redstone,[],,Pennsylvania,,,now Bedford | probably Rays Town,,,40.0748,-79.80365,Redstone
Rhinebeck,['Reinbeck'],Dutchess County,New York,,,,,,41.92676,-73.91264,Rhinebeck
Rhode Island,[],,Rhode Island,,,,,,41.55566,-71.26422,Rhode Island
River Rouge,"['Reuche', 'River Bush']",,Michigan,,,,H,,42.28809,-83.1027,River Rouge
Rixdorf,['Rucksdorf'],,,Germany,,,,,54.20735,10.42434,Rixdorf
Rocky Hill,[],,New Jersey,,,,T,,40.379,-74.65933,Rocky Hill
Rocky River,[],Cuyahoga County,Ohio,,,,H,,41.49116,-81.8393,Rocky River
Ronneburg,[],,,Germany,,,,,50.8634,12.18666,Ronneburg
Rush Creek,[],Fairfield County,Ohio,,,,H,,39.62229,-82.54877,Rush Creek
Saddle,[],,,,,,,,47.73319,-52.76475,Saddle
Saginaw,"['Sackina', 'Sakina']",,Michigan,,,,,,43.41947,-83.95081,Saginaw
Salem,[],,North Carolina,,,North Carolina Moravian center,,,35.69874,-81.69704,Salem
Salem,[],,Ohio,,,,,,39.68257,-82.33543,Salem
Salisbury,[],,Connecticut,,,,,,41.98343,-73.42123,Salisbury
Salisbury,[],Somerset County,Pennsylvania,,,,,,39.75286,-79.08086,Salisbury
Salisbury,[],Litchfield County,Connecticut,,,,,,41.98343,-73.42123,Salisbury
Salt Creek,[],Muskingum County,Ohio,,,,H,,39.86618,-81.90041,Salt Creek
Salt River,[],,Michigan,,,west side of Lake St. Clair | Siwatakanisipi,H,,42.65337,-82.78492,Salt River
Salt Spring,"['Salineville', 'Ohio?']",,,,,,,,39.11255,-90.65457,Salt Spring
Saltlick,[],,,,,not far from Goshen,,,48.8209,-88.76867,Saltlick Creek
Sandusky,[],,Ohio,,,River and town,,,41.44894,-82.70796,Sandusky
Sandusky Bay,"['St. Deske', 'Little Lake']",,Ohio,,,,H,,41.47894,-82.8413,Sandusky Bay
Sandusky Plains,[],,Ohio,,,,,,40.75061,-83.24853,Sandusky Plains
Sandusky River,['St. Dusky River'],,Ohio,,,,H,,41.44783,-83.00269,Sandusky River
Sandwich,[],,Ontario,,,,,,42.28318,-83.05925,Sandwich
Sandy Creek,[],,Ohio,,,,H,,40.65784,-81.43734,Sandy Creek
Sarepta,[],,,Russia,,on Volga River,,,48.51662,44.53239,Sarepta
Saxony,[],,,,,,,,33.98623,-82.89209,Saxon
Scha-mung,['Delaware'],,,,,horn,,,42.91679,-81.41646,Delaware
Schenectady,['Schenechten'],,New York,,,,,,42.81424,-73.93957,Schenectady
Schoharie,"['Schochcheri', 'Schochery', 'also Sgochari', 'Schochari']",,New York,,,,,,42.66591,-74.30958,Schoharie
Schuylkill River,[],,Pennsylvania,,,,H,,39.88525,-75.19465,Schuylkill River
Scioto River,['Sioto'],,Ohio,,,,H,,38.73063,-83.01267,Scioto River
Scotland,[],,,,,,,,43.0168,-80.36637,Scotland
Seabrook,[],Rockingham County,New Hampshire,,,,,,42.89481,-70.87116,Seabrook
Shamokin,"['Shomokin', 'Shamoko', 'Shomoko', 'Schomoke', 'Schomoko']",,Pennsylvania,,,place on Susquehanna River,,,40.78897,-76.55885,Shamokin
Shamokin,['also Shomoko'],Northumberland County,Pennsylvania,,,Sunbury,,,40.78897,-76.55885,Shamokin
Shamokin Creek,[],Northumberland County,Pennsylvania,,,,H,,40.84175,-76.80552,Shamokin Creek
Shamokin Island,[],Northumberland County,Pennsylvania,,,,,,40.78897,-76.55885,Shamokin
Sharon,[],,Ohio,,,Tuscarawes County,,,39.73618,-81.5654,Sharon
Sharon,[],Litchfield County,Connecticut,,,,,,41.87926,-73.47679,Sharon
Shawnee Town,[],,,,,White River,,,39.07699,-94.70478,Shawnee Township Cemetery
Sheffield,[],Berkshire County,Massachusetts,,,,,,42.11037,-73.35511,Sheffield
Shekomeko,['Checomeko'],Dutchess County,New York,,,,,,41.92815,-73.59901,Shekomeko
Shenango,[],,,,,,,,48.38342,-82.69979,Shenango
Shippensburg,[],Cumberland County,Pennsylvania,,,also Shippenstown,,,40.05065,-77.52026,Shippensburg
Sideling Hill,[],Fulton County,Pennsylvania,,,,T,,39.87231,-78.2089,Sideling Hill
Sinking Spring,[],Berks County,Pennsylvania,,,,,,40.32731,-76.01105,Sinking Spring
Six Nations towns,[],,Ontario,,,Grand River,,,43.05528,-80.02611,Six Nations Corner
Skehantowa Shawnee center on the Susquehanna,"['Tschehantowah', 'Wyoming']",,,,,,,,42.95008,-82.11651,Wyoming
Sodus Point,[],,New York,,,,S,,43.27031,-76.98338,Sodus Point Post Office
Somerset,[],Perry County,Ohio,,,,,,39.80701,-82.29709,Somerset
Somerset,[],Somerset County,Pennsylvania,,,,,,40.00841,-79.07808,Somerset
Somerset County,[],Somerset County,,,,,,Somerset County,38.08007,-75.85347,Somerset County
South America,[],,,,South America,,,,37.70894,-88.67617,South America Church
South Branch,['probably Ohio River'],,,,,,,,47.91671,-59.03186,South Branch
South Carolina,[],,South Carolina,,,,,,34.00043,-81.00009,South Carolina
South Huron Strait,['Straight'],,,,,,,,43.31679,-81.51647,South Huron
South Sea Islands,[],,,,,,,,31.50161,-81.1262,Sea Islands
Southbury,[],New Haven County,Connecticut,,,,,,41.48148,-73.21317,Southbury
Spring Garden,[],,,,,,,,33.97288,-85.55385,Spring Garden
Springfield,[],Springfield,Ohio,,,,,Springfield,39.92423,-83.80882,Springfield
St. Clair River,[],,,,,,H,,42.55008,-82.66654,St. Clair River
St. Croix,['Crux'],,,,,West Indies & West Indies,,,44.96182,-64.0327,St. Croix
St. John,['Jan'],,,,,West Indies & West Indies & West Indies,,,48.93348,-80.88307,St. John
St. Joseph River,[],,,,,Ohio and Indiana,H,,49.80028,-84.03139,St. Joseph Lake
St. Lawrence River,[],,,,,,H,,49.66683,-64.49869,St. Lawrence River
St. Marys River,[],,,,,,H,,52.31178,-55.8391,St. Marys River
St. Thomas,[],,,,,West Indies,,,47.56659,-52.89806,St. Thomas
Staten Island,[],,New York,,,,,,40.56233,-74.13986,Staten Island
Steuben County,[],Steuben County,New York,,,,,,42.26781,-77.3838,Steuben County
Steubenville,[],,Ohio,,,,,,40.36979,-80.63396,Steubenville
Stillwater Creek,[],,,,,,H,,48.96681,-88.26673,Stillwater Creek
Stillwater Creek,[],Tuscarawas County,Ohio,,,Harrison and Tuscarawas County,H,,40.42423,-81.37178,Stillwater Creek
Stissing Mountain,['Stissick'],Dutchess County,New York,,,,T,,41.95648,-73.69263,Stissing Mountain
Stockbridge,['Old'],Berkshire County,Massachusetts,,,,,,42.28759,-73.32039,Stockbridge
Stone Creek,[],Tuscarawas County,Ohio,,,,H,,40.49173,-81.47651,Stone Creek
Stone Creek,"['probably Rocky River', 'Ohio']",,,,,,H,,50.43337,-91.53355,Stone Creek
Stone River,['Achsin'],,,,,,H,,50.66682,-87.46666,Stone River
Stony Creek,[],Logan County,Ohio,,,,H,,40.30477,-83.9291,Stony Creek
Stony Creek,[],Monroe County,Michigan,,,,H,,41.9431,-83.30299,Stony Creek
Stony Point,[],Monroe County,Michigan,,,,S,,41.95255,-83.27743,Stony Point Church
Stoystown,[],Somerset County,Pennsylvania,,,,,,40.10341,-78.94947,Stoystown
Straits,[],,,,,between Lake Erie and Lake Huron,,,34.72905,-76.57104,Straits
Stratford,[],Fairfield County,Connecticut,,,,,,41.18454,-73.13317,Stratford
Stromness,[],,,,,Island near mouth of St. Clair River,,,42.87306,-79.54556,Stromness
Stroudsburg,"['also Dansbury', 'Danesberg']",,Pennsylvania,,,,,,40.98676,-75.19462,Stroudsburg
Susquehanna,[],,Pennsylvania,,,River and area & West Branch & North Branch,,,41.94341,-75.59963,Susquehanna
Sussex County,[],Sussex County,New Jersey,,,,,,41.13946,-74.69023,Sussex County
Swan Creek,[],,Ontario,,,Lake Erie,H,,43.6334,-80.43299,Swan Creek
Swan River,[],,Michigan,,,vicinity of St. Clair River | Wabisisipi,H,,45.39224,-83.73499,Swan River
Swatara Creek,[],Dauphin County,Pennsylvania,,,,H,,40.18537,-76.73247,Swatara Creek
Switzerland,[],,,Switzerland,,,,,47.00016,8.01427,Switzerland
Ta-ne-wan-di,['Seneca'],,,,,rapid stream,,,43.03341,-79.83293,Seneca
Tahiti,['Otaheite'],,,,,,,,36.1007,-115.2108,Tahiti
Tenk-han-neck,['Delaware'],,,,,Small River,,,42.91679,-81.41646,Delaware
Tennessee,[],,Tennessee,,,,,,35.75035,-86.25027,Tennessee
Thames River,['Retrenche'],,Ontario,,,,H,,42.31679,-82.44981,Thames River
Ti-a-o-ga,['Mohawk'],,,,,the forks,,,33.06819,-93.18517,Mohawk
Tinkers Creek Cuyahoga County,"[""Dunker's Creek""]",,Ohio,,,,H,,41.36505,-81.60985,Tinkers Creek
Tioga,[],,,,,,,,44.22528,-79.96722,Tioga
Tioga Point,[],Bradford County,Pennsylvania,,,site of Athens,S,,41.97257,-76.52744,Tioga Point Cemetery
Tioga River,[],,New York,,,,H,,42.15202,-77.09025,Tioga River
Tioga River or Creek,['Tiaogu'],,New York,,,name applied to Chemung River,H,,42.15202,-77.09025,Tioga River
Toronto,['York'],,Ontario,,,,,,43.60012,-79.66632,Toronto
Trenton,['Trentown'],,New Jersey,,,,,,40.21705,-74.74294,Trenton
Tripoli,[],,,,,,,,42.80804,-92.25823,Tripoli
Trumbull County,[],Trumbull County,Ohio,,,,,,41.31717,-80.76116,Trumbull County
Tsche-ne-sche-e,['Seneca'],,,,,a fine valley,,,43.03341,-79.83293,Seneca
Tulpehocken,[],,,,,,,,39.71334,-74.56316,Tulpehocken Creek
Tunkhannock,[],Wyoming County,Pennsylvania,,,,,,41.53869,-75.94659,Tunkhannock
Turkey Hill,[],New Haven County,Connecticut,,,Township of Derby,T,,41.28121,-73.07177,Turkey Hill
Turtle Creek,[],,Pennsylvania,,,Westmoreland and Allegheny County,H,,40.38979,-79.85199,Turtle Creek
Tuscarawas,['Tuscarawi'],,Ohio,,,,,,40.39479,-81.40706,Tuscarawas
Tuscarawas,['Tuscarawi'],Stark County,Ohio,,,,,,40.77798,-81.60021,Township of Tuscarawas
Tuscarawas County,[],Tuscarawas County,Ohio,,,,,,40.44096,-81.47377,Tuscarawas County
Tuscarawas River,['Tuscarawi'],,Ohio,,,,H,,40.27535,-81.87347,Tuscarawas River
Tuscarawas River standing for Muskingum,"['Tuscarabi', 'Delaware', 'Tuscalabi']",,Ohio,,,,H,,40.27535,-81.87347,Tuscarawas River
Tuscarawas Town,['Tuscarawi'],,Ohio,,,,,,40.39479,-81.40706,Tuscarawas
Tuscarawi,[],,Ohio,,,,,,40.39479,-81.40706,Tuscarawas
Tuscarawi now Bolivar,['Tuscorawas'],,Ohio,,,,,,40.39479,-81.40706,Tuscarawas
Tuscarora Creek,[],,,,,,H,,39.24344,-77.47526,Tuscarora Creek
Tuscarora Mountains,[],,Pennsylvania,,,between Franklin and Fulton County,T,,40.23675,-77.73832,Tuscarora Mountain
Tuscarora Town,['Tosgarore'],,Ontario,,,Grand River,,,43.05011,-80.13295,Tuscarora
Tuscarores,[],,,,,place near Wyalusing,,,43.05011,-80.13295,Tuscarora
Unami,[],,,,,Great,,,39.74286,-79.28531,Unamis
Upper Canada,[],,Ontario,,,,,,44.05502,-79.48201,Upper Canada
Upper Sandusky,[],,,,,,,,40.82728,-83.28131,Upper Sandusky
Upper Sandusky,[],Wyandot County,Ohio,,,,,,40.82728,-83.28131,Upper Sandusky
Utica,['Judica'],,,,,New York former Fort Skuyler,,,44.06862,-79.02457,Utica
Venango,[],,,,,,,,38.6389,-97.98644,Venango
Vermilion River Ohio,"['Wulamann', 'Zinneber River']",,,,,,H,,46.26677,-81.68309,Vermilion River
Vermillion River,['presumably'],,Ohio,,,,H,,41.42699,-82.36405,Vermilion River
Vienna,[],,,Austria,,,,,48.20849,16.37208,Vienna
Vier Bruder,['Four Brothers'],,,,,place between Gnadenhutten and Nescopeck,,,49.23299,-121.65255,Four Brothers
Vincennes,"['Fort Vincent', 'Post Vincennes']",,Indiana,,,,,,38.67727,-87.52863,Vincennes
Virgin Islands,['Danish West Indian Islands'],,,,,,,,44.36682,-75.98266,Virgin Island
Virginia,[],,Virginia,,,later State | Colony,,,37.54812,-77.44675,Virginia
Wabash River,"['Wobash', 'Wapaasch', 'Wabbassch']",,Indiana,,,,H,,37.80843,-88.02813,Wabash River
Wajomik,"['Wyoming', 'Pennsylvania']",,,,,,,,42.95008,-82.11651,Wyoming
Walhanding River,['Walhanding'],Coshocton County,Ohio,,,also White Woman's Creek,H,,40.27535,-81.87374,Walhonding River
Wapwallopen,"['also Wambhallobank', 'Womphallepang', 'Waabhallobank', 'Waquallopank', 'etc.']",Luzerne County,Pennsylvania,,,Hollenback Township,,,41.07453,-76.13076,Wapwallopen
Wapwallopen,[],,,,,,,,41.07453,-76.13076,Wapwallopen
Warpoles,[],,,,,also Mittesagi,,,40.79922,-83.35492,Warpole Creek
Warren,[],,Ohio,,,,,,41.23756,-80.81842,Warren
Warwick,[],,Pennsylvania,,,,,,40.1651,-75.78382,Warwick
Warwick,[],,Ohio,,,,,,40.92228,-81.64096,Warwick
Warwick,['Warrick'],,New York,,,,,,41.25648,-74.35988,Warwick
Warwick,[],Chester County,Pennsylvania,,,,,,40.1651,-75.78382,Warwick
Washington,[],,Washington,,,District of Columbia,,,47.50012,-120.50147,Washington
Washington County,['including also Beaver County'],Washington County,Pennsylvania,,,,,,40.1894,-80.24824,Washington County
Washington County,[],Washington County,Ohio,,,,,,39.45532,-81.49525,Washington County
Washington County,[],Washington County,Pennsylvania,,,,,,40.1894,-80.24824,Washington County
Weh-to-pi-jah-neek,['Delaware'],,,,,Alder River,,,42.91679,-81.41646,Delaware
West Alexander,['Alexandria'],Washington County,Pennsylvania,,,,,,40.10507,-80.50785,West Alexander
West River,[],,,,,,H,,51.18339,-56.7648,West River
Westminster,[],,,,,Enland | London | Liberty of,,,45.47171,-73.84487,Westminster
Westmoreland County,[],Westmoreland County,Pennsylvania,,,,,,40.31073,-79.46696,Westmoreland County
Wheeling,"['Wuhling', 'Wilunk', 'Wiluck']",,West Virginia,,,,,,40.06396,-80.72091,Wheeling
Whi-a-lu-sis,['Delaware'],,,,,an old man,,,42.91679,-81.41646,Delaware
White Clay River,[],,,,,,H,,39.69761,-75.62187,White Clay Creek
White River,"['q.v.', 'also White Clay River', 'Woapikamik', 'also Woapicamikunk', 'Woapicamikunk']",,Indiana,,,,H,,38.41421,-87.74253,White River
White Woman's Creek,"['Walbonding River', 'Walhonding Creek']",Coshocton County,Ohio,,,,H,,40.17368,-81.74735,White Eyes Creek
Whitewater River,[],,,,,Indiana and Ohio,H,,49.03348,-80.24973,Whitewater River
Wilawana,[],,,,,,,,41.98757,-76.61717,Wilawana
Wilawana,"['Wilawane', 'Wilawanunk', 'Wilawunk']",Bradford County,Pennsylvania,,,,,,41.98757,-76.61717,Wilawana
Wilkes-Barre,[],,Pennsylvania,,,,,,41.24591,-75.88131,Wilkes-Barre
Williamsburg,[],,New York,,,County | Livingston | near Mount Morris,,,40.71427,-73.95347,Williamsburg
Williamsburg,[],,Virginia,,,,,,37.2707,-76.70746,Williamsburg
Wilmington,[],,Delaware,,,,,,39.74595,-75.54659,Wilmington
Windsor,[],,,,,England,,,48.94994,-55.66492,Windsor
Wintering Place,[],,,,,,,,47.2416,-53.94393,Watering Place
Woapicamikunk White River,['Wabicamigunk'],,Indiana,,,,H,,38.41421,-87.74253,White River
Wolf Mountain,[],,,,,Pocono Mountains,T,,48.13327,-56.81502,Wolf Mountain
Wood Creek,[],Oneida County,New York,,,,H,,43.38701,-75.47045,Wood Creek
Woodbury,[],Litchfield County,Connecticut,,,,,,41.54454,-73.209,Woodbury
Wooster,[],Wayne County,Ohio,,,,,,40.80517,-81.93646,Wooster
Wulunk,"['Wheeling', 'West Virginia']",,,,,,,,36.32034,-91.8632,Wheeling
Wurtemberg,[],,,Germany,,,,,50.3146,11.2628,Wirtemberg
Wyalusing,['Wihilusing'],,,,,,,,41.66813,-76.26188,Wyalusing
Wyalusing,"['Wiolousing', 'Wihilusing']",Bradford County,Pennsylvania,,,Friedenshutten,,,41.66813,-76.26188,Wyalusing
Wyalusing Creek,['Wichlusing'],Bradford County,Pennsylvania,,,,H,,41.66174,-76.26632,Wyalusing Creek
Wyalusing Creek,[],,,,,,H,,41.66174,-76.26632,Wyalusing Creek
Wyalusing Island,[],Bradford County,Pennsylvania,,,,,,41.66813,-76.26188,Wyalusing
Wyoming,[],,Wyoming,,,,,,41.47747,-105.63666,Wyoming
Yellow Creek,[],Jefferson County,Ohio,,,,H,,40.5734,-80.66702,Yellow Creek
York,['Yorktown'],York,Pennsylvania,,,,,York,39.9626,-76.72774,York
York,['Toronto'],York,Ontario,,,,,,44.00011,-79.46632,York
York County,[],York County,Pennsylvania,,,,,,39.91996,-76.72651,York County
Yorktown,"['presumably York', 'Pennsylvania']",,Virginia,,,,,,37.23858,-76.50894,Yorktown
Youngstown,[],Youngstown,Ohio,,,,,Youngstown,41.09978,-80.64952,Youngstown
Zanesville,[],,Ohio,,,Muskingum Co | Licking,,,39.94035,-82.01319,Zanesville
Zurich,[],,,Switzerland,,,,,47.36667,8.55,Zurich
