place_name,alternate_names,admin_level_2,admin_level_1,admin_level_0,continent,notes
California,,,California,,,
Camp's Mill,"[""Campen's mill""]",,New York,,,
Dublin,,,,Ireland,,
Barby,,,,,,Moravian Center in Germany
Locust Point,,Ottawa County,Ohio,,,
Washington,,,Washington,,,District of Columbia
Pennsylvania,,,Pennsylvania,Lebanon,,
Cuyahoga,,,Ohio,,,River and area
Montreal,,Montreal,Quebec,Canada,,
Wild Creek,['presumably Wills Creek'],Coshocton County,Ohio,,,
Muncie,,Delaware County,Indiana,,,
Great Swamp,,Monroe County,Pennsylvania,,,
Montgomery County,,Montgomery County,Pennsylvania,,,
Maumee River,['Great Miami'],,,,,O
Gracehill,['Gnadenhugel'],,,,,
Berbice,,,,,,
Canajoharie Montgomery County,['Kannatschochori'],,New York,,,
Monongahela River,,,Pennsylvania,,,
Tulling Brook,['?'],,New York,,,
Sodus Point,,,New York,,,
Mocheslachpisisink,,,,,,
Bethlehem,,,Pennsylvania,,,Moravian Center
Bass Islands,,,,,,
White Eye's Town,,,,,,
Ganatocheracht,,,,,,
Fort Detroit,,,,,,
Wilson's Mill,,Northampton County,Pennsylvania,,,
Breakneck Hill,,,Pennsylvania,,,Susquehanna Valley
Kaek ke la muk paechung,,,,,,Town and Creek | Kekelamukpechung | Kekelamukpechen
Maschapinck Creek,,,,,,
Tennessee,,,Tennessee,,,
Friedensth also,,,,,,
North River-Hudson River,,,,,,
Harris' Ferry,,,,,,
Canajoharis,"['Connitschochery', 'Conitshaggery']",Montgomery County,New York,,,
Lehigh River,,,,,,
Turkey Hill,,New Haven County,Connecticut,,,Township of Derby
Snycardy,,,,,,
Tioga River,,,New York,,,
New River,,,West Virginia,,,
Meemkekak,,,,,,
Goschachgunk,,,,,,
Wills Creek,,Guernsey County,Ohio,,,
Caledonia,,Livingston County,New York,,,
Connytown,,Lancaster County,Pennsylvania,,,modern Bainbridge
Sandusky River,['St. Dusky River'],,Ohio,,,
Guinea,,,,Guinea,,West Africa
Rapids,,,Ohio,,,probably Grand Rapids | Maumee River
Quittoppehille,,,Pennsylvania,,,Lebanon
Elizabethtown,,Lancaster County,Pennsylvania,,,
Holland,,,,,,
High Lands,,,New York,,,
Helltown,,,Ohio,,,Walhending River
Pohopoco Creek,"['also Puchgapuchga', 'Puchkepuch', 'Puchquapuchque', 'Buggaguchga', 'Bugabuga', 'etc.']",,Pennsylvania,,,Monroe and Carbon County
Kaskaskunk Lawrence County,"['Kaskaskung', 'Caskaskung', 'Coschcaskung on Beaver River']",,Pennsylvania,,,
Antigua,,,,,,West Indies
Machchilusing,,,,,,
Utica,['Judica'],,,,,New York former Fort Skuyler
St. Clair River,,,,,,
Wechquitehanek River,,,Ohio,,,
Siis-queh-han-neek,,,,,,
Gnadenhutten,['White settlement'],Tuscarawas County,Ohio,,,
Big Sodus Bay,,,New York,,,
Quage Town,,,Ontario,,,Grand River
Old Pennsylvania Road,,,,,,
Canegotschik,,,,,,
New Spain,,,,,,
Coschosching,,,,,,Coschkoschunk
Shenango River and area,"['Shenenge', 'Sheninge']",,Pennsylvania,,,Mercer and Lawrence County
Monocacy River,['Manakosy'],,Maryland,,,
Chippawa,,,Ontario,,,
Kentucky,['Kentuk'],,Kentucky,,,
Barbados,,,,Barbados,,West Indies
New Fairfield,,,,,,
Wabash River,,,,,,
Heidelberg,,Berks County,Pennsylvania,,,
Buchkabuchka Creek Pohopoco Creek,['also Bugggabuchga'],Carbon County,Pennsylvania,,,
Glade Country,,,Pennsylvania,,,
Chillicothe,,,Ohio,,,
Gigeyunk Fort Wayne,['Kikeyunk'],,Indiana,,,
Albany,['Albanien'],,New York,,,
Chippewa Creek,,,Ontario,,,
Fort Cumberland,,,Maryland,,,
Jerome's Town,,Ashland County,,,,Ohio
Bedford,,Bedford County,Pennsylvania,,,
Beersheba,,Tuscarawas County,Ohio,,,
Wyalusing,['Wiolousing'],,Pennsylvania,,,Friedenshutten
Old Beaver Dam,,,,,,
Walbeck,['correctly Walpack'],,,,,Lutheran mission place in New Jersey
Upper Sandusky,,,,,,
Neyachquoank,,,,,,near St. Clair River
Anahochquaga,,,,,,
Rhinebeck,['Reinbeck'],Dutchess County,New York,,,
Big-Tree,,,New York,,,Genesee
Macungie,,,,,,
Ohio Hill,,Beaver County,Pennsylvania,,,
Allobank,['Hallobank'],,,,,
Europe,,,,,Europe,
Shecomeko,['Checomeko'],,New York,,,
Marienborn,,,,Germany,,
Tschochnot,,,,,,place near Wyalusing
North Branch,,,New Jersey,,,
Credit River,,,Ontario,,,
Paint Creek,"['probably Vermilion River', 'Ohio']",,,,,
Dry Ridge,,,Pennsylvania,,,
Louisiana,,,Louisiana,,,
Trumbull County,,Trumbull County,Ohio,,,
Scatticock,,,Connecticut,,,
Oswego,['Ohsweken'],,Ontario,,,possibly Mingo place near Grand River
Muddy Creek,['Moden Creek'],Lancaster County,,,,Pa
New Jersey,['The Jerseys'],,New Jersey,Jersey,,
Meshcascungk,,,,,,
Machchilusing,['also Machchihillussunk'],Bradford County,Pennsylvania,,,Waylusing
Lake Superior,,,,,,
Straits,,,,,,between Lake Erie and Lake Huron
Four Brothers,['Vier Bruder'],,,,,
St. Croix,,,,,,West Indies
Scioto River,,,,,,
Buffalo,,,West Virginia,,,
Upper Lusatia,,,,Germany,,
Rocky River,,Cuyahoga County,Ohio,,,
Schih-shi-quan-nink,,,,,,
Rose,,,Pennsylvania,,,Nazareth | The
Paxtang,['Paxton'],Dauphin County,Pennsylvania,,,
Strasburg,,Franklin County,Pennsylvania,,,
Gekelemukpechunk Creek,,,,,,Stillwater Creek
Princeton,,,New Jersey,,,
New Jersey,"['Brunswick', 'Brownschweig', 'Braunschweig']",,New Jersey,,,
Schecomeco,,,,,,
Maumee River,"['Miami of the Lake', 'Tawa River']",,Ohio,,,
Aux Sables River,,,,,,Sand River | Ontario called Negausibis
Coshocton,,,,,,former Goschachgunk
Stillwater Creek,,,Ohio,,,
Crown Point,,Essex County,New York,,,
Unami River,,,,,,
Malden,['also Fort Malden'],,Ontario,,,
Walhanding River,,Coshocton County,Ohio,,,also White Woman's Creek
Ktukquiminschi,['Black Walnut'],,Pennsylvania,,,Erie | town near Presqu'isle
Belmont County,,Belmont County,Ohio,,,
Weelhik Thuppeek,['Weelhik Tuppeek'],,,,,
Wyoming Hills,,Luzerne County,Pennsylvania,,,
Yrene,,,,,,
Niagara-on-the-Lake,['Niagaratown'],,Ontario,,,
Bethabara,,,North Carolina,,,
Sideling Hill,,Fulton County,Pennsylvania,,,
Lees Creek,,,Ohio,,,Fayette and Highland County
Coschachkung,,,,,,Coschachkunk
Echpalawehund's Town,,,Ohio,,,Delaware Settlement
Lower Shawnee Town,,,,,,
Denmark,,,,Denmark,,
Green Bay,,,Wisconsin,,,
Jongquakamik Landing,,,Ontario,,,
Massass Town,,,Ohio,,,
Wyalusing,['Wihilusing'],Bradford County,Pennsylvania,,,
Fort Schlosser,['Slosser'],,New York,,,
Shamokin Creek,,Northumberland County,Pennsylvania,,,
Mount Joy,,Lancaster County,Pennsylvania,,,
Thuppekunk,,,Ohio,,,Schonbrunn
Jongquakamik River,['East Sydenham'],,Ontario,,,
Point au Tremble,,,,,,Michigan north of Denke's mission | place on St. Clair River
Niagara,,,New York,,,
Burlington,,,New Jersey,,,
Ontario,,,Ontario,,,Town and Township
Eschebeke,,,,,,possibliy Nescopeek
Gallipolis,,,Ohio,,,Gallis County
Annaquachticok,,,Connecticut,,,
Patowmak,,,,,,
Johnson's Hall,,,New York,,,north side of Mohawk River | place between Fort Hunter and Fort Plain
Beaver Dam,,,,,,
New Stockbridge,,,New York,,,Christian Mahican settlement
Manachningk,,,,,,
St. Joseph River,,,,,,Ohio and Indiana
Lake George,,Warren County,New York,,,
Stratford,,Fairfield County,Connecticut,,,
Switzerland,,,,Switzerland,,
Fairfield,['Old Fairfield'],,Connecticut,,,
South Carolina,,,South Carolina,,,
Wabisisipi,,,Michigan,,,Swan River
Sugar Creek,,Carroll County,Ohio,,,
Wequetank,,,,,,
Hockhooking Creek and Town,['Kockhocking'],,,,,
Schoharie,,,New York,,,
Owego,,,,,,
Spanish Territory,,,,,,
Konigsfeld,,,,Germany,,
Somerset County,,Somerset County,,,,
Leh-cha-week,['Delaware'],,,,,
Nova Scotia,,,Nova Scotia,,,
South Branch,['probably Ohio River'],,,,,
Moravia,,,,,,
Weelhik Thuppeek,,,,,,
Shawnee Town,,,,,,White River
Coschkoschingk,,,,,,
Fort Edward,,Washington County,New York,,,
Berthelsdorf,,,,Germany,,near Herrnhut
Mooch-han-nook,['Delaware'],,,,,Large River
Middletown,,Dauphin County,Pennsylvania,,,
Geneseo,"['Zoneschio', 'Zonesschio']",Livingston County,New York,,,
Gnadenhutten,,,Michigan,,,River | or Clinton | on Huron
Owego River,,,New York,,,
Kanawha River West Virginia,['Kashaway'],,,,,
Muskingum Camp,,,,,,
Cleveland,['Cleveland'],,Ohio,,,
Berthelsdorf,,,,Germany,,
Chitqueu,,,Ohio,,,Deep River
Westminster,,,,,,Enland | London | Liberty of
Hamilton,,Hamilton,Ohio,,,
Fish Kill,,,Pennsylvania,,,probably Northampton County
Fort Meigs,,,Ohio,,,Weed County | Maumee River rapids
Salem,,,North Carolina,,,
Wurtemberg,,,,Germany,,
Delaware Township,,,Ontario,,,Thames River
Pagetschiwomunk,,,Ontario,,,town at mouth of Chenaie ecartee
Quenischachchachchqueh,,,,,,
Otaheite. Gegoraphic Names,,,,,,
Papunhank's Town,,,,,,Susquehanna Valley
Beersheba,,Tuscarawas County,Ohio,,,near Gnadenhutten
Double Eagle,['Doppeladler'],Schuylkill County,Pennsylvania,,,Klinglerstown
Susquehanna River and area,,,Pennsylvania,,,
Fort Littleton,,,Pennsylvania,,,Futon County
Meamkekak,,,Ohio,,,Great Shawnee Town
Machilusing Creek,,,,,,
Shamokin,['also Shomoko'],Northumberland County,Pennsylvania,,,Sunbury
Appelisikook,,,Ohio,,,Walhending area
Tuscarawas,['Tuscarawi'],,Ohio,,,
Wisachkim,,,Pennsylvania,,,place in Susquehanna Region
Canamek,,,,,,
Great Nine Partners Tract,,Dutchess County,New York,,,
Quaker Hill,,,Connecticut,,,
Lehigh River,['Lecha'],,Pennsylvania,,,
Rocky Hill,,,New Jersey,,,
Schoharie,"['Schochari', 'Schochcheri', 'Schochery']",,New York,,,
Kent,,,Connecticut,,,
Locust Point Ottawa County,['called Honey Locust Point'],,Ohio,,,
Conewago,,Livingston County,New York,,,Avon
Tioga River or Creek,['Tiaogu'],,New York,,,name applied to Chemung River
Farmington,"['Firmingtown', 'Vermonthaun']",Hartford County,Connecticut,,,
Brotherton,['Brothertown'],,New York,,,Mohawk River
Lechawachnek,,,,,,
Algiers,,,,,,
Warte,,,Pennsylvania,,,Carbon or Luzerne County
Kitanesink,,,,,,
Hutberg,,,,,,
Wahochquage,,Broome County,New York,,,Ouaquage | possibliy Oquaga
Shawnee Towns,,,Ohio,,,
Conewago Hills,,Dauphin County,Pennsylvania,,,
Kajakistown,,,Ontario,,,
Sakapochk,,,Pennsylvania,,,
Wyalusing,,,,,,
Bern,,,,Switzerland,,
K'takanstschau,,Dutchess County,New York,,,the Big Mountain
Stockbridge,,,Massachusetts,,,
Sax's Tavern,,,,,,
Passekachkungk,,,,,,
Gigeyjunk,,,Indiana,,,Fort Wayne
Berlin,,,,Germany,,
Hokhokunk,['probably Hockhocking'],,,,,
Lawunakhannek,,,,,,
Shamokin,,,Pennsylvania,,,
Westenhuc,"['Westenhuk', 'Westenhook']",Berkshire County,Massachusetts,,,
Fish Kill,,Dutchess County,New York,,,
Menissing,,Pike County,,,,
Cuyahoga River,,,,,,
Muskingum,,,Ohio,,,River and area
Yorktown,,,Virginia,,,
Big Yellow Creek,,,Ohio,,,
Retrenche River,,,,,,
Allemaengel,,,,,,
Bethel on the Swatara,,Berks County,Pennsylvania,,,
Columbia,,Hamilton County,Ohio,,,
Koachachkunk,,,,,,
Woapicamikunk,,,Indiana,,,White River
Indiana Territory,,,,,,
Onengo,['French Creek'],Venango County,Pennsylvania,,,Venango River
Woapisitschankgissigabawik,,,,,,
Corentyn,,,,Suriname,South America,
Harsen's Island,,,,,,
Muskingum River and Country,['Muschkingum'],,Ohio,,,
Fort Schlosser,,,,,,
Salem,,,,,,
Leek Island,,,,,,Delaware River
Codorus Creek,['Catores'],York County,Pennsylvania,,,
Wenschigochpiechen,,,Pennsylvania,,,place in Susquehanna region
Herrnhut,,,,Germany,,
Hokendaugua Creek,,Northampton County,Pennsylvania,,,
Koenigsberg,,Northumberland County,Pennsylvania,,,
Mexico,,,,Mexico,,
Kantanienberg,,,,,,
Mahony,,,Pennsylvania,,,Munsee Town on Allegheny River
Cincinnati,,,Ohio,,,
Onondaga New York,['Onondago'],,,,,
Warte,,,,,,Lake Erie
Greenwich,,,Connecticut,,,County | Fairfield
Armstrong's Town,,,,,,
Owenachki,,,Indiana,,,White River | Hackingpomaka's Town
Vermilion River Ohio,"['Wulamann', 'Zinneber River']",,,,,
Newell,['Newelstown'],Fayette County,Pennsylvania,,,
Mahoning Creek,,,,,,
Goshen,,,New York,,,
Dauphin County,['Dauphiny'],Dauphin County,Pennsylvania,,,
Monnuhhuhtounuk,,,,,,
Rheimstown,,,,,,probably in Pennsylvania
Jamaica,,,,Jamaica,,West Indies
Point Aux Chenes,['Point du Chene'],,Michigan,,,on St. Clair River
Trenton,,,New Jersey,,,
Fort Allen,,,,,,
Shamokin,,,,,,
Venango,,,,,,
Forks of the Delaware,,,,,,
Monongahela,['Monongahala'],,,,,
Fort McIntosh,,,,,,Ohio River
Stoystown,,Somerset County,Pennsylvania,,,
Palatinate,,,,,,The
White River,['Woapikamik'],,Indiana,,,
Muncey,,,Ontario,,,Thames River
Lower Saucon Township,,Northampton County,Pennsylvania,,,
Tinkers Creek Cuyahoga County,"[""Dunker's Creek""]",,Ohio,,,
Oswego,,,,,,New York Gegoraphic Names
Point de Plea,,,,,,
Susquehanna River,,,Pennsylvania,,,
Natowesibi,"['Petquotting', 'Natewssibi']",,Ohio,,,Chippewa name for Huron River
Stillwater Creek,,,,,,
Mesheppen Creek,['Meshopping'],Wyoming County,Pennsylvania,,,
Fort Hamilton,,,,,,
Fort Plain,,,New York,,,
Lemachtschesink,,,Indiana,,,tributary of Wabash River | also Mississinnawa
Tionionwaquagarõnto,,,,,,
Fort Malden,,,Ontario,,,
Oswego,,Oswego County,,,,New York Gegoraphic Names
Lower Sandusky,['Fremont'],,Ohio,,,
Schuylkill River,,,Pennsylvania,,,
Sally Hand,,,,,,
Swatara Creek,,Dauphin County,Pennsylvania,,,
Illinois River,,,,,,
Province Island,,,,,,Philadelphia
Ohio River and area,['Allegheny'],,,,,
Luzerne County,['Wajomick'],Luzerne County,Pennsylvania,,,
Stone River,['Achsin'],,,,,
Langundo-Utenunk,,,,,,
Princeton,['Prinstown'],,New Jersey,,,
Upper Canada,,,,,,
Schoharie New York,['Schocharie'],,,,,
Maumee Point,,,Michigan,,,place on north side of Maumee Bay
Petquotting River,,,,,,
Great Island,,,Pennsylvania,,,below Lock Haven | West Branch Susquehanna
Wooster,,Wayne County,Ohio,,,
Sharon,,,,,,
Wyandot Lower Town,,,Ohio,,,Sandusky River
Sakunk,,,,,,
Schechschiquanunk,,,,,,
Allegheny Mountains,,,,,,
Wabash River,"['Wobash', 'Wapaasch', 'Wabbassch']",,Indiana,,,
Fish Kill,,,New York,,,
Kent,,Litchfield County,Connecticut,,,
Munsee Town,,,,,,
Little Lehigh Creek,,Lehigh County,Pennsylvania,,,
Fort Adams,['also Fort St. Marys'],Mercer County,Ohio,,,
Cape of Good Hope,,,,,,
Hocking River,,,,,,tribut. of Ohio River
Canoos,['Oil Creek'],,New York,,,
Mifflin County,,Mifflin County,Pennsylvania,,,
Weapikamik,,,,,,White River
Blue Mountains,,Franklin County,Pennsylvania,,,
Johnson's Harbor,"['probably Kuckville', 'New York']",,,,,
Kaskaskunk,,,,,,
Mahony,,,,,,
Westliberty,,Ohio County,West Virginia,,,
Wanachquaticok,"['Wannachquattagóck', 'Wannachgoattegóck', 'Wonachquaticok', 'etc.']",Berkshire County,,,,Mass | Westenhuc
Hurley,,Ulster County,New York,,,
Charleston,,Brooke County,West Virginia,,,Wellsburgs | also Buffalo | Charlestown
Harsen's Island,,,Michigan,,,mouth of St. Clair River
Lancaster,,,Pennsylvania,,,Moravian place
Zeninge,,,,,,
Wheeling,['Wiluck'],,West Virginia,,,
New Philadelphia,,,,,,
New York,,,New York,,,
Oswego,,,New York,,,
Ohio River,,,,,,
Tulpenocken,,Berks County,Pennsylvania,,,
Astrachan,,,,Russia,,
New Salem,,,,,,
Kaunaumeek,"['Kenumeck', 'Cenemek']",Columbia County,New York,,,Nassau Township
Juniata Crossings,,Bedford County,Pennsylvania,,,
Forks of the Delaware,,Northampton County,Pennsylvania,,,
Pamballineke Creek,['possibliy Meigs Creek'],Morgan County,Ohio,,,
White Woman's Creek,['Walbonding River'],,Ohio,,,
Salem,,,Ohio,,,Muskingum River
Horn River,['Eskenne'],,,,,
Nottingham,,Lancaster County,Pennsylvania,,,
Tschoniata River,,,,,,
Suriname,,,,Suriname,South America,
Kingston,"['Esopa', 'Sopus']",,,,,N.Y
Marietta,,,,,,
Georgia,,,Georgia,,,
Oquaga,,,New York,,,Broom County | Ouaquaga
Catskill Mountains,,,New York,,,
Elizabeth Point,,,New Jersey,,,
Pipe's Town,,,,,,
Sandusky Plains,,,Ohio,,,
Wachau,['Wachovia'],,,,,Moravian property in North Carolina
Malden,,,Ontario,,,
Province Island,,,,,,
Schechschequanunk,,,,,,
Massassung,,Bradford County,Pennsylvania,,,Wyalusing Township
Great Beaver Creek,,,,,,
Allegheny,"['Allegena', 'Allegene']",,,,,also used for Ohio Territory | River and Territory
Maumee River,,,Ohio,,,
North Carolina,,,North Carolina,,,
Tunkhannock,,,Pennsylvania,,,
Tenkhannik,['also Tenkhanneck'],,,,,
Wachovia,['Wachau'],,North Carolina,,,
Spitzborg,,Carbon County,Pennsylvania,,,
Long Island Sound,,,,,,
Wachovia,['Wachau'],,North Carolina,,,
West Dever Township,,,Ontario,,,
Lititz,,,Pennsylvania,,,Moravian Center
Wintering Place,,,,,,
East Jersey,,,,,,
Sinking Spring,,Berks County,Pennsylvania,,,
Brodhead near Dansbury,['Broadhead'],Monroe County,Pennsylvania,,,
Upper Canada,,,Ontario,,,
White River,"['also White Clay River', 'Woapicamikunk']",,Indiana,,,
Lititz,,,,,,
Assunnunk on Hocking River,"['Assenunk', 'Aszennunk', 'Achsunnunk']",,Ohio,,,
Kaskaskunk,,,Pennsylvania,,,
Cedar Point,,Ottawa County,Ohio,,,
Allegheny,,,,,,
Oxford Township,,,Ontario,,,
Painted Post,,Steuben County,New York,,,
Point Aux Chenes,,,,,,
Hagerstown,,,Maryland,,,
Province Island,,,Pennsylvania,,,
Anahochquaga on Susquehanna River,"['Anahochquage', 'Annochouaja']",,,,,
Tioga,,,,,,
Schenechtady,,,New York,,,
Mahoning Creek,,,Pennsylvania,,,
York,['Toronto'],York,Ontario,,,
Sandusky Bay,,,,,,
Wind Falls,,,Ontario,,,
Race Hill,,,,,,
Wyoming Luzerne County,"['also Wyomack', 'Wajomick', 'Yomack', 'etc.']",,Pennsylvania,,,
Vincennes,,,Indiana,,,
Meschascungk on Susquehanna River,"['Meschaschcung', 'Mesaskung', ""M'schaschcung"", ""M'saschkung"", 'Mesachkung']",,Pennsylvania,,,
Kui-lu-ta-men,['Delaware'],,,,,Place of surprise
Ronneburg,,,,Germany,,
Onondaga,,,New York,,,Syracuse | Iroquois capital
Big Stones Creek,,,Ohio,,,presumably Toussaint River
Danbury,,,Connecticut,,,
Lake St. Clair,,,,,,
Jackson's Tavern,,,New York,,,place between Goshen and Kingston
Salisbury,,,Connecticut,,,
Fort Kanawha,,,,,,
Fort Schuyler,['Skulker'],,,,,
Ti-a-o-ga,['Mohawk'],,,,,the forks
Gawunschiechgunk,,,,,,St. Marys River
Canterbury,,,,,,England
South Sea Islands,,,,,,
Quechquetank,['Wechquetenk'],Monroe County,Pennsylvania,,,
Carolina,,,,,,
Vera Cruz Mexico,['La Vera Cruz'],,,,,
Lake Erie,"['Lake', 'Lack', 'Lac']",,,,,
Stromness,,,,,,Island near mouth of St. Clair River
Hunt's Ferry,,Wyoming County,Pennsylvania,,,Falls
Massch-piuk,['Delaware'],,,,,Wonderful Water
Miami River,,,Ohio,,,
Fort Stanwix,,,,,,original name of Fort Schuyler
Fort Malden,,,,,,
Montmirail,,,,Switzerland,,
Rhinebeck,['Reinbeck'],Dutchess County,New York,,,
Jack Creek,,,Pennsylvania,,,possibly Youghidgheny River
Maumee Bay,['Miami'],,,,,also Tawa Bay
Africa,,,,,Africa,
Swatara Creek,,Schuylkill County,Pennsylvania,,,
Tuscarawas River,,,,,,
Stissing Mountain,['Stissick'],Dutchess County,New York,,,
Hartford,,,Connecticut,,,
Miami River,['Great Niami'],,Ohio,,,
Yorktown,"['presumably York', 'Pennsylvania']",,,,,
Temaitasunk,,,Ohio,,,
Pennsbury Manor,['Pennsbury'],Bucks County,Pennsylvania,,,
River Rouge,['Reuche'],,Michigan,,,
Upper Sandusky,,Wyandot County,Ohio,,,
Neu Tupeeking,,,,,,
Heidelberg,,,Pennsylvania,,,
New Purchase,,,Pennsylvania,,,
Trenton,['Trentown'],,New Jersey,,,
Jahannis Ruh,,,Pennsylvania,,,Carbon or Luzerne County
One Leg Creek,['Gotgatsin'],,Ohio,,,Tuscarawas and Carroll County
Lake Erie,,,,,,
Tawa Bay,,,,,,name for Maumee Bay
Unami,,,,,,Great
Green County,,Green County,Pennsylvania,,,
Butler County,['Fort Hamilton'],Butler County,Ohio,,,
Milford,,,Connecticut,,,
Wolf Mountain,,Monroe County,Pennsylvania,,,
Gnadenthal,,,Pennsylvania,,,Nazareth | modern Gracedale
Bedford,,,Massachusetts,,,
Manheim,,Lancaster County,Pennsylvania,,,
Wulamanink,,,Ohio,,,Vermilion River | Paint River
Vincennes,['Fort Vincent'],,Indiana,,,
Bethlehem,,,,,,Palestine
Geisterborg,['Demons Hill'],Union County,Pennsylvania,,,Otsinachson
Frenchtown,,,Pennsylvania,,,
Greenland,,,,Greenland,,
Tenkhannek,,,Pennsylvania,,,place on Susquehanna | Tengkannek | Tenkkanneck
Elizabeth,['Elizabeth Point'],,New Jersey,,,
Saginaw,,,Michigan,,,
New Niagara,,,,,,
Wilkes-Barre,,,Pennsylvania,,,
Cunameg,,,,,,
Fort McIntosh,,,,,,Ohio River at Beaver Creak
Herrnbaag,,,,Germany,,
Thames River,,,Ontario,,,
Cranberry,"['also Crambarry', 'Cramburry', 'etc.']",,New Jersey,,,
Niagara,,,,,,
Tuscarawas,['Tuscarawi'],Stark County,Ohio,,,
Spain,,,,Spain,,
Detroit,,,Michigan,,,City and Fort
Blanched's Forks,,Hancock County,Ohio,,,
Opest,,,Indiana,,,Au Poste du Ouabeche Vincennes
Humber River,,,Ontario,,,
Fort Miami,,,Ohio,,,Weed County | Maumee River rapids
Raisin River,,,Michigan,,,
Michillimakinac,,,,,,
Skipra[?],,Montgomery County,Pennsylvania,,,
Bound Brook,['Bambrug'],Somerset County,New Jersey,,,
Tioga site of present Athens,"['Tiaogu', 'Diaugu', 'Diaoju']",Bradford County,,,,Pennsylvania Geographic Names
Makkinak,"['Mackinaw City', 'Michigan']",,,,,
Eskenne River,['Hern'],,,,,
White River,,,Indiana,,,
Shecomeco,,Dutchess County,New York,,,
Frederickstown,['Friedrickstown'],Montgomery County,Pennsylvania,,,
Tioginossongochto,,,,,,
Huron Straits,['Straights'],,Ontario,,,near mouth of St. Clair River
Huron River,,,Ohio,,,
Beersheba,,,,,,
Hallobank,"['Hallabank', 'Hallapank', 'Phallobank', 'Phallapank']",,,,,Cayuga Town north of Wyalusing
Zanesville,,,Ohio,,,
New Fairfield,,,Connecticut,,,
Pacific Ocean,['the Great South Sea'],,,,,
Chenessie River,,,,,,
Salt Spring,"['Salineville', 'Ohio?']",,,,,
Wood Creek,,Oneida County,New York,,,
North Branch,,,New York,,,
Nescopeck,,,Pennsylvania,,,
Fulneck,['Fulnec'],,,,,England
Mittesagi,,,Ontario,,,also Warpoles
Stockbridge,,Berkshire County,Massachusetts,,,
Lancaster,,,,,,Pennsylvania? | Massachusetts?
Cushietunk,"['Geschiachton', 'Gechachton']",Wayne County,Pennsylvania,,,near Milenville
Chippewa Town,,,Ontario,,,
Huron River,['Petquotting'],,,,,O
Puchcapuch,['Puchkapuchka'],,,,,
Lake Ontario,['Dundas'],,,,,
Quelutumen,,,Pennsylvania,,,place on Susquehanna River
Derby,,New Haven County,Connecticut,,,
Nenachquejank,,,Ontario,,,Bay on Lake St. Clair
Onondaga,,,,,,
Killbuck Creek,,,Ohio,,,
Staten Island,,,New York,,,
Washington County,,Washington County,Pennsylvania,,,
Monongahela River,,,,,,
Germantown,,,Pennsylvania,,,
Achquittehannink River,['also Echquitehanek'],,Ohio,,,
Pemidhannek,,,,,,
Fort Schlosser,,Niagara County,New York,,,
Sakunk,,,Pennsylvania,,,on Big Beaver Creek
White Clay River,,,,,,
Ysselstein,,,,,,Holland
Pachqueick,,,Connecticut,,,near Pachgatgoch
Woapikamik,,,,,,
Woapicamikunk,,,Indiana,,,White River | also White Clay River
Fort Erie,,,Ontario,,,
Eva Creek,,,,,,
Kentucky,"['Kentuke', 'Kentuk']",,Kentucky,,,
Scioto River,,,Ohio,,,
Canatschochari,,,,,,
Damascus,,,,,,8 miles from Goschgoschunk | place on Allegheny River
Rhinebeck,,,New York,,,
Kaschkaskung,,,,,,
Moscow,,,,Russia,,
New London,,,Connecticut,,,
Westenhuc Moravian mission place in Massachusetts,"['Westenhuck', 'Westenhook']",,,,,
New Fairfield,,Fairfield County,Connecticut,,,
Great Miami River,,,,,,
Wihilusing,['Friedeshutten'],,Pennsylvania,,,Wyalusing
Tawa River,['Miami of the Lake'],,Ohio,,,Maumee River
Mahony River,['Mahoning'],Carbon County,Pennsylvania,,,
Patotiqueja River,"['probably North Sydenham River', 'Patotiquejaak']",,Ontario,,,
Anajot,,,New York,,,Oneida capit also | Tuscarora County
Dutchess County,,Dutchess County,New York,,,
Mahong,,,,,,
Shommunk,,,,,,
Mohawk town,,,Ontario,,,Brantford | Brand's Town
Genesee River,['Chennessee'],,,,,
Checomeco,,,,,,
Oxford,,,Ontario,,,
Scha-mung,['Delaware'],,,,,horn
Oley,,Berks County,Pennsylvania,,,
Pilgermouth,,,Pennsylvania,,,
Wechquatnach,,,Connecticut,,,Mission place
Reading,,,Pennsylvania,,,
Moch-a-weam-ing,['Delaware'],,,,,where water runs through large clear flats
Wyalusing Creek,['Wichlusing'],Bradford County,Pennsylvania,,,
Cawunschannek,,,,,,
Detroit River,,,,,,
Peeks Kill,['Bikskill'],Westchester County,New York,,,
Hudson River,,,,,,
Oakorchard Harbor,,,New York,,,
Redstone,,,Pennsylvania,,,now Bedford | probably Rays Town
Fort Niagara,,Niagara County,New York,,,near Youngstown
Westenhuc,,,,,,
Niagara Hill,,,,,,
Pommern,,,,Germany,,Swedish
Hannastown,,,Pennsylvania,,,
Bedford,,,,,,England
Massachusetts,,,Massachusetts,,,
Red Hook,,Dutchess County,New York,,,
Germany,,,,Germany,,
Tuscarawas Town,['Tuscarawi'],,Ohio,,,
Little Miami River,,,Ohio,,,
Menissing,,,Pennsylvania,,,Lacawanna County
Michilimakinac,,,,,,
Gnadensee,,,Connecticut,,,County | Litchfield | Wechquatnach Lake | Indian Pond
Huron Point,,,,,,
Rocky Point,,,Ohio,,,
Rocky Point,,Ottawa County,Ohio,,,
New Jersey,,,New Jersey,Greenland,,later called Hope
Ulator County,,,Pennsylvania,,,
East Indies,,,,,,
Saucen,"['Saucena', 'Sacena']",Lehigh County,Pennsylvania,,,
Sikhewunk,,,Ohio,,,place on Muskingum River
Kittatinny Hills,['Blue Mountains'],,Pennsylvania,,,
Lake Michigan,,,,,,
Westmoreland County,,Westmoreland County,Pennsylvania,,,
Achquittehannink,,,,,,
Somerset,,Perry County,Ohio,,,
Awassantachque,,,,,,Awossanttaque | Awossantagque
Kingston New York,['Esopus'],,,,,
Carleton Island,,,,,,Lake Ontario
Feuerlein,,,,,,
Lehigh Watergap,,,Pennsylvania,,,
Long Swamp,,Berks County,Pennsylvania,,,
Hessen-Kassel,,,,Germany,,
Belle River,,,,,,Western Ontario
Teockhansoutehan,['a French town'],,,,,
Harrisburg,,,Pennsylvania,,,
Cuyahoga,['Cayahaga'],,Ohio,,,
Freehold,,,New York,,,Greens County
Eva Creek,['Shamokin'],Northumberland County,Pennsylvania,,,Augusta Township
Kanawha River,,,,,,
Grosse Isle,,,Michigan,,,Detroit River
Gekelemukpechunk Creek,,,,,,
Rocky Point,,Ottawa County,Ohio,,,presumably Scott Point
Blue Mountains,,,Pennsylvania,,,
Wajomick,,,,,,
Cherokee River,,,,,,
Chotusitz,,,,,,Bohemia
Tenkhannek,,,,,,
Almenisepunk,,,Ohio,,,Vermilion Creek
Bavianskleof,,,,,,Cape Colony
Potatik,,,Connecticut,,,
Forty Mile Creek,,,,,,
Ostonwakin,,,,,,Pennsylvania Gegoraphic Names
Schoneck,,,Pennsylvania,,,
Paint River,,,,,,Wulamanink
Pentahametachquanunk,,,,,,
Shekomeko,,Dutchess County,New York,,,
Rhine River,,,,Germany,,
Greenwich,,Washington County,New York,,,
Dover,,,New York,,,
Wihilusing,,,,,,
Chestnut Ridge,,Westmoreland County,Pennsylvania,,,
Pickaway Plains,,Pickaway County,Ohio,,,
Little Lake,,,,,,
Wyalusing Island,,Bradford County,Pennsylvania,,,
Goschgoschunk,,,,,,
Nain,,,Pennsylvania,,,Bethlehem
Juniata River,,,Pennsylvania,,,Tachochniato
Beard's Tavern,,,New York,,,New Jersey and Warwick | place between Hope
Atlantic Ocean,,,,,,
Geneva,,Ontario County,New York,,,
Annenthal probably Mahantango Creek,"[""Anna's Valley""]",Schuylkill County,Pennsylvania,,,
Presqu' Isle,['Prisqueisle'],,Pennsylvania,,,Erie
Mississippi Territory,,,,,,
Ohio,,,Ohio,,,State
Onondaga Town,['Onondago'],,Ontario,,,Grand River
Dansburry,,,,,,
Susquehanna,,,,,,North Branch
Garochiati,,,,,,
Sandusky,,,,,,
Allentown,,,Pennsylvania,,,
Hebron,,Lebanon County,Pennsylvania,,,
Woaketammeki,,,,,,
Munsee Town,,,Ontario,,,
Danbury,['Tenburey'],Fairfield County,Connecticut,,,
Cannitschochery,,,,,,
Shawnee Towns,,,Ohio,,,Au Glaise River
Huron River,['Petquotting River'],,,,,O
Tunkhannock,,Wyoming County,Pennsylvania,,,
Weh-to-pi-jah-neek,['Delaware'],,,,,Alder River
Schonbrunn,,,Ohio,,,on Muskingum River
Miami River,['Maumee'],,,,,Ohio-Indiana
St. Lawrence River,,,,,,
Schenectady,,,New York,,,
Little Yellow Creek,,Columbiana County,Pennsylvania,,,
Williamsburg,,,Virginia,,,
Petquotting Hill,,,,,,
Fort Harmer,,,Ohio,,,mouth of Muskingum River
Heerandyk,,,,,,Holland
Hudson River,['North River'],,New York,,,
Monocacy River,['Manakosi'],,Maryland,,,
Schenechten,,,,,,
Great Island,,,Ohio,,,above Marietta | at mouth of Muskingum River
Wechquetank,,,,,,
Western Sugar Creek,,,Ohio,,,Stark and Tuscarawas County
Amboy,,,,,,
New Purchase,,,,,,
Ostonwakin . Montoursville,"['also Otztonwakin', 'Otstunwachko', 'Oshttonwsko', 'etc.']",,Pennsylvania,,,County | Lycoming
Vermillion River,['presumably'],,Ohio,,,
Gnadenhutten,,,Pennsylvania,,,Lehigh River | on Mahony Creek
Pennsylvania,,,Pennsylvania,,,
Niagara Falls,,,,,,
Newark on Niagara River,,,Ontario,,,
British Dominions,,,,,,
Vincennes,['Post Vincennes'],,Indiana,,,
Great Lake,,Dutchess County,New York,,,
High Lands,,,New York,,,Orange and Putnam Cos.
Kaunschannek,['Kawunschhannek'],,,,,
Allegheny Mountains,,,Pennsylvania,,,Bedford and Somerset County
Georgetown Road,,,,,,
Lichtenau,,,,,,
Philadelphia,,,Pennsylvania,,,
Danzig,,,,Germany,,
Neusals,,,,Germany,,
Kinderhook,,Columbia County,New York,,,
Spring Garden,,,,,,
Jequaminische,,,,,,
Tuscarawi Creek,,,Ohio,,,
Chester,,,Pennsylvania,,,near Philadelphia
St. John,['Jan'],,,,,West Indies
Great Creek,['Lehigh River'],,,,,
Mohawk River,,,,,,
Ligonier,,,Pennsylvania,,,
Cleveland,,,Ohio,,,
Philadelphia,,,,,,
Buffalo Creek,,Wyoming County,New York,,,
Pennsylvania,,,Pennsylvania,,,Susquehanna
Canhawa,,,,,,
Huron River,['Clinton'],,Michigan,,,
Woapisitschankgissigabewik,"['Swan standing on the tips of his toes', 'Wabisìtschangìasigabawit']",,Ontario,,,
Kinhanschican,,,,,,Mingo Town in Ohio
Wulunk,"['Wheeling', 'West Virginia']",,,,,
Hope,['Hoop'],,,Suriname,,
Bay of Quinte,,,,,,Lake Ontario
Southbury,,New Haven County,Connecticut,,,
Copenhagen,,,,Denmark,,
New Lancaster,,Fairfield County,Ohio,,,Lancaster
Machilusing,,,,,,
Fort Ontario,,,New York,,,Oswego
Hudson,,Summit County,Ohio,,,
Yellow Creek,,Jefferson County,Ohio,,,
Vienna,,,,Austria,,
St. Marys,,,Ohio,,,
Nain,,,,,,Labrador
Stone Creek,"['probably Rocky River', 'Ohio']",,,,,
Wachovia,,,North Carolina,,,
White Eye's Town,,,Ohio,,,Coshecton County
Shippensburg,,Cumberland County,Pennsylvania,,,also Shippenstown
Bucks County,,Bucks County,Pennsylvania,,,
Fort Wabash,"['Vincennes', 'Indiana']",,,,,
Miami River,['Great Miami'],,Ohio,,,
Hickory Tavern,,,New Jersey,,,
Kondal,,,Ohio,,,probably Tuscarawas County
Kentucky,,,Kentucky,,,
Sikhewunk,,,,,,
Greentown,,,Ohio,,,near Mansfield | Sambesink | Penexit's Town | also Armstrong's Town
Tschiaque Creek,,,Ohio,,,East of Cuyahoga River
Mississippi River,,,,,,
Big Stillwater Creek,,Tuscarawas County,Ohio,,,
Newtown,,,Connecticut,,,
New Orleans,,,,,,
Sarepta,,,,Russia,,on Volga River
West Alexander,['Alexandria'],Washington County,Pennsylvania,,,
Tschitschiquanunk,['Schechschequanunk'],,,,,
Lechawachnek,"['Lechawachneck', 'Lechawachnick', 'Lechawaneck']",,Pennsylvania,,,Lackawanna
South Liberty,,,Pennsylvania,,,foot of Laurel Hill
Gnadenhuegel,,,,,,part of Gnadenhutten settlement
Tsche-ne-sche-e,['Seneca'],,,,,a fine valley
Petquotting River,['Huron River'],,,,,
Montreal,,Montreal,Quebec,,,
Beaver Creek,,,,,,
Tschehantowsh,,,,,,
Liegnitz,,,,Germany,,principality
Cawnschannek,"['Cawunschhannek', 'Cawinschhannek', 'Kawunsohhannek']",,,,,place on Allegheny River
Rowlya Creek,,Litchfield County,Connecticut,,,
Shenenge,,Lawrence County,Pennsylvania,,,Beaver River
New London County,,New London County,Connecticut,,,
Zeisberger Island,,,Ohio,,,Muskingum River
Lovalhanning,,Westmoreland County,Pennsylvania,,,
Jacob's Heights,['Jacobshuh'],Northumberland County,Pennsylvania,,,Lower Augusta Township
Deer Creek,,Pickaway County,Ohio,,,
Newcomerstown,,,Ohio,,,see Gekelemukpechunk
West Indies,,,,,,
DeTrenche,,,,,,
New York State,,,,,,
Oil Creek,['Cances'],Venango County,Pennsylvania,,,
Tulpehocken Berks County,['also Tulpehockin'],,Pennsylvania,,,
Second Great Creek,,,,,,
Lackawanna River,,,Pennsylvania,,,
Pittsburg,['Fort Pitt'],,Pennsylvania,,,
Tuscarawas County,,Tuscarawas County,Ohio,,,
Tschimitagan,,,,,,
Pinery,,,,,,
Bethanion,,,North Carolina,,,
Nescopeck,"['also Neskopeke', 'Neskopeko', 'Nessgabeke', 'Neeskipecky Neschopega', 'etc.']",Luzerne County,Pennsylvania,,,
Great Shawnee Town,,,,,,
Pennsylvania,,,Pennsylvania,,,
Saxony,,,,,,
Chambers' Mill,,Dauphin County,Pennsylvania,,,Fishing Creek
Minisink,,,Pennsylvania,,,Upper Delaware River
Connecticut,,,Connecticut,,,
England,,,,,,
Point Pleasant,,,West Virginia,,,Hasen County
Davall Academy,,,,,,England
Wabicamigunk,,,,,,
Litchfield,,,Connecticut,,,
Gigeijunk,['Maumee'],,Indiana,,,Fort Wayne | town at the Forks of Miami River
Kitigan,,,Ontario,,,
Salisbury,,Somerset County,Pennsylvania,,,
New Jersey,,,New Jersey,,,
Fort Wayne,,,Indiana,,,
Saddle,,,,,,
Mombaccus,['Monbacos'],Ulster County,New York,,,Rochester Township
Black River,['presumably'],,Ohio,,,
Lahalawoaskute,,,,,,Sipung Creek
Steuben County,,Steuben County,New York,,,
Newtown,,Fairfield County,Connecticut,,,
Hudson Bay,,,,,,
Achsunnissunk,,,,,,
Satked,,Litchfield County,Connecticut,,,
Oswego River,,,,,,New York Gegoraphic Names
Raisin River,['Rissin'],,Michigan,,,
Woachejeek Utoenink,,,,,,
Braunschweig,,,,,,Brunschwig
Schkipoakanink,,,Ontario,,,place on Schneyecarty
Tripoli,,,,,,
Stony Point,,Monroe County,Michigan,,,
Catskill,,,New York,,,County | Greene
New Stockbridge,,,,,,
Mohanatony,['Mohanatoney'],,Pennsylvania,,,
Wequetank Creek,,Monroe County,Pennsylvania,,,
Mahony,,Lawrence County,Pennsylvania,,,place on Beaver Creek
Langundo-Utenunk Friedenstadt,['Langunto-Utenunk'],,,,,
Pemakxit's Town,,,,,,
Oneida Lake,,,New York,,,
Leh-oha-wa-hen-neek,['Delaware'],,,,,the Forks
Menissing,,Pike County,Pennsylvania,,,
Sneicaerty,,,,,,Schney e carty | Schneyecarty | Schnei Kaerty | Snycardy | Sneicardy
Long Island,,,New York,,,
Fannetsburg,,Franklin County,Pennsylvania,,,
King's Bridge,,,,,,New YorkC | Harlem River
Gnadenhutten,,,,,,
Rockills Mill,,,,,,
Put in Bay,['Pudding Bay'],,,,,Ohio Georgraphic Names | Lake Eire
Chippewa Creek,,,,,,near Niagara
Canaan,,Litchfield County,Connecticut,,,
Woaketammeki Muskingum County,"['Wackatomake', 'W[?]']",,Ohio,,,near Dresden
Allegheny River,,,,,,
Charleston,,Brooke County,West Virginia,,,
Sheffield,,Berkshire County,Massachusetts,,,
Sakechnak Creek,,Carbon County,Pennsylvania,,,
Old Chillicothe,,Pickaway County,Ohio,,,
Virginia,,,Virginia,,,
Saltlick,,,,,,
Woapimintshi,['Chestnut tree'],,Indiana,,,White River
Brownstown,,,,,,
Ginhanschicanunk,,,,,,
Salmons Creek,,,New York,,,between Genessie River and Sodus Point | Lake Ontario
Dartmouth College,,Hanover,New Hampshire,,,
Nazareth,,,Pennsylvania,,,
Sandusky,,,Ohio,,,
Wooster,,,Ohio,,,
Wabash River,['Wobash'],,Indiana,,,
Huron Point,['Clinton'],,Michigan,,,mouth of Huron River
Plains,,,,,,
Shippenstown,,,,,,
Partners,,,,,,Second Nine
Kanawha River,,,West Virginia,,,
Chester County,,Chester County,Pennsylvania,,,
South Huron Strait,['Straight'],,,,,
Miami Bay,['Maumee'],,,,,
Nescopeck,,,,,,
Wapwallopen,,,,,,
Phallobank,['Phallapank'],,,,,
Woodbury,,Litchfield County,Connecticut,,,
Poughkeepsie,,Dutchess County,New York,,,
Shamokin Island,,Northumberland County,Pennsylvania,,,
Rocky Point,,Ottawa County,Ohio,,,16 miles from Sandusky | probably Scott Point
Washington Road,,,Pennsylvania,,,Washington and Beaver County
Fort Allen,,,Pennsylvania,,,Allentown
Salem,,,,,,North Carolina Moravian center
Wanachquaticok,,Berkshire County,Massachusetts,,,Westenhuc
Wechpakak,,,,,,
Stony Creek,,Logan County,Ohio,,,
Onengo Creek and surrounding area,"['French Creek', 'Venango']",Venango County,Pennsylvania,,,
Fredrickstown,,,,,,
Shomokin,,,Pennsylvania,,,
Little Nine Partners Tract,,Dutchess County,New York,,,
Michillimakinac,,,Michigan,,,
Beaver,,,Pennsylvania,,,
Boomerstown,,Guernsey County,Ohio,,,
Detroit River Island,,,,,,
Croton River,['Groodens Revier'],,,,,
Mohawk River,,,New York,,,
Retrenche River,['Thames'],,,,,
Chambers' Ferry,,,,,,crossing point of the Susquehanna below Harrisburg
Elisabeth Point,,,New Jersey,,,
Zanesville,,,Ohio,,,Muskingum Co | Licking
Stone Creek,,Tuscarawas County,Ohio,,,
Sandusky River,,,,,,
Ohio River and area,,,,,,
Juniata River,,,Pennsylvania,,,
Luzerne County,,Luzerne County,Pennsylvania,,,
Saginaw,"['Sackina', 'Sakina']",,Michigan,,,
Virgin Islands,['Danish West Indian Islands'],,,,,
Little Beaver Creek,,,,,,
Oneida,,,New York,,,
Wapwallopen,"['also Wambhallobank', 'Womphallepang', 'Waabhallobank', 'Waquallopank', 'etc.']",Luzerne County,Pennsylvania,,,Hollenback Township
Zanesville,,,,,,
Rapide,,,Ontario,,,probably on Jongquakamik River
Middletown,['Middle Town'],,Pennsylvania,,,
Balings Kill,,,Pennsylvania,,,probably Carbon County
Nanticoke Town,,Luzerne County,Pennsylvania,,,
Zoneschio,,,New York,,,
Rush Creek,,Fairfield County,Ohio,,,
Carolina,,,,,,Colony
Cuyahoga,,,,,,
Dungannon,,,Ontario,,,
Pachgatgoch,['Pachgatgoko'],,Connecticut,,,Moravian mission place
Achain,,,Ohio,,,Stone River
Georgetown,,,,,,District of Columbia
Zoneschio,,,,,,Zonesschio
Stockbridge,['Old'],,Massachusetts,,,
Pemidhannek,['Zoneschio'],,New York,,,Delaware name of Genessee River
Minnissing,,,,,,Minissink
Berks County,['Berkshire'],Berks County,Pennsylvania,,,
Quenischachchachqueh,,Lycoming County,Pennsylvania,,,West Branch | Susquehanna
Redstone,,,,,,
Gekelemukpechunk Delaware Center,"['Kekelemukpeachunk', 'Kikeelmukpechunk']",,Ohio,,,Newcomerstown
Lancaster,,,Pennsylvania,,,
Susquehanna,,,Pennsylvania,,,River and area
Little Beaver Creek,,,Ohio,,,
Tuscarawi now Bolivar,['Tuscorawas'],,Ohio,,,
Delaware River Valley,,,,,,
Fort Pitt,,,,,,
New Lisbon,,Columbiana County,Ohio,,,Lisbon
Tioga,"['also Tiaogu', 'Diaogu']",Bradford County,Pennsylvania,,,modern Athens
Perth Amboy,,,New Jersey,,,
Munsee Town,['Muntzy'],,,,,
Presqu'isle,,,Pennsylvania,,,Erie
South Beaver,,Beaver County,Pennsylvania,,,
Youngstown,,Youngstown,Ohio,,,
Garochiati,,,New York,,,Seneca town on Pemidhannek Creek
Genesee,,,New York,,,
Onengo,['Venango'],,,,,
Meschascungk,,,,,,
Clinton River,,,Michigan,,,
Gnadenthal,,,Pennsylvania,,,near Nazareth
Grand River,,,Ontario,,,
Allen Township,,Northampton County,Pennsylvania,,,
Mackinaw City,['Makina'],,Michigan,,,
Wilawana,,,,,,
Passekachkungk,['Passikachkunk'],,New York,,,place on Canisteo River
Mahoning Creek,['Mahony'],,,,,Ohio between Ravenna and Canfield
Black River,,,Ohio,,,
Tuscarawas River standing for Muskingum,"['Tuscarabi', 'Delaware', 'Tuscalabi']",,Ohio,,,
Tawa Town,,,Ohio,,,location of Toledo
Pittsburgh,,,Pennsylvania,,,
Franckfurth,['Frankford'],Philadelphia County,Pennsylvania,,,
Shammunk,,,,,,Shommunk
Beaver Creek,,,,,,Little
Rays Hill,['Race Hill'],Bedford County,Pennsylvania,,,
Friedenshutten,,,Pennsylvania,,,Wyalusing | on Susquehanna
Fort Kanawha,['Canhawa'],,,,,
Seneca Territory,,,New York,,,
France,,,,France,,
Scotland,,,,,,
Bath,,Steuben County,New York,,,
Tioga,"['Tiaogu', 'Diaogu']",,Pennsylvania,,,
Canandagua,,Ontario County,New York,,,
Camden,,,Ontario,,,
Old Mexico,,,,,,
Sussex County,,Sussex County,New Jersey,,,
Tunkhanneck,,Monroe County,Pennsylvania,,,
Swego,,,Ontario,,,Mingue Town on Grand River
West River,,,,,,
Malden. Ontario,,,,,,
Fighting Island,,,,,,below Detroit
Genesee River,['Tscheneshee'],,New York,,,
Windsor,,,,,,England
Wolf Creek,,Morgan County,Ohio,,,
Fort Herkemen,,,New York,,,Herkimer
Tioga River or Creek,,,,,,
Potomac River,['Patomick'],,,,,
Cunningham Island,,,Ontario,,,probably Pelee Island
Gulf of Lawrence,,,,,,
South America,,,,,South America,
Tavandemung,,,,,,Tauwundamunk
Pittsburgh,['Fort Pitt'],,Pennsylvania,,,
Fort Oswego,,,New York,,,
Cayuga Town,['Kajugu'],,Ontario,,,Grand River
Morristown,,Belmont County,Ohio,,,
Oneida,,,New York,,,town east of Oneida Lake
Acapulco,,,,Mexico,,
Spanish Colonies,,,,,,
Lower Cayuga Town,['Kajugu'],,Ontario,,,Grand River
Lehigh River,,,Pennsylvania,,,
Fulneck,,,,,,England
Burlington,,,Ontario,,,
Quitahannek Creek,,,Ohio,,,Richland or Ashland County
Bremen,,,,Germany,,
Walhanding Creek,,,Ohio,,,
Licking,['Zanesville'],Muskingum County,Ohio,,,
Whitewater River,,,,,,
Glades Road,,,Pennsylvania,,,
Bethel,,Berks County,Pennsylvania,,,
Fort Laurens,,,,,,
Miskanika,,,,,,
Tiaogu,,,Pennsylvania,,,
Guernsey County,,Guernsey County,Ohio,,,
Duncan's Falls,,Muskingum County,Ohio,,,
New England,,,,,,
Wachovia,['Wachua'],,North Carolina,,,
Tenk-han-neck,['Delaware'],,,,,Small River
Muskingum River,,,,,,
Gracehill,,,,Ireland,,
St. John,,,,,,West Indies
Tioga,,,Pennsylvania,,,
Fort Hunter,,,New York,,,
Cuyahoga Old Town,,,,,,
Mohawk village,,,Ontario,,,Brandt's Town near Brantford
Silesia,,,,Germany,,
Ephrata,,,Pennsylvania,,,
Mahican Lake,,,Ohio,,,
Otsinachson,,,,,,West Branch. Gegoraphic Names | above Susquehanna
Warwick,,,Pennsylvania,,,
Fort McIntosh,,Beaver County,Pennsylvania,,,
Ontario,,,Ontario,,,Thames River
Zoneschio River,,,,,,
Tioga Point,,Bradford County,Pennsylvania,,,site of Athens
Gekelemukpechunk,,,Ohio,,,Newcomerstown | Kek ke la muk paechung | Kekaelemapaechunk | Kekelamukpechen | Kakelamukpechung
Schenectady,['Schenechten'],,New York,,,
Forks of the Road,,,,,,
Saratoga,,,New York,,,
Chestnut Hill,,,,,,
Cornwall,,Litchfield County,Connecticut,,,
Westenhuc,,,Massachusetts,,,
Mingee Town,,,,,,Sandusky River
Delaware River,,,,,,Water Gap
Quenischachachgeek,,,,,,
Mahoning Creek,['Mahony'],,,,,Pa
Kittannuk,,,Pennsylvania,,,Kittanning
Wolf Mountain,,,,,,Pocono Mountains
Mochwesung,,,,,,
Blue Mountains,,,,,,
Greensburg,,Westmoreland County,Pennsylvania,,,
Washington County,,Washington County,Ohio,,,
New Orleans,,,Louisiana,,,
Petquattunk,['Pettquotting'],,Ohio,,,Huron River
Musconetcong,['Miskanika'],,New Jersey,,,River and Mountain
Gnadenhutten,['Old Gnadenhutten'],,,,,Mahony
Wyalusing,['Wihilusing'],,,,,
Wehtak,,Litchfield County,Connecticut,,,Salisbury
Wanachquaticok,,,Massachusetts,,,
Northampton County,,Northampton County,Pennsylvania,,,
Lancaster,,Fairfield County,Ohio,,,
Oblong,,,,,,New York-Connecticut
Mahony,['Mahoni'],,Pennsylvania,,,
Hope,,,North Carolina,,,
Sikhewunk,,Muskingum County,Ohio,,,Salt Creek Township | Chandlersville
Esopus,,,New York,,,
Swatara Creek and Valley,,,Pennsylvania,,,
Missouri River,,,,,,
Silesia,,,,,,
Anohochquage,,,,,,
White Stone,,,New York,,,probably Long Island
Northampton County,,Northampton County,,,,
Honeywint,,,,,,
Ravenna,,,Ohio,,,
Granville,,Licking County,Ohio,,,
Sichem,,Dutchess County,New York,,,
Old Sandusky Town,,,,,,
Christian Spring,,,Pennsylvania,,,
Saltlick,,,,,,not far from Goshen
Cambridge,,Guernsey County,Ohio,,,
Mahican Town,,Mercer County,Ohio,,,near Heckford | St. Marys River
Vredens Huia,,,,,,
Susquehanna,,,,,,West Branch
Greenville,,Darke County,Ohio,,,
Warwick,,Chester County,Pennsylvania,,,
Anokran,,,,,,place between Shekomeko and Wehtak
Warwick,['Warrick'],,New York,,,
Gekelemukpechunk,,,,,,
Maumee River,['often called Miami'],,Ohio,,,
St. John,['Jan'],,,,,West Indies
Sichel's Tavern,,,,,,
Woodbury,,,Connecticut,,,
Miami Towns,['Maumee'],,Indiana,,,
Sikhewo,['Sikhewunk'],,Pennsylvania,,,above Kaskaskunk | place on Beaver Creek
Petquotting Creek,['Huron River'],,Ohio,,,
Tonawanda Town and Creek,['Taniwandi'],Genesee County,New York,,,
Long Island,,Lycoming County,Pennsylvania,,,
Shawnee Towns,,,,,,
Wabash River,,,Indiana,,,
Shenango,,,,,,
Moden Creek,,,,,,
Tulpehocken,,,,,,
Thuernstein,,,Pennsylvania,,,
Lake Ontario,,,,,,
North Bend,,Hamilton County,Ohio,,,
York County,,York County,,,,
Munsee Town,,,Ontario,,,Thames River
Wisauchsican,,,,,,place between the Muskingum and Ohio River
Galloway's Island,,,Pennsylvania,,,Delaware River
Illinois,,,Illinois,,,
Goschachgunk,['Goschaching'],,Ohio,,,Coshocton
Gnadenfroi,,,,Germany,,
Fort Defiance,,Defiance County,Ohio,,,Maumee River
Allegheny Ohio River and its territory,"['Allgene', 'Algene']",,,,,
Fish-Kill,,Dutchess County,New York,,,
Limestone,,Mason County,Kentucky,,,Maysville
New York,,,New York,,,
Gachnawage,,,,,,
Cayahaga,,,,,,
Stroudsburg,"['also Dansbury', 'Danesberg']",,Pennsylvania,,,
Melelagamogak,,,,,,
Allemaengel,,Lehigh County,Pennsylvania,,,Lynn Township
Sakunk,['Gakung'],,Pennsylvania,,,place at confluence of the Beaver River with the Ohio
Austria,,,,Austria,,
Delaware River,,,,,,
York County,,York County,Pennsylvania,,,
Women's Town,,,,,,
New Connecticut,,,,,,
New Lisbon,,,Ohio,,,
Leh-cha-wi-tank,['Delaware'],,,,,
Langundo-Utenunk,,Lawrence County,Pennsylvania,,,Friedenstadt | Beaver River
Canada,,,,Canada,,
Kekelemukpechunk,,,,,,
Esopus,,,New York,,,Sopus
Sharon,,,Connecticut,,,
Brownstown,,,Michigan,,,mouth of Huron River below Detroit
Hope,,,New Jersey,,,
Industry,,,Ohio,,,place on Mahony Creek
Laurel Hill,,,Pennsylvania,,,Westmoreland and Somerset County
Amherstburg,,,Ontario,,,
Carlisle,,,Pennsylvania,,,
Wackatemake,,,,,,
Cohocten Creek,,Steuben County,New York,,,
Fort Norris,,Monroe County,Pennsylvania,,,
Ganawacu,,,,,,
Miami River,['Maumee'],,,,,Ohio-Indians
Shomoko,,,,,,
Esopus,,,New York,,,Kingston | Sopus
Ancaster,,,Ontario,,,
Christiansbrunn,['Christian Spring'],,Pennsylvania,,,place near Nazareth
Lower Smithfield Township,,Northampton County,Pennsylvania,,,
America,,,,,,
Caniseraga,,,,,,
New Salem,,Tuscarawas County,Ohio,,,
Augusta,,Bracken County,Kentucky,,,
Fort McIntosh,,,,,,
Pipe Creek,,Erie County,Ohio,,,
Beaver River,,,,,,Great | Creek
Michigan,,,Michigan,,,
Quittoppehille,,,,,,
Ohio,,,Ohio,,,
Vier Bruder,['Four Brothers'],,,,,place between Gnadenhutten and Nescopeck
Petqualach,,,Pennsylvania,,,town on Upper Allegheny River
Chemung,,,,,,
Geneseo,,,,,,
Jenky Hall,,,,,,Detroit
Gokhosing,,,,,,place in Ohio
Hutberg,,,,Germany,,hill near Herrnhut
Kanawha River,['Canhawa'],,West Virginia,,,
Ostonwakin Creek,['also Oztonwake'],Lycoming County,,,,Pennsylvania Gegoraphic Names | Loyalsock Creek
Butz Ferry,,,Pennsylvania,,,probably on Youghiegheny River
Maumee River,['Miami'],,,,,
Mingo Town,,,,,,Ohio River
Yorktown,,,Virginia,,,
Fort Laurena,,,,,,
Gachtochwawunk,,,,,,
Barton,,,Ontario,,,
Jefferson County,,Jefferson County,Ohio,,,
Onengo River,,,Pennsylvania,,,French Creek
River Rouge,['River Bush'],,Michigan,,,
Wilson's Creek,['also Hackientschous Creek'],Northampton County,Pennsylvania,,,
Goschachging,,,,,,
Fort Wayne,,,Indiana,,,Kikeyuak | also Gigeyunk
Dartmouth College,,,,,,
Warte,,,,,,
Munsee Town,,,Ontario,,,on Thames River above Fairfield
Province Island,,,Pennsylvania,,,Philadelphia
Little Schuylkill River,,,Pennsylvania,,,
Chenango,['Zeninge'],Broome County,New York,,,
Steubenville,,,Ohio,,,
Schatticock,"['Shattegock', 'Shattigok', 'Shattegook', 'Skattegock', 'Skatchkock']",Rensselaer County,New York,,,
Thuppeeking,,,,,,meaning Schonbrunn | Thupaken | Thuppeekunk
Schonbrunn,,,,,,
Vermilion Creek,,,Ohio,,,also Almenisepunk
Tuscarores,,,,,,place near Wyalusing
Whitestown,,,New York,,,site of Utica
Rhode Island,,,Rhode Island,,,
Woapikamikunk,,,,,,
Sakechnak Creek Carbon County,"['also Sankechnank', 'Sakekenack', 'Sankinghnack', 'Sankegenahk', 'Sanschanachke', 'etc.']",,Pennsylvania,,,
Batomick,,,,,,
Oswego Falls,,,,,,New York Gegoraphic Names
Firelands,,,Ohio,,,Erie and Huron County
Pittsburg,,,Pennsylvania,,,
Beaver Creek,['Little Beaver River'],,,,,
Potatick,,Fairfield County,Connecticut,,,
Buffalo Creek,,Brooke County,West Virginia,,,
Wechquetank,,Monroe County,Pennsylvania,,,
Ronchey's Tavern,"[""Runchey's""]",,,,,
Onengo,,,,,,
Kittatinny,"['al', 'Middle Mountain', 'Kittetani']",Franklin County,Pennsylvania,,,
Washington County,,Washington County,Pennsylvania,,,
Presqu' Isle,,,,,,
Schatticook,,,New York,,,
Caribbean Islands,,,,,,
Asscennessink,,,,,,
Tower Hamlets,,,,,,England | London
Brant's Town,"['probably Brantford', 'Ontario']",,,,,
Fort Laurens,,,Ohio,,,near Bolivar
Pachgatgoch Hill,,Litchfield County,Connecticut,,,
Deykert's Place,,,,,,
Monocacy Creek,,,Pennsylvania,,,
Philadelphia--Pottersfield,,,,,,
Queenston,['Queenstown'],,Ontario,,,
Great Island,,Clinton County,Pennsylvania,,,
White River,,,,,,
Woodbeck's Tavern,,,,,,New York Geographic Names | place about halfway between Kingston and Albany
Philipsburg,,,New Jersey,,,
New Jersey,,,New Jersey,,,
Rixdorf,['Rucksdorf'],,,Germany,,
Dansville,['Danville'],Livingston County,New York,,,
Salem,,Sandusky County,Ohio,,,
Upper Sandusky,,,Ohio,,,
Canfield Mahoning County,['Canefield'],,Ohio,,,
Petquotting,,,,,,Indian town
Harrison's Ferry,,,Pennsylvania,,,Harrisburg | Harris Ferry
Schoharie,,,,,,
Tawa Bay,,,,,,Maumee Bay
Thames River,,,,,,
Hamilton's Mills,,,,,,
Meniolagomeka,,Monroe County,Pennsylvania,,,Mission place
Litchfield,,Litchfield County,Connecticut,,,
Mahoning Creek Carbon County,['Mahoni'],,Pennsylvania,,,
London,,,,,,England
Lichtenau,,,Ohio,,,on Muskingum River
Cayuga,['town'],,New York,,,
Schwego,,,Ontario,,,Grand River
Diaugu,,,,,,Diaoju
Harris' Ferry,"[""also Harrison's Ferry""]",,Pennsylvania,,,Harrisburg
Annaquachticok,"['Annachticok', 'Annacticok']",,Connecticut,,,alternate name of Westenhuc
Detroit,,,Michigan,,,
Tavandemung,,,,,,place near Wyalusing | Tauwundamunk
Annapolis,,,Maryland,,,
Hope's Cove,,,,,,Lake Erie
Winginund's Town,,,,,,
Islington,,,,,,England
Damascus,,,,,,
Ohio Falls,,,Ohio,,,
Brant's Town,,,,,,
Sandusky,,,Ohio,,,River and town
Ludwig's Ruh,,Schuylkill County,Pennsylvania,,,
Long Point,,,Ontario,,,
Cumberland County,,Cumberland County,Pennsylvania,,,
Pickaway,['town'],,Ohio,,,
Great Lakes,"['Laks', 'Lacks']",,,,,
Muncey,,,Ontario,,,
Wanachquatikok,,,,,,Wannoquatagoch
Stony Creek,,Monroe County,Michigan,,,
Heller's Tavern,,,,,,
St. Croix,['Crux'],,,,,West Indies
Miami River,,,Ohio,,,Great Miami River | also Unami
Wachovia,['Wachau'],,North Carolina,,,
Westenhuc,"['Westenhuck', 'Westenhook']",,,,,Wannaquatagoch | Massachusetts also Wanachquatikok
Manor Land,['Conestoga Manor'],Lancaster County,Pennsylvania,,,Manor Township
Maryland,,,Maryland,,,
Wheeling,"['Wuhling', 'Wilunk']",,West Virginia,,,
Raisin River,"['Raisen', 'Reason']",,Michigan,,,
Brandt's Town,,,Ontario,,,Mohawk village near Brantford
Neuwied,,,,Germany,,
Schoharie,['also Sgochari'],,New York,,,
Jongquakamik,,,,,,
Fayette County,,Fayette County,Pennsylvania,,,
Tawa River,,,,,,Maumee River
Middle Mountain Franklin County,['also Kittanning Mountain'],,Pennsylvania,,,
Whi-a-lu-sis,['Delaware'],,,,,an old man
Lake,['Poponoming'],,,,,
Hallobank,,,,,,
Post Vincennes,['Post Vincent'],,,,,
Potoman River,,,,,,
Tahiti,['Otaheite'],,,,,
Derby,,,Connecticut,,,
Munsee town,,,Ontario,,,Grand River
Gnadenhutten,,,Ohio,,,
Chippewa,,,,,,
Allegheny River,"['also Allegene', 'Aligena']",,,,,area | Mountains
Bass Islands,,,,,,Lake Erie | Middle and South
Lower Sandusky,,,,,,
Labrador,,,,,,
Luzerne County,['Wajomik'],Luzerne County,Pennsylvania,,,
Okkak,,,,,,Labrador
Easton,,,Pennsylvania,,,
Pittsburg Pennsylvania,,,,,,
Warren,,,Ohio,,,
Anahochquaga modern Ouaguaza,"[""also Ann'hochguage"", 'Anagotware']",Broome County,New York,,,
Woapikamik Sipo,,,Indiana,,,White River
Miami River,,,,,,
Walhanding Creek modern Walhonding,"['Wahlandunk', 'Walhandunk']",,Ohio,,,joining the Muskingum River at Coshocton
Beaver Creek,,,Ohio,,,
Williamsburg,,,New York,,,County | Livingston | near Mount Morris
Salisbury,,Litchfield County,Connecticut,,,
Nescopeck,"['also Neskopeke', 'Neskopeko', 'Nessgabeke', 'Neeskipecky Neschopega', 'etc.']",Luzerne County,Pennsylvania,,,
Boundbrook,['Baumbrook'],,New Jersey,,,
New Jersey,"['also East Jersey', 'the Jerseys']",,New Jersey,,,
Swan River,,,Michigan,,,vicinity of St. Clair River | Wabisisipi
Northumberland,,,Pennsylvania,,,
Goschgosching,,,,,,
Jongquakamik River,,,,,,
Freehold,,Monmouth County,New Jersey,,,
St. Marys,,,Ohio,,,Au Glaize County
Jongquakamik River,,,Ontario,,,
Walhanding,,,,,,
Gigeyunk,['Fort Wayne'],,,,,
Somerset,,Somerset County,Pennsylvania,,,
Lakes Erie and Ontario,,,,,,
Mochwesung,['Mochwessung'],,Ohio,,,Munsee town on Muskingum River
Canton,,,Ohio,,,
Buffalo,,,New York,,,
Great Miami,,,Ohio,,,
Newtown,['Newton'],,New York,,,site of Elmira
Chenaille ecarte,"['Sneicaorty', 'Sneycardy', 'Schenyacarty']",,,,,correctly Chenal ecarte River and area in Western Ontario
Wyandot Towns,,,,,,
Ke-kek-ton long timber,['Mohawk'],,,,,
Dundas,,,Ontario,,,
Sichem,['Oblong'],Dutchess County,New York,,,
Gallipolis,['Galliopolis'],,,,,Gallis County | O
Zeninge,"['Shenango', 'Chenango']",Broome County,New York,,,Upper Susquehanna near Binghamton
Esopus,,,New York,,,Kingston
Marbletown,,Ulster County,New York,,,
Pacific Islands,,,,,,
Suriname,,,,Suriname,,
Fort Carteret,,,,,,
Sandusky River,,,Ohio,,,
Sneicaerty,,,,,,
Nazareth,,,,,,
Pachgatgoch,,,,,,
Onondaga,['Onondago'],Onondaga County,New York,,,capital of Iroquois Federation
Christiansbrunn,,,,,,
Labrador,,,,,,Terra
Philip's Mill,,,New York,,,east of Hudson River
Mahony Creek,,,Pennsylvania,,,emptying into Beaver River
Jersey,,,,Jersey,,
Gnadenth also,,,,,,
Schechschequanunk,,,Pennsylvania,,,place on Susquehanna
Zeninga,,,,,,Zenenge | Zeningo
Ganatissege,,,,,,
U. SouthA,,,,,,
Filkentown,,,New York,,,
Washington County,['including also Beaver County'],Washington County,Pennsylvania,,,
Stillwater Creek,,Tuscarawas County,Ohio,,,
Orford,,,,,,Ontario. Gegoraphic Names
Swan Creek,,,Ontario,,,Lake Erie
Sambesink,,,,,,
Glass House,['?'],,,,,Highlands New York
Goschachgunk,"['Goschachking', 'Coschachkung']",,Ohio,,,Coshocton | Delaware Town on Muskingum River
Canoos,['Oil Creek'],,Pennsylvania,,,
Mahican Town,,,Ontario,,,Grand River
Thames River,['Retrenche'],,Ontario,,,
Wakotameki,['Wapitameki'],Muskingum County,Ohio,,,near Dresden
Goschgoschunk,"['Coschkoschingk', 'Coschcoschingk', 'Kuschkusching']",Venango County,Pennsylvania,,,Munsee Town on Allegheny River
Kaschkaschkung,['Kaschkaschkunk'],,,,,
Springfield,,Springfield,Ohio,,,
Macungie,['also Maguntsche'],Lehigh County,,,,
Zurich,,,,Switzerland,,
Walhanding Creek,,,,,,
Michler's Tavern,,,,,,
Shekomeko Dutchess County,"['Shecomeco', 'Checomeco']",,New York,,,
Thuernstein,,Schuylkill County,Pennsylvania,,,Broad Mount
Sopus,,,,,,
Great Island,,,Pennsylvania,,,in West Branch Susquehanna River
Memekasing,,,Ohio,,,Munsee Town
Delaware Town,,,Indiana,,,White River
Salt Creek,,Muskingum County,Ohio,,,
Long Island. New York,,,,,,
New Salem,,Erie County,Ohio,,,
Chemung,"['Schammungk', 'Schommunk', 'Shammunk', 'Shommunk', 'Uschummo', 'Uschommung']",,New York,,,town in Chemung County
Walhanding River,['Walhanding'],,Ohio,,,
Tuscarora Mountains,,,Pennsylvania,,,between Franklin and Fulton County
Milk River,,Milk River,Michigan,,,
Spain,,,,Spain,,
Fort Charter,['properly Charters'],,,,,
Woapicamikunk White River,['Wabicamigunk'],,Indiana,,,
Filkentown,,Dutchess County,New York,,,
Warwick,,,Ohio,,,
Hamilton's Mill,,,Indiana,,,
Fort Stanwix,,,,,,
Munsee Town,,,Ohio,,,Petquotting River
Leipzig,,,,Germany,,
Au Glaise River,,,Ohio,,,
Owl Creek,,,,,,Kekesing | possibly Gokhesing
Canaseraga Creek,,Livingston County,New York,,,
Tuscarora Creek,,,,,,
Fort Laurens,"['Laurence', 'Lawrence']",,,,,
Susquehanna River and Valley,,,,,,
Benigna Creek,['?'],,,,,Schuylkill County Pennsylvania | Mahantango Creek
Housatonic River,,,Connecticut,,,
Broad Mountain,,,,,,Pocono Plateau
Vincennes Indiana,"['Post Vincennes', 'Post Vincent']",,,,,
Toronto,['York'],,Ontario,,,
Fort Ligonier,,,,,,
Belldown,,,Ontario,,,Chenaie ecartee | Scottish settlement
Milford,['Old Milford'],New Haven County,Connecticut,,,
Snake Spring,,Bedford County,Pennsylvania,,,
Buffalo,,Brooke County,West Virginia,,,Wellsburg | also Charlestown
Lower Scatticok,,,,,,
Atlantic Ocean,['Coast'],,,,,
Machswoamik,['also Machawomick'],,,,,
Quahen,,,,Canada,,
Taniwandi,,,,,,
Getgatain,,,,,,
Languntouteney,,,,,,
Scioto River,['Sioto'],,Ohio,,,
Wyandot Town,,,,,,east bank below the lower rapids of Sandusky River
Sambesink,"['Armstrongtown', 'Sambeing']",,Ohio,,,near Mansfield | Greentown
Baltimore,,,Maryland,,,
Catores' Creek,,,,,,
Tschechachequanigk,['Schechschequanunk'],,,,,
Wilmington,,,Delaware,,,
Maschapinck Creek,"['Maschaping', 'Maschapunk']",,,,,
Nain,,,Pennsylvania,,,near Bethlehem
Jersey,['The Jerseys'],,,Jersey,,
Ysenburg-Budingen,,,,Germany,,
New Shammony,,,,,,
Hackientachous Creek,['modern Hokendaugua Creek'],,Pennsylvania,,,County | Northampton | also Wilson's Creek
Telpi-Mahonunk,,,,,,
North Carolina,,,North Carolina,,,Wachau
Hudson River,['North River'],,,,,
Attike,,,,,,
Grace Half,['Fulneck'],,,,,England | Yorkshire
Falls of the Ohio,,,,,,
Salt River,,,Michigan,,,west side of Lake St. Clair | Siwatakanisipi
Havanna,['Awanna'],,,,,
Irish settlement,,,,,,probably Indiana
Long Island,,,Pennsylvania,,,
St. Marys River,,,,,,
Mochkawunke,,,,,,tributary of Allegheny River
Louisburg,,,Nova Scotia,Canada,,Cape Breton
Nanticoke,['Nanticoke Town'],Luzerne County,Pennsylvania,,,
Huron River,"['al', 'Petquotting']",,Ohio,,,
Machilusing,"['Machelusing Machwihilussunk', 'Wichlusing', 'Wichloosing', 'Wichilusing', 'Wihilusing', 'Wialusing', 'Wyalusing']",,,,,
Mahican Town,,,Ohio,,,Maumee River
Hopedale,,,,,,Labrador
Hernhag,,,,Germany,,
Allentown,['Allenstown'],,Pennsylvania,,,
Camp's Mill,,,New York,,,
Great Island,,,,,,
Killbuck Creek,,Holmes County,Ohio,,,
Oil Creek,['Canoos'],,New York,,,
Adams County,,Adams County,Ohio,,,mouth of Ohio Brush Creek
Esopus New York,['Sopus'],,,,,
Dickenson College,,,Pennsylvania,,,Carlisle
Mississippi River and area,,,,,,
Pinery,,,Ontario,,,place on Thames River
Holsbon River,,,Tennessee,,,
Lawunakhannek,,,Pennsylvania,,,Allegheny River
Conitshaggery,,,,,,
Woaketammeki Shawnee town on Muskingum River,"['Woakatammike', 'Woaktammike', 'Woaktammuk']",,Ohio,,,
Neshaminy,['New Shammony'],Bucks County,Pennsylvania,,,
Gnadenthal,,,Pennsylvania,,,
Gothenburg,,,,Sweden,,
Sucachqualle's Town,,,Ohio,,,
Tuscarora Town,['Tosgarore'],,Ontario,,,Grand River
Susquehanna River,,,,,,
Springplace,,,Georgia,,,
Wyoming,,,Wyoming,,,
Sandusky Point,,,Ohio,,,
Germantown,,Montgomery County,,,,Pennsylvania
Salem,,,Ohio,,,
Oley,,,,,,
Schechschiquanunk on Susquenanna River,['Schechaschequani'],Bradford County,,,,Pennsylvania Geographic Names
Tenkhanneti,,,,,,
Conestoga,,Lancaster County,Pennsylvania,,,
Mihillusing,,Bradford County,,,,Wyalusing. Pennsylvania
Malden,,,,,,
Virginia,,,Virginia,,,later State | Colony
Cayuga Lake,,,New York,,,
Schammungk,,,,,,Schommunk
Nanticoke Town,,,,,,
Nazareth Hall,,,,,,
Munsee Town,,,Ohio,,,Sandusky River
Maumee River,,,,,,
Farmington,,,Connecticut,,,
Captives' Town,,,Ohio,,,Upper Sandusky
Pittsburgh,,,,,,
Great Creek,['Ohio River'],,,,,
Cedar Point,,Lucas County,Ohio,,,
Sichem,,,New York,,,
One Leg Creek,,,,,,
Deep River,,,Ohio,,,Chitquou
Irish settlement,,Northampton County,Pennsylvania,,,Allen Township
Venango River,['French Creek'],Venango County,Pennsylvania,,,
Catters Kill,['Kaders Kill'],Greene County,New York,,,
Negro Town,,,,,,Ohio near Upper Sandusky
Black Creek,,,,,,tribut. of St. Marys River
Feuerlein,['possibliy Fire line'],,,,,
Nuelstown,['?'],Belmont County,Ohio,,,
Delaware Town,,,,,,Upper Sandusky
King's Island,['Grosse Ile'],,Michigan,,,
Quebec,,,Quebec,Canada,,
New Milford,,Litchfield County,Connecticut,,,
North Western Territory,,,,,,
Bethlehem,,,New Hampshire,,,
Marietta,,Washington County,Ohio,,,
Nain,,,,,,
Stissing Mountain,,,New York,,,
Salem,,Tuscarawas County,Ohio,,,
Mineral Spring,,Carbon County,Pennsylvania,,,Gesundbunnen
Sandwich,,,Ontario,,,
New River,,,Virginia,,,
York,['Yorktown'],York,Pennsylvania,,,
Wyandot Town,,Wyandot County,Ohio,,,Upper Sandusky
Menissing Lacawanna County,"['also Menissing Town', 'Munsee Town']",,Pennsylvania,,,
Fatter Lane,,,,,,London
Rolof Janssens Kill,,Columbia County,New York,,,
Cape Cod,,,Massachusetts,,,
Pennsylvania,,,Pennsylvania,,,
Kuschkusching,,,,,,
Fort Loudoun,,Franklin County,Pennsylvania,,,
Quebec,,,Quebec,,,
Fort Schuyler,,,New York,,,Utica
Sandusky Bay,"['Little Lake', 'St. Deske']",,Ohio,,,
Huron River,,,Michigan,,,now Clinton River
Anajot,,,,,,
Pittsburg,,,,,,
Woapicamikunk,,,,,,
Shippensburg,,Cumberland County,Pennsylvania,,,
Cajihaga,,,,,,
Cedar Point,,,Ohio,,,near Toledo | west side of Lake Erie
New France,,,,,,
Coneecachegue [?] Franklin County,['Canjoschikker'],,Pennsylvania,,,
Fort Allen,,Carbon County,Pennsylvania,,,modern Weissport
Conrad Weiser's Creek,['Tulpehocken Creek'],Berks County,Pennsylvania,,,
Shekomeko,['Checomeko'],,New York,,,
Asscennessik,['Assinnissink'],,,,,
Seabrook,,Rockingham County,New Hampshire,,,
Socana,,,,,,probably a river
Alackhookamikoae,,Northampton County,Pennsylvania,,,branch of Wilson's Creek
Friedenshutten,,,,,,Bethlehem
Chippawa,['Chippaway'],,Ontario,,,
New York City,,,,,,
Gnadenwinkel,,,,,,on Gnadenhutten tract
Seven Ranges,,,Pennsylvania,,,
Tuscarawas,,,,,,
Toiondo,,,,,,Toronto
Mount Rock,,Cumberland County,Pennsylvania,,,
Shamokin,"['Shomokin', 'Shamoko', 'Shomoko', 'Schomoke', 'Schomoko']",,Pennsylvania,,,place on Susquehanna River
Caskaskung,,,,,,
Woapiminschijeek,['Where the chestnut trees grow'],,Indiana,,,
Bigbear Creek,,,Ontario,,,
Wechquetank,['Wequetank'],,Pennsylvania,,,
Wajomik,"['Wyoming', 'Pennsylvania']",,,,,
Pachgatgoch,,,Connecticut,,,
Hudson,,,,,,
Whitewater River,,,,,,Indiana and Ohio
Grand River,['Schwago'],,Ontario,,,
Lehigh River,['Lecha'],,,,,
Lac,['also Long Lake'],,New York,,,Poponming Pond Monroe County
Mississinnawa,,,Indiana,,,tributary of Wabash River | also Lemachtschesink
Mennesing,,,,,,Pennsylvania and New Jersey | place on Delaware River
Wechpakak place in Upper Susquehanna region,"['Wechpakak', 'Wiekpekat']",,,,,
Marietta,,,Ohio,,,
Stillwater Creek,,,Ohio,,,Harrison and Tuscarawas County
Pacific Coast,,,,,,
Asylum,,Bradford County,Pennsylvania,,,
Wentschipaqua,,,Ontario,,,
Genessie River,['Chenessie'],,New York,,,near Rochester
Jena,,,,Germany,,
Susquehanna River and area,,,,,,
New Milford,,,Connecticut,,,
Guinea,,,,Guinea,,
Mensing,,,,,,
Esopus,,Ulster County,New York,,,Kingston
Paint Creek,,,,,,
Grand River,,,Ohio,,,
Sugar Creek,,,Ohio,,,
Tobihanna Creek,,Monroe County,Pennsylvania,,,
Sharon,,,Ohio,,,Tuscarawes County
Munsee Town,['Moncy'],,Ohio,,,near Lower Sandusky
Harrison's Ferry,"['Harrisburg', 'Pennsylvania']",,,,,
Chartiers Creek,,Allegheny County,Pennsylvania,,,
Echquitehanok,,,,,,
Tuscarawas River,['Tuscarawi'],,Ohio,,,
New Hampshire,,,New Hampshire,,,
Sasena,,,,,,
Gnadenhutten,,,Ohio,,,on Muskingum River
Sheweko,,,,,,place near Shekomeko
Bedford County,,Bedford County,Pennsylvania,,,
Walhanding River,['Walhanding Creek'],,,,,O
Sugar Creek,,,Ohio,,,tributary of Tuscarawas River
New Haven,,,Connecticut,,,
Chenaille ecarte,,,,,,
Lehigh River Falls,,Carbon County,Pennsylvania,,,
Little Stillwater Creek,,,Ohio,,,Tuscarawas and Harrison County
Wheeling,,,West Virginia,,,
Lower Sandusky,['St. Dusky'],,Ohio,,,Fremont
Scattigok,['Scattacook'],,Connecticut,,,
Lake Huron,,,,,,
Pohopoco Creek,,,,,,
New Purchase,,,,,,area in north-west Ohio
Negausibis,,,Ontario,,,Aux Bables | Sand River
New York,,,New York,,,
Grand River,,,Ohio,,,Cuyahoga River
Lititz,,,Pennsylvania,,,
Six Nations towns,,,Ontario,,,Grand River
Little Falls,,Herkimer County,New York,,,
Sandy Creek,,,Ohio,,,
Cuyahoga River and place,"['Cajihaga', 'Cayahaga', 'Gajahaga']",,Ohio,,,Akron
Ephrata,,Lancaster County,Pennsylvania,,,
Cranberry,,,,,,
Long Island,,,Pennsylvania,,,West Branch of Susquehanna
Wechquatnach,,Litchfield County,Connecticut,,,
Newcomerstown,,,Ohio,,,
Georgetown,,Beaver County,Pennsylvania,,,
Berbice,,,,,South America,British Guyana
Woapikamikunk,,,Indiana,,,White River | Delaware Town
Oley,,,Pennsylvania,,,
White Woman's Creek,['Walhonding Creek'],Coshocton County,Ohio,,,
Warren County,,Warren County,Ohio,Lebanon,,
Kingston,,,Ontario,,,
Huron River,,Wayne County,Michigan,,,at Detroit River estuary
Spangenberg,,Northumberland County,Pennsylvania,,,
Mingo Town,,,,,,
Emmaus,,,Pennsylvania,,,
Owego,['Oweke'],Tioga County,New York,,,
Brandt's Town,,,,,,
Kinhanschican,,,,,,
Berbice,,,,,South America,
White River,"['also Woapicamikunk', 'q.v.']",,Indiana,,,
Uschummo Uschummunk,,,,,,
Four Mile Creek,,Butler County,Ohio,,,
Schechschequannink Bradford County,['Tschechschequannink'],,Pennsylvania,,,
Danbury,,Fairfield County,Connecticut,,,
Monongahela Hill,,,,,,
Tuscarawi,,,Ohio,,,
Sakunk,,,,,,place at the mouth of Beaver Creek
Fort Schuyler,['Skuyler'],,,,,
Hudson River,,,New York,,,
Christianspring,,,,,,
Albany,,,New York,,,
Dover,,Dutchess County,New York,,,
Horseshoe Fall,,,Ontario,,,Niagara River
Sandusky Island,,,,,,
Brantford,['called Brownstown'],,Ontario,,,Brand's Town | Mohawk Town
Dansburry,['Danesberg'],Monroe County,Pennsylvania,,,modern Stroudsburg
Zeist,,,,,,Holland
Chenango,,,,,,
Attike,"['Attique', 'Kittanning', 'Pennsylvania']",,,,,
Friedenshutten,,,,,,
Siwatakanisipi,,,,,,West side of Lake St. Clair | Salt River
Queenston,,,Ontario,,,
Hope's Cove,['South?'],,,,,Lake Erie | anchoring place on Bass Island
Neu-Herrnhuth,,,,Greenland,,
Skehantowa Shawnee center on the Susquehanna,"['Tschehantowah', 'Wyoming']",,,,,
Carlisle,,Cumberland County,Pennsylvania,,,
Adamstown,,Lancaster County,Pennsylvania,,,
Freehold,,,New York,,,
Gnadenhutten,['M.'],,,,,
Warpoles,,,,,,also Mittesagi
Beaver,['Beavertown'],,Pennsylvania,,,
Turtle Creek,,,Pennsylvania,,,Westmoreland and Allegheny County
Presqu' Isle,,,Pennsylvania,,,
Delaware Town,,,Indiana,,,
Kaskaskunk,"['Kaskaskung', 'Kaschkaskung', 'Kaschkaschkunk']",Lawrence County,Pennsylvania,,,Munsee Town on Beaver River
Greentown,,,,,,
Morristown,,,New Jersey,,,
Pennsbury Manor,,Bucks County,Pennsylvania,,,
Okak,,,,,,Labrador
Tuscarawi,,,,,,
Poughkeepsie,,,New York,,,
Paxtang,"['also Paxton', 'Paxtown']",Dauphin County,Pennsylvania,,,
Oochgelogy,,,Georgia,,,
Potomac River,['Petowmac'],,,,,
Friedensthal,,,Pennsylvania,,,near Nazareth
Gekelemukpechunk,['Gegelemukpechunk'],,,,,
Wyalusing Creek,,,,,,
St. Thomas,,,,,,West Indies
Kitigan,,,Ontario,,,Chippewa town
Ottawa Channel,,,,,,
Popooming Pond,,,,,,Lac | also Long Lake
Sandusky Bay,"['Little Lake', 'St. Deske']",,Ohio,,,
Chemung River,['Schamung'],,New York,,,
Tetechgath,,,,,,
Narrows,,Essex County,New York,,,south end of Lake Champlain | The
Big Beaver Creek,,,Pennsylvania,,,
Amatschiwomunk,,,,,,
Cornelius Creek,,,,,,tributary to Muskingum River
Monongahela,['Monongahela'],,,,,
Newark,,,,,,
Pigeon Roost,,,,,,place near Blanchard River
Wilawana,"['Wilawane', 'Wilawanunk', 'Wilawunk']",Bradford County,Pennsylvania,,,
New Town,,Bucks County,Pennsylvania,,,
Philadelphia,,,Pennsylvania,,,Barracks
Goschschossunk,,,,,,place in Ohio | Goschschossink
Boston,,,Massachusetts,,,
Bristol,,Bucks County,Pennsylvania,,,
Kaniseraga,,Livingston County,New York,,,Ganaeraga Creek
Graceham,,,Maryland,,,
Spring Creek,,Monroe County,Pennsylvania,,,near Wechquetank
Retrenche River,,,Ontario,,,same as Thames River
White's Mill,,Beaver County,Pennsylvania,,,
Sharon,,Litchfield County,Connecticut,,,
Kitiganesink,['in the garden'],,,,,
kaskaskunk,,,,,,
Tschallachgasi,,,,,,
Chestnut Hill near Gnadenhutten,['Kastanienberg'],Carbon County,Pennsylvania,,,
Mount Pleasant,,Jefferson County,Ohio,,,
Schneycarty,,,,,,
Kaunaumeek,,,New York,,,
New Stockbridge,,,New York,,,
Redding,,Fairfield County,Connecticut,,,
Wolf's Mountain,,Monroe County,Pennsylvania,,,
Lehigh River,['Lecha'],,Pennsylvania,,,
Chenango,"['Sheninga', 'Zeninga', 'Zeninge', 'Zenenge', 'Zeningka']",Chenango County,New York,,,River and Area
Ferry House,,,,,,Thames River
Laramie Creek,,Shelby County,Ohio,,,
Maumee Bay,,,,,,
Huron River Macomb County,['Clinton River'],,Michigan,,,
Georgetown,,,Pennsylvania,,,
New Philadelphia,,,Ohio,,,
Lake St. Clair,['Sinclair'],,,,,
Thuppekink,['Schonbrunn'],,,,,
West Indian Islands,,,,,,
Ta-ne-wan-di,['Seneca'],,,,,rapid stream
Morgantown,,,West Virginia,,,
Lancaster County,,Lancaster County,Pennsylvania,,,
York,,York,Pennsylvania,,,
Onondaga,,,New York,,,
Fort Stanwix,,,New York,,,Rome
Gigeijunk,,,,,,
Assunnunk,,,,,,
Goschgoschunk on Allegheny River,['Coschcoshing'],,Pennsylvania,,,
Newfoundland,,,,,,
White Woman's Creek,,,,,,
Fort Niagara,,,New York,,,
