place_name,alternate_names,admin_level_2,admin_level_1,admin_level_0,continent,notes,feature_type,ambigous_county
Acapulco,[],,,MX,,,,
Achain,[],,OH,,,Stone River,,
Achquittehannink,[],,,,,,,
Achquittehannink River,['also Echquitehanek'],,OH,,,,H,
Achsunnissunk,[],,,,,,,
Adams County,[],001,OH,,,mouth of Ohio Brush Creek,,
Adamstown,[],071,PA,,,,,
Africa,[],,,,Africa,,,
Alackhookamikoae,[],095,PA,,,branch of Wilson's Creek,,
Albany,['Albanien'],,NY,,,,,
Algiers,[],,,,,,,
Allegheny,"['Allegena', 'Allegene']",,,,,also used for Ohio Territory | River and Territory,,
Allegheny Mountains,[],,PA,,,Bedford and Somerset County,T,
Allegheny Ohio River and its territory,"['Allgene', 'Algene']",,,,,,L,
Allegheny River,"['also Allegene', 'Aligena']",,,,,area | Mountains,H,
Allemaengel,[],077,PA,,,Lynn Township,,
Allemaengel,[],,,,,,,
Allen Township,[],095,PA,,,,,
Allentown,['Allenstown'],,PA,,,,,
Allobank,['Hallobank'],,,,,,,
Almenisepunk,[],,OH,,,Vermilion Creek,,
Amatschiwomunk,[],,,,,,,
Amboy,[],,,,,,,
America,[],,,,,,,
Amherstburg,[],,08,,,,,
Anahochquaga,[],,,,,,,
Anahochquaga modern Ouaguaza,"[""also Ann'hochguage"", 'Anagotware']",007,NY,,,,,
Anahochquaga on Susquehanna River,"['Anahochquage', 'Annochouaja']",,,,,,H,
Anajot,[],,NY,,,Oneida capit also | Tuscarora County,,
Ancaster,[],,08,,,,,
Annapolis,[],,MD,,,,,
Annaquachticok,"['Annachticok', 'Annacticok']",,CT,,,alternate name of Westenhuc,,
Annenthal probably Mahantango Creek,"[""Anna's Valley""]",107,PA,,,,H,
Anohochquage,[],,,,,,,
Anokran,[],,,,,place between Shekomeko and Wehtak,,
Antigua,[],,,,,West Indies,,
Appelisikook,[],,OH,,,Walhending area,,
Armstrong's Town,[],,,,,,,
Asscennessik,['Assinnissink'],,,,,,,
Asscennessink,[],,,,,,,
Assunnunk,[],,,,,,,
Assunnunk on Hocking River,"['Assenunk', 'Aszennunk', 'Achsunnunk']",,OH,,,,H,
Astrachan,[],,,RU,,,,
Asylum,[],015,PA,,,,,
Atlantic Ocean,['Coast'],,,,,,H,
Attike,"['Attique', 'Kittanning', 'Pennsylvania']",,,,,,,
Au Glaise River,[],,OH,,,,H,
Augusta,[],023,KY,,,,,
Austria,[],,,AT,,,,
Aux Sables River,[],,,,,Sand River | Ontario called Negausibis,H,
Awassantachque,[],,,,,Awossanttaque | Awossantagque,,
Balings Kill,[],,PA,,,probably Carbon County,,
Baltimore,[],,MD,,,,,
Barbados,[],,,BB,,West Indies,,
Barby,[],,,DE,,Moravian Center in Germany,,
Barton,[],,08,,,,,
Bass Islands,[],,,,,Lake Erie | Middle and South,,
Bath,[],101,NY,,,,,
Batomick,[],,,,,,,
Bavianskleof,[],,,,,Cape Colony,,
Bay of Quinte,[],,,,,Lake Ontario,H,
Beard's Tavern,[],,NY,,,New Jersey and Warwick | place between Hope,,
Beaver,['Beavertown'],,PA,,,,,
Beaver Creek,['Little Beaver River'],,OH,,,Little,H,
Beaver Dam,[],,,,,,,
Beaver River,[],,,,,Great | Creek,H,
Bedford,[],009,PA,,,,,
Bedford,[],,MA,,,England,,
Bedford County,[],009,PA,,,,,
Beersheba,[],,,,,,,
Beersheba,[],157,OH,,,near Gnadenhutten,,
Belldown,[],,08,,,Chenaie ecartee | Scottish settlement,,
Belle River,[],,,,,Western Ontario,H,
Belmont County,[],013,OH,,,,,
Benigna Creek,['?'],,,,,Schuylkill County Pennsylvania | Mahantango Creek,H,
Berbice,[],,,,South America,British Guyana,,
Berks County,['Berkshire'],011,PA,,,,,
Berlin,[],,,DE,,,,
Bern,[],,,CH,,,,
Berthelsdorf,[],,,DE,,near Herrnhut,,
Bethabara,[],,NC,,,,,
Bethanion,[],,NC,,,,,
Bethel,[],011,PA,,,,,
Bethel on the Swatara,[],011,PA,,,,,
Bethlehem,[],,PA,,,Moravian Center,,
Bethlehem,[],,NH,,,Palestine,,
Big Beaver Creek,[],,PA,,,,H,
Big Sodus Bay,[],,NY,,,,H,
Big Stillwater Creek,[],157,OH,,,,H,
Big Stones Creek,[],,OH,,,presumably Toussaint River,H,
Big Yellow Creek,[],,OH,,,,H,
Big-Tree,[],,NY,,,Genesee,,
Bigbear Creek,[],,08,,,,H,
Black Creek,[],,,,,tribut. of St. Marys River,H,
Black River,['presumably'],,OH,,,,H,
Blanched's Forks,[],063,OH,,,,,
Blue Mountains,[],,PA,,,,T,
Blue Mountains,[],055,PA,,,,T,
Boomerstown,[],059,OH,,,,,
Boston,[],,MA,,,,,
Bound Brook,['Bambrug'],035,NJ,,,,,
Boundbrook,['Baumbrook'],,NJ,,,,,
Brandt's Town,[],,08,,,Mohawk village near Brantford,,
Brant's Town,"['probably Brantford', 'Ontario']",,,,,,,
Brantford,['called Brownstown'],,08,,,Brand's Town | Mohawk Town,,
Braunschweig,[],,,,,Brunschwig,,
Breakneck Hill,[],,PA,,,Susquehanna Valley,T,
Bremen,[],,,DE,,,,
Bristol,[],017,PA,,,,,
British Dominions,[],,,,,,,
Broad Mountain,[],,,,,Pocono Plateau,T,
Brodhead near Dansbury,['Broadhead'],089,PA,,,,,
Brotherton,['Brothertown'],,NY,,,Mohawk River,,
Brownstown,[],,MI,,,mouth of Huron River below Detroit,,
Buchkabuchka Creek Pohopoco Creek,['also Bugggabuchga'],025,PA,,,,H,
Bucks County,[],017,PA,,,,,
Buffalo,[],,NY,,,,,
Buffalo,[],009,WV,,,Wellsburg | also Charlestown,,
Buffalo Creek,[],121,NY,,,,H,
Buffalo Creek,[],009,WV,,,,H,
Burlington,[],,08,,,,,
Burlington,[],,NJ,,,,,
Butler County,['Fort Hamilton'],017,OH,,,,,
Butz Ferry,[],,PA,,,probably on Youghiegheny River,,
Cajihaga,[],,,,,,,
Caledonia,[],051,NY,,,,,
California,[],,CA,,,,,
Cambridge,[],059,OH,,,,,
Camden,[],,08,,,,,
Camp's Mill,"[""Campen's mill""]",,NY,,,,,
Canaan,[],005,CT,,,,,
Canada,[],,,CA,,,,
Canajoharie Montgomery County,['Kannatschochori'],,NY,,,,,
Canajoharis,"['Connitschochery', 'Conitshaggery']",057,NY,,,,,
Canamek,[],,,,,,,
Canandagua,[],069,NY,,,,,
Canaseraga Creek,[],051,NY,,,,H,
Canatschochari,[],,,,,,,
Canegotschik,[],,,,,,,
Canfield Mahoning County,['Canefield'],,OH,,,,,
Canhawa,[],,,,,,,
Caniseraga,[],,,,,,,
Cannitschochery,[],,,,,,,
Canoos,['Oil Creek'],,NY,,,,,
Canoos,['Oil Creek'],,PA,,,,,
Canterbury,[],,,,,England,,
Canton,[],,OH,,,,,
Cape Cod,[],,MA,,,,T,
Cape of Good Hope,[],,,,,,T,
Captives' Town,[],,OH,,,Upper Sandusky,,
Caribbean Islands,[],,,,,,,
Carleton Island,[],,,,,Lake Ontario,,
Carlisle,[],041,PA,,,,,
Carolina,[],,,,,Colony,,
Caskaskung,[],,,,,,,
Catores' Creek,[],,,,,,H,
Catskill,[],,NY,,,County | Greene,,
Catskill Mountains,[],,NY,,,,T,
Catters Kill,['Kaders Kill'],039,NY,,,,,
Cawnschannek,"['Cawunschhannek', 'Cawinschhannek', 'Kawunsohhannek']",,,,,place on Allegheny River,,
Cawunschannek,[],,,,,,,
Cayahaga,[],,,,,,,
Cayuga,['town'],,NY,,,,,
Cayuga Lake,[],,NY,,,,,
Cayuga Town,['Kajugu'],,08,,,Grand River,,
Cedar Point,[],095,OH,,,,S,
Cedar Point,[],123,OH,,,near Toledo | west side of Lake Erie,S,
Chambers' Ferry,[],,,,,crossing point of the Susquehanna below Harrisburg,,
Chambers' Mill,[],043,PA,,,Fishing Creek,,
Charleston,[],009,WV,,,Wellsburgs | also Buffalo | Charlestown,,
Chartiers Creek,[],003,PA,,,,H,
Checomeco,[],,,,,,,
Chemung,"['Schammungk', 'Schommunk', 'Shammunk', 'Shommunk', 'Uschummo', 'Uschommung']",015,NY,,,town in Chemung County,,
Chemung River,['Schamung'],,NY,,,,H,
Chenaille ecarte,"['Sneicaorty', 'Sneycardy', 'Schenyacarty']",,,,,correctly Chenal ecarte River and area in Western Ontario,,
Chenango,[],,,,,,,
Chenango,"['Sheninga', 'Zeninga', 'Zeninge', 'Zenenge', 'Zeningka']",017,NY,,,River and Area,,
Chenango,['Zeninge'],007,NY,,,,,
Chenessie River,[],,,,,,H,
Cherokee River,[],,,,,,H,
Chester,[],,PA,,,near Philadelphia,,
Chester County,[],029,PA,,,,,
Chestnut Hill,[],,,,,,T,
Chestnut Hill near Gnadenhutten,['Kastanienberg'],025,PA,,,,T,
Chestnut Ridge,[],129,PA,,,,,
Chillicothe,[],,OH,,,,T,
Chippawa,['Chippaway'],,08,,,,,
Chippewa,[],,,,,,,
Chippewa Creek,[],,08,,,near Niagara,H,
Chippewa Town,[],,08,,,,,
Chitqueu,[],,OH,,,Deep River,,
Chotusitz,[],,,,,Bohemia,,
Christian Spring,[],,PA,,,,,
Christiansbrunn,['Christian Spring'],,PA,,,place near Nazareth,,
Christianspring,[],,,,,,,
Cincinnati,[],,OH,,,,,
Cleveland,['Cleveland'],,OH,,,,,
Clinton River,[],,MI,,,,H,
Codorus Creek,['Catores'],133,PA,,,,H,
Cohocten Creek,[],101,NY,,,,H,
Columbia,[],061,OH,,,,,
Coneecachegue [?] Franklin County,['Canjoschikker'],,PA,,,,,
Conestoga,[],071,PA,,,,,
Conewago,[],051,NY,,,Avon,,
Conewago Hills,[],043,PA,,,,T,
Conitshaggery,[],,,,,,,
Connecticut,[],,CT,,,,,
Connytown,[],071,PA,,,modern Bainbridge,,
Conrad Weiser's Creek,['Tulpehocken Creek'],011,PA,,,,H,
Copenhagen,[],,,DK,,,,
Corentyn,[],,,SR,South America,,,
Cornelius Creek,[],,,,,tributary to Muskingum River,H,
Cornwall,[],005,CT,,,,,
Coschachkung,[],,,,,Coschachkunk,,
Coschkoschingk,[],,,,,,,
Coschosching,[],,,,,Coschkoschunk,,
Coshocton,[],,,,,former Goschachgunk,,
Cranberry,"['also Crambarry', 'Cramburry', 'etc.']",,NJ,,,,,
Credit River,[],,08,,,,H,
Croton River,['Groodens Revier'],,,,,,H,
Crown Point,[],031,NY,,,,S,
Cumberland County,[],041,PA,,,,,
Cunameg,[],,,,,,,
Cunningham Island,[],,08,,,probably Pelee Island,,
Cushietunk,"['Geschiachton', 'Gechachton']",127,PA,,,near Milenville,,
Cuyahoga,['Cayahaga'],,OH,,,River and area,,
Cuyahoga Old Town,[],,,,,,,
Cuyahoga River,[],,,,,,H,
Cuyahoga River and place,"['Cajihaga', 'Cayahaga', 'Gajahaga']",,OH,,,Akron,H,
Damascus,[],,,,,8 miles from Goschgoschunk | place on Allegheny River,,
Danbury,['Tenburey'],001,CT,,,,,
Dansburry,[],,,,,,,
Dansburry,['Danesberg'],089,PA,,,modern Stroudsburg,,
Dansville,['Danville'],051,NY,,,,,
Danzig,[],,,DE,,,,
Dartmouth College,[],,,,,,,
Dartmouth College,[],,NH,,,,,Hanover
Dauphin County,['Dauphiny'],043,PA,,,,,
Davall Academy,[],,,,,England,,
DeTrenche,[],,,,,,,
Deep River,[],,OH,,,Chitquou,H,
Deer Creek,[],129,OH,,,,H,
Delaware River,[],,,,,Water Gap,H,
Delaware River Valley,[],,,,,,T,
Delaware Town,[],,IN,,,Upper Sandusky & White River,,
Delaware Township,[],,08,,,Thames River,,
Denmark,[],,,DK,,,,
Derby,[],009,CT,,,,,
Detroit,[],,MI,,,City and Fort,,
Detroit River,[],,,,,,H,
Detroit River Island,[],,,,,,H,
Deykert's Place,[],,,,,,,
Diaugu,[],,,,,Diaoju,,
Dickenson College,[],,PA,,,Carlisle,,
Double Eagle,['Doppeladler'],107,PA,,,Klinglerstown,,
Dover,[],027,NY,,,,,
Dry Ridge,[],,PA,,,,,
Dublin,[],,,IE,,,,
Duncan's Falls,[],119,OH,,,,H,
Dundas,[],,08,,,,,
Dungannon,[],,08,,,,,
Dutchess County,[],027,NY,,,,,
East Indies,[],,,,,,,
East Jersey,[],,,,,,,
Easton,[],,PA,,,,,
Echpalawehund's Town,[],,OH,,,Delaware Settlement,,
Echquitehanok,[],,,,,,,
Elisabeth Point,[],,NJ,,,,S,
Elizabeth,['Elizabeth Point'],,NJ,,,,,
Elizabeth Point,[],,NJ,,,,S,
Elizabethtown,[],071,PA,,,,,
Emmaus,[],,PA,,,,,
England,[],,,,,,,
Ephrata,[],071,PA,,,,,
Eschebeke,[],,,,,possibliy Nescopeek,,
Eskenne River,['Hern'],,,,,,H,
Esopus,[],111,NY,,,Sopus & Kingston & Kingston & Kingston | Sopus,,
Esopus New York,['Sopus'],,,,,,,
Europe,[],,,,Europe,,,
Eva Creek,['Shamokin'],097,PA,,,Augusta Township,H,
Eva Creek,[],,,,,,H,
Fairfield,['Old Fairfield'],,CT,,,,,
Falls of the Ohio,[],,,,,,H,
Fannetsburg,[],055,PA,,,,,
Farmington,"['Firmingtown', 'Vermonthaun']",003,CT,,,,,
Fatter Lane,[],,,,,London,,
Fayette County,[],051,PA,,,,,
Ferry House,[],,,,,Thames River,,
Feuerlein,['possibliy Fire line'],,,,,,,
Fighting Island,[],,,,,below Detroit,,
Filkentown,[],027,NY,,,,,
Firelands,[],,OH,,,Erie and Huron County,,
Fish Kill,[],,PA,,,probably Northampton County,,
Fish Kill,[],027,NY,,,,,
Fish-Kill,[],027,NY,,,,,
Forks of the Delaware,[],095,PA,,,,,
Forks of the Delaware,[],,,,,,,
Forks of the Road,[],,,,,,,
Fort Adams,['also Fort St. Marys'],107,OH,,,,,
Fort Allen,[],025,PA,,,modern Weissport & Allentown,,
Fort Carteret,[],,,,,,,
Fort Charter,['properly Charters'],,,,,,,
Fort Cumberland,[],,MD,,,,,
Fort Defiance,[],039,OH,,,Maumee River,,
Fort Detroit,[],,,,,,,
Fort Edward,[],115,NY,,,,,
Fort Erie,[],,08,,,,,
Fort Hamilton,[],,,,,,,
Fort Harmer,[],,OH,,,mouth of Muskingum River,,
Fort Herkemen,[],,NY,,,Herkimer,,
Fort Hunter,[],,NY,,,,,
Fort Kanawha,['Canhawa'],,,,,,,
Fort Laurena,[],,,,,,,
Fort Laurens,"['Laurence', 'Lawrence']",,OH,,,near Bolivar,,
Fort Ligonier,[],,,,,,,
Fort Littleton,[],,PA,,,Futon County,,
Fort Loudoun,[],055,PA,,,,,
Fort Malden,[],,08,,,,,
Fort McIntosh,[],,,,,Ohio River at Beaver Creak,,
Fort McIntosh,[],007,PA,,,,,
Fort McIntosh,[],,,,,Ohio River,,
Fort Meigs,[],,OH,,,Weed County | Maumee River rapids,,
Fort Miami,[],,OH,,,Weed County | Maumee River rapids,,
Fort Niagara,[],063,NY,,,near Youngstown,,
Fort Norris,[],089,PA,,,,,
Fort Ontario,[],,NY,,,Oswego,,
Fort Oswego,[],,NY,,,,,
Fort Pitt,[],,,,,,,
Fort Plain,[],,NY,,,,,
Fort Schlosser,['Slosser'],063,NY,,,,,
Fort Schlosser,[],,,,,,,
Fort Schuyler,"['Skulker', 'Skuyler']",,NY,,,Utica,,
Fort Stanwix,[],,NY,,,Rome & original name of Fort Schuyler,,
Fort Wabash,"['Vincennes', 'Indiana']",,,,,,,
Fort Wayne,[],,IN,,,Kikeyuak | also Gigeyunk,,
Forty Mile Creek,[],,,,,,H,
Four Brothers,['Vier Bruder'],,,,,,,
Four Mile Creek,[],017,OH,,,,H,
France,[],,,FR,,,,
Franckfurth,['Frankford'],101,PA,,,,,
Frederickstown,['Friedrickstown'],091,PA,,,,,
Fredrickstown,[],,,,,,,
Freehold,[],,NY,,,Greens County,,
Freehold,[],025,NJ,,,,,
Frenchtown,[],,PA,,,,,
Friedenshutten,[],,PA,,,Bethlehem & Wyalusing | on Susquehanna,,
Friedensth also,[],,,,,,,
Friedensthal,[],,PA,,,near Nazareth,,
Fulneck,['Fulnec'],,,,,England & England,,
Gachnawage,[],,,,,,,
Gachtochwawunk,[],,,,,,,
Gallipolis,['Galliopolis'],,OH,,,Gallis County | O & Gallis County,,
Galloway's Island,[],,PA,,,Delaware River,,
Ganatissege,[],,,,,,,
Ganatocheracht,[],,,,,,,
Ganawacu,[],,,,,,,
Garochiati,[],,NY,,,Seneca town on Pemidhannek Creek,,
Gawunschiechgunk,[],,,,,St. Marys River,,
Geisterborg,['Demons Hill'],119,PA,,,Otsinachson,,
Gekelemukpechunk,['Gegelemukpechunk'],,OH,,,Newcomerstown | Kek ke la muk paechung | Kekaelemapaechunk | Kekelamukpechen | Kakelamukpechung,,
Gekelemukpechunk Creek,[],,,,,Stillwater Creek,H,
Gekelemukpechunk Delaware Center,"['Kekelemukpeachunk', 'Kikeelmukpechunk']",,OH,,,Newcomerstown,,
Genesee,[],,NY,,,,,
Genesee River,"['Chennessee', 'Tscheneshee']",,NY,,,,H,
Geneseo,[],,,,,,,
Geneseo,"['Zoneschio', 'Zonesschio']",051,NY,,,,,
Genessie River,['Chenessie'],,NY,,,near Rochester,H,
Geneva,[],069,NY,,,,,
Georgetown,[],,,,,District of Columbia,,
Georgetown,[],007,PA,,,,,
Georgetown Road,[],,,,,,,
Georgia,[],,GA,,,,,
Germantown,[],,PA,,,,,
Germantown,[],,,,,Pennsylvania,,Montgomery County
Germany,[],,,DE,,,,
Getgatain,[],,,,,,,
Gigeijunk,['Maumee'],,IN,,,Fort Wayne | town at the Forks of Miami River,,
Gigeyjunk,[],,IN,,,Fort Wayne,,
Gigeyunk,['Fort Wayne'],,,,,,,
Gigeyunk Fort Wayne,['Kikeyunk'],,IN,,,,,
Ginhanschicanunk,[],,,,,,,
Glade Country,[],,PA,,,,,
Glades Road,[],,PA,,,,,
Glass House,['?'],,,,,Highlands New York,,
Gnadenfroi,[],,,DE,,,,
Gnadenhuegel,[],,,,,part of Gnadenhutten settlement,,
Gnadenhutten,['White settlement'],157,OH,,,,,
Gnadenhutten,['Old Gnadenhutten'],,PA,,,Mahony & Lehigh River | on Mahony Creek,,
Gnadenhutten,['M.'],,OH,,,on Muskingum River,,
Gnadenhutten,[],,MI,,,River | or Clinton | on Huron,,
Gnadensee,[],,CT,,,County | Litchfield | Wechquatnach Lake | Indian Pond,,
Gnadenth also,[],,,,,,,
Gnadenthal,[],,PA,,,near Nazareth & Nazareth | modern Gracedale,,
Gnadenwinkel,[],,,,,on Gnadenhutten tract,,
Gokhosing,[],,OH,,,place in Ohio,,
Goschachging,[],,,,,,,
Goschachgunk,"['Goschachking', 'Goschaching', 'Coschachkung']",,OH,,,Coshocton & Coshocton | Delaware Town on Muskingum River,,
Goschgosching,[],,,,,,,
Goschgoschunk,[],,,,,,,
Goschgoschunk,"['Coschkoschingk', 'Coschcoschingk', 'Kuschkusching']",121,PA,,,Munsee Town on Allegheny River,,
Goschgoschunk on Allegheny River,['Coschcoshing'],,PA,,,,H,
Goschschossunk,[],,OH,,,place in Ohio | Goschschossink,,
Goshen,[],,NY,,,,,
Gothenburg,[],,,SE,,,,
Grace Half,['Fulneck'],,,,,England | Yorkshire,,
Graceham,[],,MD,,,,,
Gracehill,['Gnadenhugel'],,,IE,,,T,
Grand River,[],,OH,,,,H,
Grand River,['Schwago'],,08,,,,H,
Grand River,[],,OH,,,Cuyahoga River,H,
Granville,[],089,OH,,,,,
Great Beaver Creek,[],,,,,,H,
Great Creek,"['Ohio River', 'Lehigh River']",,,,,,H,
Great Island,[],,OH,,,above Marietta | at mouth of Muskingum River,,
Great Island,[],035,PA,,,in West Branch Susquehanna River & below Lock Haven | West Branch Susquehanna,,
Great Island,[],,,,,,,
Great Lake,[],027,NY,,,,,
Great Lakes,"['Laks', 'Lacks']",,,,,,,
Great Miami,[],,OH,,,,,
Great Miami River,[],,,,,,H,
Great Nine Partners Tract,[],027,NY,,,,,
Great Shawnee Town,[],,,,,,,
Great Swamp,[],089,PA,,,,,
Green Bay,[],,WI,,,,H,
Green County,[],,PA,,,,,Green County
Greenland,[],,,GL,,,,
Greensburg,[],129,PA,,,,,
Greentown,[],,OH,,,near Mansfield | Sambesink | Penexit's Town | also Armstrong's Town,,
Greenville,[],037,OH,,,,,
Greenwich,[],,CT,,,County | Fairfield,,
Greenwich,[],115,NY,,,,,
Grosse Isle,[],,MI,,,Detroit River,,
Guernsey County,[],059,OH,,,,,
Guinea,[],,,GN,,West Africa,,
Gulf of Lawrence,[],,,,,,H,
Hackientachous Creek,['modern Hokendaugua Creek'],,PA,,,County | Northampton | also Wilson's Creek,H,
Hagerstown,[],,MD,,,,,
Hallobank,"['Hallabank', 'Hallapank', 'Phallobank', 'Phallapank']",,,,,Cayuga Town north of Wyalusing,,
Hamilton,[],,OH,,,,,Hamilton
Hamilton's Mill,[],,IN,,,,,
Hamilton's Mills,[],,,,,,,
Hannastown,[],,PA,,,,,
Harris' Ferry,"[""also Harrison's Ferry""]",,PA,,,Harrisburg,,
Harrisburg,[],,PA,,,,,
Harrison's Ferry,"['Harrisburg', 'Pennsylvania']",,PA,,,Harrisburg | Harris Ferry,,
Harsen's Island,[],,MI,,,mouth of St. Clair River,,
Hartford,[],,CT,,,,,
Havanna,['Awanna'],,,,,,,
Hebron,[],075,PA,,,,,
Heerandyk,[],,,,,Holland,,
Heidelberg,[],011,PA,,,,,
Heller's Tavern,[],,,,,,,
Helltown,[],,OH,,,Walhending River,,
Hernhag,[],,,DE,,,,
Herrnbaag,[],,,DE,,,,
Herrnhut,[],,,DE,,,,
Hessen-Kassel,[],,,DE,,,,
Hickory Tavern,[],,NJ,,,,,
High Lands,[],,NY,,,Orange and Putnam Cos.,,
Hockhooking Creek and Town,['Kockhocking'],,,,,,H,
Hocking River,[],,,,,tribut. of Ohio River,H,
Hokendaugua Creek,[],095,PA,,,,H,
Hokhokunk,['probably Hockhocking'],,,,,,,
Holland,[],,,,,,,
Holsbon River,[],,TN,,,,H,
Honeywint,[],,,,,,,
Hope,[],,NJ,,,,,
Hope,[],,NC,,,,,
Hope,['Hoop'],,,SR,,,,
Hope's Cove,['South?'],,,,,Lake Erie & Lake Erie | anchoring place on Bass Island,,
Hopedale,[],,,,,Labrador,,
Horn River,['Eskenne'],,,,,,H,
Horseshoe Fall,[],,08,,,Niagara River,,
Housatonic River,[],,CT,,,,H,
Hudson,[],153,OH,,,,,
Hudson,[],,,,,,,
Hudson Bay,[],,,,,,H,
Hudson River,['North River'],,NY,,,,H,
Humber River,[],,08,,,,H,
Hunt's Ferry,[],131,PA,,,Falls,,
Hurley,[],111,NY,,,,,
Huron Point,['Clinton'],,MI,,,mouth of Huron River,S,
Huron River,['Petquotting River'],,,,,O,H,
Huron River,['Petquotting'],163,MI,,,at Detroit River estuary & O & now Clinton River,H,
Huron River,"['al', 'Petquotting']",,OH,,,,H,
Huron River,['Clinton'],,MI,,,,H,
Huron River Macomb County,['Clinton River'],,MI,,,,H,
Huron Straits,['Straights'],,08,,,near mouth of St. Clair River,,
Hutberg,[],,,DE,,hill near Herrnhut,,
Illinois,[],,IL,,,,,
Illinois River,[],,,,,,H,
Indiana Territory,[],,,,,,L,
Industry,[],,OH,,,place on Mahony Creek,,
Irish settlement,[],,,,,probably Indiana,,
Irish settlement,[],095,PA,,,Allen Township,,
Islington,[],,,,,England,,
Jack Creek,[],,PA,,,possibly Youghidgheny River,H,
Jackson's Tavern,[],,NY,,,place between Goshen and Kingston,,
Jacob's Heights,['Jacobshuh'],097,PA,,,Lower Augusta Township,,
Jahannis Ruh,[],,PA,,,Carbon or Luzerne County,,
Jamaica,[],,,JM,,West Indies,,
Jefferson County,[],081,OH,,,,,
Jena,[],,,DE,,,,
Jenky Hall,[],,,,,Detroit,,
Jequaminische,[],,,,,,,
Jerome's Town,[],,,,,Ohio,,Ashland County
Jersey,['The Jerseys'],,,JE,,,,
Johnson's Hall,[],,NY,,,north side of Mohawk River | place between Fort Hunter and Fort Plain,,
Johnson's Harbor,"['probably Kuckville', 'New York']",,,,,,,
Jongquakamik,[],,,,,,,
Jongquakamik Landing,[],,08,,,,,
Jongquakamik River,['East Sydenham'],,08,,,,H,
Juniata Crossings,[],009,PA,,,,,
Juniata River,[],,PA,,,Tachochniato,H,
K'takanstschau,[],027,NY,,,the Big Mountain,,
Kaek ke la muk paechung,[],,,,,Town and Creek | Kekelamukpechung | Kekelamukpechen,,
Kajakistown,[],,08,,,,,
Kanawha River,['Canhawa'],,WV,,,,H,
Kanawha River West Virginia,['Kashaway'],,,,,,H,
Kaniseraga,[],051,NY,,,Ganaeraga Creek,,
Kantanienberg,[],,,,,,,
Kaschkaschkung,['Kaschkaschkunk'],,,,,,,
Kaschkaskung,[],,,,,,,
Kaskaskunk,[],,,,,,,
Kaskaskunk,"['Kaskaskung', 'Kaschkaskung', 'Kaschkaschkunk']",073,PA,,,Munsee Town on Beaver River,,
Kaskaskunk Lawrence County,"['Kaskaskung', 'Caskaskung', 'Coschcaskung on Beaver River']",,PA,,,,,
Kaunaumeek,"['Kenumeck', 'Cenemek']",021,NY,,,Nassau Township,,
Kaunschannek,['Kawunschhannek'],,,,,,,
Ke-kek-ton long timber,['Mohawk'],,,,,,,
Kekelemukpechunk,[],,,,,,,
Kent,[],005,CT,,,,,
Kentucky,"['Kentuk', 'Kentuke']",,KY,,,,,
Killbuck Creek,[],075,OH,,,,H,
Kinderhook,[],021,NY,,,,,
King's Bridge,[],,,,,New YorkC | Harlem River,,
King's Island,['Grosse Ile'],,MI,,,,,
Kingston,"['Esopa', 'Sopus']",,08,,,N.Y,,
Kingston New York,['Esopus'],,,,,,,
Kinhanschican,[],,OH,,,Mingo Town in Ohio,,
Kitanesink,[],,,,,,,
Kitigan,[],,08,,,Chippewa town,,
Kitiganesink,['in the garden'],,,,,,,
Kittannuk,[],,PA,,,Kittanning,,
Kittatinny,"['al', 'Middle Mountain', 'Kittetani']",055,PA,,,,,
Kittatinny Hills,['Blue Mountains'],,PA,,,,T,
Koachachkunk,[],,,,,,,
Koenigsberg,[],097,PA,,,,,
Kondal,[],,OH,,,probably Tuscarawas County,,
Konigsfeld,[],,,DE,,,,
Ktukquiminschi,['Black Walnut'],,PA,,,Erie | town near Presqu'isle,,
Kui-lu-ta-men,['Delaware'],,,,,Place of surprise,,
Kuschkusching,[],,,,,,,
Labrador,[],,,,,Terra,,
Lac,['also Long Lake'],,NY,,,Poponming Pond Monroe County,,
Lackawanna River,[],,PA,,,,H,
Lahalawoaskute,[],,,,,Sipung Creek,,
Lake,['Poponoming'],,,,,,,
Lake Erie,"['Lake', 'Lack', 'Lac']",,,,,,,
Lake George,[],113,NY,,,,,
Lake Huron,[],,,,,,,
Lake Michigan,[],,,,,,,
Lake Ontario,['Dundas'],,,,,,,
Lake St. Clair,['Sinclair'],,,,,,,
Lake Superior,[],,,,,,,
Lakes Erie and Ontario,[],,,,,,,
Lancaster,[],,PA,,,Pennsylvania? | Massachusetts? & Moravian place,,
Lancaster,[],045,OH,,,,,
Lancaster County,[],071,PA,,,,,
Langundo-Utenunk,[],,,,,,,
Langundo-Utenunk,[],073,PA,,,Friedenstadt | Beaver River,,
Langundo-Utenunk Friedenstadt,['Langunto-Utenunk'],,,,,,,
Languntouteney,[],,,,,,,
Laramie Creek,[],149,OH,,,,H,
Laurel Hill,[],,PA,,,Westmoreland and Somerset County,T,
Lawunakhannek,[],,PA,,,Allegheny River,,
Lechawachnek,"['Lechawachneck', 'Lechawachnick', 'Lechawaneck']",,PA,,,Lackawanna,,
Leek Island,[],,,,,Delaware River,,
Lees Creek,[],,OH,,,Fayette and Highland County,H,
Leh-cha-week,['Delaware'],,,,,,,
Leh-cha-wi-tank,['Delaware'],,,,,,,
Leh-oha-wa-hen-neek,['Delaware'],,,,,the Forks,,
Lehigh River,['Lecha'],,PA,,,,H,
Lehigh River Falls,[],025,PA,,,,H,
Lehigh Watergap,[],,PA,,,,,
Leipzig,[],,,DE,,,,
Lemachtschesink,[],,IN,,,tributary of Wabash River | also Mississinnawa,,
Lichtenau,[],,OH,,,on Muskingum River,,
Licking,['Zanesville'],119,OH,,,,,
Liegnitz,[],,,DE,,principality,,
Ligonier,[],,PA,,,,,
Limestone,[],161,KY,,,Maysville,,
Litchfield,[],005,CT,,,,,
Lititz,[],,PA,,,Moravian Center,,
Little Beaver Creek,[],,OH,,,,H,
Little Falls,[],043,NY,,,,H,
Little Lake,[],,,,,,,
Little Lehigh Creek,[],077,PA,,,,H,
Little Miami River,[],,OH,,,,H,
Little Nine Partners Tract,[],027,NY,,,,,
Little Schuylkill River,[],,PA,,,,H,
Little Stillwater Creek,[],,OH,,,Tuscarawas and Harrison County,H,
Little Yellow Creek,[],,PA,,,,H,Columbiana County
Locust Point,[],123,OH,,,,S,
Locust Point Ottawa County,['called Honey Locust Point'],,OH,,,,S,
London,[],,,,,England,,
Long Island,[],081,PA,,,West Branch of Susquehanna,,
Long Island,[],,NY,,,,,
Long Island Sound,[],,,,,,,
Long Island. New York,[],,,,,,,
Long Point,[],,08,,,,S,
Long Swamp,[],011,PA,,,,,
Louisburg,[],,07,CA,,Cape Breton,,
Louisiana,[],,LA,,,,,
Lovalhanning,[],129,PA,,,,,
Lower Cayuga Town,['Kajugu'],,08,,,Grand River,,
Lower Sandusky,"['St. Dusky', 'Fremont']",,OH,,,Fremont,,
Lower Saucon Township,[],095,PA,,,,,
Lower Scatticok,[],,,,,,,
Lower Shawnee Town,[],,,,,,,
Lower Smithfield Township,[],095,PA,,,,,
Ludwig's Ruh,[],107,PA,,,,,
Luzerne County,"['Wajomick', 'Wajomik']",079,PA,,,,,
Machchilusing,['also Machchihillussunk'],015,PA,,,Waylusing,,
Machchilusing,[],,,,,,,
Machilusing,"['Machelusing Machwihilussunk', 'Wichlusing', 'Wichloosing', 'Wichilusing', 'Wihilusing', 'Wialusing', 'Wyalusing']",,,,,,,
Machilusing Creek,[],,,,,,H,
Machswoamik,['also Machawomick'],,,,,,,
Mackinaw City,['Makina'],,MI,,,,,
Macungie,['also Maguntsche'],,,,,,,Lehigh County
Mahican Lake,[],,OH,,,,,
Mahican Town,[],107,OH,,,near Heckford | St. Marys River & Maumee River,,
Mahican Town,[],,08,,,Grand River,,
Mahong,[],,,,,,,
Mahoning Creek,['Mahony'],,PA,,,Pa & Ohio between Ravenna and Canfield,H,
Mahoning Creek Carbon County,['Mahoni'],,PA,,,,H,
Mahony,[],,,,,,,
Mahony,['Mahoni'],073,PA,,,Munsee Town on Allegheny River & place on Beaver Creek,,
Mahony Creek,[],,PA,,,emptying into Beaver River,H,
Mahony River,['Mahoning'],025,PA,,,,H,
Makkinak,"['Mackinaw City', 'Michigan']",,,,,,,
Malden,['also Fort Malden'],,08,,,,,
Malden. Ontario,[],,,,,,,
Manachningk,[],,,,,,,
Manheim,[],071,PA,,,,,
Manor Land,['Conestoga Manor'],071,PA,,,Manor Township,,
Marbletown,[],111,NY,,,,,
Marienborn,[],,,DE,,,,
Marietta,[],,,,,,,
Marietta,[],167,OH,,,,,
Maryland,[],,MD,,,,,
Maschapinck Creek,"['Maschaping', 'Maschapunk']",,,,,,H,
Massachusetts,[],,MA,,,,,
Massass Town,[],,OH,,,,,
Massassung,[],015,PA,,,Wyalusing Township,,
Massch-piuk,['Delaware'],,,,,Wonderful Water,,
Maumee Bay,['Miami'],,,,,also Tawa Bay,H,
Maumee Point,[],,MI,,,place on north side of Maumee Bay,S,
Maumee River,"['Miami', 'often called Miami', 'Great Miami', 'Miami of the Lake', 'Tawa River']",,OH,,,O,H,
Meamkekak,[],,OH,,,Great Shawnee Town,,
Meemkekak,[],,,,,,,
Melelagamogak,[],,,,,,,
Memekasing,[],,OH,,,Munsee Town,,
Meniolagomeka,[],089,PA,,,Mission place,,
Menissing,[],103,PA,,,,,
Menissing,[],,PA,,,Lacawanna County,,
Menissing Lacawanna County,"['also Menissing Town', 'Munsee Town']",,PA,,,,,
Mennesing,[],,,,,Pennsylvania and New Jersey | place on Delaware River,,
Mensing,[],,,,,,,
Meschascungk,[],,,,,,,
Meschascungk on Susquehanna River,"['Meschaschcung', 'Mesaskung', ""M'schaschcung"", ""M'saschkung"", 'Mesachkung']",,PA,,,,H,
Meshcascungk,[],,,,,,,
Mesheppen Creek,['Meshopping'],131,PA,,,,H,
Mexico,[],,,MX,,,,
Miami Bay,['Maumee'],,,,,,H,
Miami River,"['Great Miami', 'Maumee', 'Great Niami']",,OH,,,Ohio-Indians & Ohio-Indiana & Great Miami River | also Unami,H,
Miami Towns,['Maumee'],,IN,,,,,
Michigan,[],,MI,,,,,
Michilimakinac,[],,,,,,,
Michillimakinac,[],,MI,,,,T,
Michler's Tavern,[],,,,,,,
Middle Mountain Franklin County,['also Kittanning Mountain'],,PA,,,,T,
Middletown,['Middle Town'],043,PA,,,,,
Mifflin County,[],087,PA,,,,,
Mihillusing,[],,,,,Wyalusing. Pennsylvania,T,Bradford County
Milford,['Old Milford'],009,CT,,,,,
Milk River,[],,MI,,,,H,Milk River
Mineral Spring,[],025,PA,,,Gesundbunnen,,
Mingee Town,[],,,,,Sandusky River,,
Mingo Town,[],,,,,Ohio River,,
Minisink,[],,PA,,,Upper Delaware River,,
Minnissing,[],,,,,Minissink,,
Miskanika,[],,,,,,,
Mississinnawa,[],,IN,,,tributary of Wabash River | also Lemachtschesink,,
Mississippi River,[],,,,,,H,
Mississippi River and area,[],,,,,,L,
Mississippi Territory,[],,,,,,L,
Missouri River,[],,,,,,H,
Mittesagi,[],,08,,,also Warpoles,,
Moch-a-weam-ing,['Delaware'],,,,,where water runs through large clear flats,,
Mocheslachpisisink,[],,,,,,,
Mochkawunke,[],,,,,tributary of Allegheny River,,
Mochwesung,['Mochwessung'],,OH,,,Munsee town on Muskingum River,,
Moden Creek,[],,,,,,H,
Mohanatony,['Mohanatoney'],,PA,,,,,
Mohawk River,[],,NY,,,,H,
Mohawk town,[],,08,,,Brantford | Brand's Town,,
Mohawk village,[],,08,,,Brandt's Town near Brantford,,
Mombaccus,['Monbacos'],111,NY,,,Rochester Township,,
Monnuhhuhtounuk,[],,,,,,,
Monocacy Creek,[],,PA,,,,H,
Monocacy River,"['Manakosy', 'Manakosi']",,MD,,,,H,
Monongahela,"['Monongahela', 'Monongahala']",,,,,,,
Monongahela Hill,[],,,,,,T,
Monongahela River,[],,PA,,,,H,
Montgomery County,[],091,PA,,,,,
Montmirail,[],,,CH,,,,
Montreal,[],06,10,CA,,,,
Mooch-han-nook,['Delaware'],,,,,Large River,,
Moravia,[],,,,,,,
Morgantown,[],,WV,,,,,
Morristown,[],,NJ,,,,,
Morristown,[],013,OH,,,,,
Moscow,[],,,RU,,,,
Mount Joy,[],071,PA,,,,,
Mount Pleasant,[],081,OH,,,,,
Mount Rock,[],041,PA,,,,,
Muddy Creek,['Moden Creek'],,,,,Pa,H,Lancaster County
Muncey,[],,08,,,Thames River,,
Muncie,[],035,IN,,,,,
Munsee Town,['Moncy'],,OH,,,near Lower Sandusky & Petquotting River & Sandusky River,,
Munsee Town,['Muntzy'],,08,,,on Thames River above Fairfield & Thames River,,
Munsee town,[],,08,,,Grand River,,
Musconetcong,['Miskanika'],,NJ,,,River and Mountain,,
Muskingum,[],,OH,,,River and area,,
Muskingum Camp,[],,,,,,,
Muskingum River,[],,,,,,H,
Muskingum River and Country,['Muschkingum'],,OH,,,,H,
Nain,[],,PA,,,near Bethlehem & Labrador & Bethlehem,,
Nanticoke,['Nanticoke Town'],079,PA,,,,,
Nanticoke Town,[],079,PA,,,,,
Nanticoke Town,[],,,,,,,
Narrows,[],031,NY,,,south end of Lake Champlain | The,,
Natowesibi,"['Petquotting', 'Natewssibi']",,OH,,,Chippewa name for Huron River,,
Nazareth,[],,PA,,,,,
Nazareth Hall,[],,,,,,,
Negausibis,[],,08,,,Aux Bables | Sand River,,
Negro Town,[],,,,,Ohio near Upper Sandusky,,
Nenachquejank,[],,08,,,Bay on Lake St. Clair,,
Nescopeck,[],,PA,,,,,
Nescopeck,"['Neeskipecky Neschopega', 'also Neskopeke', 'etc.', 'Neskopeko', 'Nessgabeke']",079,PA,,,,,
Neshaminy,['New Shammony'],017,PA,,,,,
Neu Tupeeking,[],,,,,,,
Neu-Herrnhuth,[],,,GL,,,,
Neusals,[],,,DE,,,,
Neuwied,[],,,DE,,,,
New Connecticut,[],,,,,,,
New England,[],,,,,,,
New Fairfield,[],001,CT,,,,,
New Fairfield,[],,,,,,,
New France,[],,,,,,,
New Hampshire,[],,NH,,,,,
New Haven,[],,CT,,,,,
New Jersey,"['the Jerseys', 'Brunswick', 'Brownschweig', 'The Jerseys', 'Braunschweig', 'also East Jersey']",,NJ,JE,,,,
New Jersey,[],,NJ,GL,,later called Hope,,
New Lancaster,[],045,OH,,,Lancaster,,
New Lisbon,[],029,OH,,,Lisbon,,
New London,[],,CT,,,,,
New London County,[],011,CT,,,,,
New Milford,[],005,CT,,,,,
New Niagara,[],,,,,,,
New Orleans,[],,LA,,,,,
New Philadelphia,[],,OH,,,,,
New Purchase,[],,PA,,,area in north-west Ohio,,
New River,[],,WV,,,,H,
New River,[],,VA,,,,H,
New Salem,[],157,OH,,,,,
New Salem,[],043,OH,,,,,
New Salem,[],,,,,,,
New Shammony,[],,,,,,,
New Spain,[],,,,,,,
New Stockbridge,[],,NY,,,Christian Mahican settlement,,
New Town,[],017,PA,,,,,
New York,[],,NY,,,,,
New York City,[],,,,,,,
New York State,[],,,,,,,
Newark,[],,,,,,,
Newark on Niagara River,[],,08,,,,H,
Newcomerstown,[],,OH,,,see Gekelemukpechunk,,
Newell,['Newelstown'],051,PA,,,,,
Newfoundland,[],,,,,,,
Newtown,[],001,CT,,,,,
Newtown,['Newton'],,NY,,,site of Elmira,,
Neyachquoank,[],,,,,near St. Clair River,,
Niagara,[],,NY,,,,,
Niagara Falls,[],,,,,,H,
Niagara Hill,[],,,,,,T,
Niagara-on-the-Lake,['Niagaratown'],,08,,,,,
North Bend,[],061,OH,,,,,
North Branch,[],,NY,,,,,
North Branch,[],,NJ,,,,,
North Carolina,[],,NC,,,Wachau,,
North River-Hudson River,[],,,,,,H,
North Western Territory,[],,,,,,L,
Northampton County,[],095,PA,,,,,
Northumberland,[],,PA,,,,,
Nottingham,[],071,PA,,,,,
Nova Scotia,[],,07,,,,,
Nuelstown,['?'],013,OH,,,,,
Oakorchard Harbor,[],,NY,,,,,
Oblong,[],,,,,New York-Connecticut,,
Ohio,[],,OH,,,State,,
Ohio Falls,[],,OH,,,,H,
Ohio Hill,[],007,PA,,,,T,
Ohio River,[],,,,,,H,
Ohio River and area,['Allegheny'],,,,,,L,
Oil Creek,['Cances'],121,PA,,,,H,
Oil Creek,['Canoos'],,NY,,,,H,
Okak,[],,,,,Labrador,,
Okkak,[],,,,,Labrador,,
Old Beaver Dam,[],,,,,,,
Old Chillicothe,[],129,OH,,,,T,
Old Mexico,[],,,,,,,
Old Pennsylvania Road,[],,,,,,,
Old Sandusky Town,[],,,,,,,
Oley,[],,,,,,,
Oley,[],011,PA,,,,,
One Leg Creek,['Gotgatsin'],,OH,,,Tuscarawas and Carroll County,H,
Oneida,[],,NY,,,town east of Oneida Lake,,
Oneida Lake,[],,NY,,,,,
Onengo,['French Creek'],121,PA,,,Venango River,,
Onengo,['Venango'],,,,,,,
Onengo Creek and surrounding area,"['French Creek', 'Venango']",121,PA,,,,L,
Onengo River,[],,PA,,,French Creek,H,
Onondaga,['Onondago'],067,NY,,,capital of Iroquois Federation & Syracuse | Iroquois capital,,
Onondaga New York,['Onondago'],,,,,,,
Onondaga Town,['Onondago'],,08,,,Grand River,,
Ontario,[],,08,,,Town and Township & Thames River,,
Oochgelogy,[],,GA,,,,,
Opest,[],,IN,,,Au Poste du Ouabeche Vincennes,,
Oquaga,[],,NY,,,Broom County | Ouaquaga,,
Orford,[],,,,,Ontario. Gegoraphic Names,,
Ostonwakin,[],,,,,Pennsylvania Gegoraphic Names,,
Ostonwakin . Montoursville,"['also Otztonwakin', 'Otstunwachko', 'Oshttonwsko', 'etc.']",,PA,,,County | Lycoming,,
Ostonwakin Creek,['also Oztonwake'],,,,,Pennsylvania Gegoraphic Names | Loyalsock Creek,H,Lycoming County
Oswego,[],,,,,New York Gegoraphic Names,,Oswego County
Oswego,['Ohsweken'],,08,,,possibly Mingo place near Grand River,,
Oswego,[],,NY,,,New York Gegoraphic Names,,
Oswego Falls,[],,,,,New York Gegoraphic Names,H,
Oswego River,[],,,,,New York Gegoraphic Names,H,
Otaheite. Gegoraphic Names,[],,,,,,,
Otsinachson,[],,,,,West Branch. Gegoraphic Names | above Susquehanna,,
Ottawa Channel,[],,,,,,,
Owego,[],,,,,,,
Owego,['Oweke'],107,NY,,,,,
Owego River,[],,NY,,,,H,
Owenachki,[],,IN,,,White River | Hackingpomaka's Town,,
Owl Creek,[],,,,,Kekesing | possibly Gokhesing,H,
Oxford,[],,08,,,,,
Oxford Township,[],,08,,,,,
Pachgatgoch,['Pachgatgoko'],,CT,,,Moravian mission place,,
Pachgatgoch Hill,[],005,CT,,,,T,
Pachqueick,[],,CT,,,near Pachgatgoch,,
Pacific Coast,[],,,,,,H,
Pacific Islands,[],,,,,,,
Pacific Ocean,['the Great South Sea'],,,,,,H,
Pagetschiwomunk,[],,08,,,town at mouth of Chenaie ecartee,,
Paint Creek,"['probably Vermilion River', 'Ohio']",,,,,,H,
Paint River,[],,,,,Wulamanink,H,
Painted Post,[],101,NY,,,,,
Palatinate,[],,,,,The,,
Pamballineke Creek,['possibliy Meigs Creek'],115,OH,,,,H,
Papunhank's Town,[],,,,,Susquehanna Valley,,
Partners,[],,,,,Second Nine,,
Passekachkungk,['Passikachkunk'],,NY,,,place on Canisteo River,,
Patotiqueja River,"['probably North Sydenham River', 'Patotiquejaak']",,08,,,,H,
Patowmak,[],,,,,,,
Paxtang,"['also Paxton', 'Paxton', 'Paxtown']",043,PA,,,,,
Peeks Kill,['Bikskill'],119,NY,,,,,
Pemakxit's Town,[],,,,,,,
Pemidhannek,['Zoneschio'],,NY,,,Delaware name of Genessee River,,
Pennsbury Manor,['Pennsbury'],017,PA,,,,,
Pennsylvania,[],,PA,LB,,Susquehanna,,
Pentahametachquanunk,[],,,,,,,
Perth Amboy,[],,NJ,,,,,
Petqualach,[],,PA,,,town on Upper Allegheny River,,
Petquattunk,['Pettquotting'],,OH,,,Huron River,,
Petquotting,[],,,,,Indian town,,
Petquotting Creek,['Huron River'],,OH,,,,H,
Petquotting Hill,[],,,,,,T,
Petquotting River,['Huron River'],,,,,,H,
Phallobank,['Phallapank'],,,,,,,
Philadelphia,[],,PA,,,Barracks,,
Philadelphia--Pottersfield,[],,,,,,,
Philip's Mill,[],,NY,,,east of Hudson River,,
Philipsburg,[],,NJ,,,,,
Pickaway,['town'],,OH,,,,,
Pickaway Plains,[],129,OH,,,,,
Pigeon Roost,[],,,,,place near Blanchard River,,
Pilgermouth,[],,PA,,,,,
Pinery,[],,08,,,place on Thames River,,
Pipe Creek,[],043,OH,,,,H,
Pipe's Town,[],,,,,,,
Pittsburg,['Fort Pitt'],,PA,,,,,
Pittsburg Pennsylvania,[],,,,,,,
Pittsburgh,['Fort Pitt'],,PA,,,,,
Plains,[],,,,,,,
Pohopoco Creek,"['also Puchgapuchga', 'Puchkepuch', 'Puchquapuchque', 'Buggaguchga', 'Bugabuga', 'etc.']",,PA,,,Monroe and Carbon County,H,
Point Aux Chenes,['Point du Chene'],,MI,,,on St. Clair River,S,
Point Pleasant,[],,WV,,,Hasen County,S,
Point au Tremble,[],,,,,Michigan north of Denke's mission | place on St. Clair River,S,
Point de Plea,[],,,,,,S,
Pommern,[],,,DE,,Swedish,,
Popooming Pond,[],,,,,Lac | also Long Lake,,
Post Vincennes,['Post Vincent'],,,,,,,
Potatick,[],001,CT,,,,,
Potatik,[],,CT,,,,,
Potomac River,"['Petowmac', 'Patomick']",,,,,,H,
Potoman River,[],,,,,,H,
Poughkeepsie,[],027,NY,,,,,
Presqu' Isle,['Prisqueisle'],,PA,,,Erie,,
Presqu'isle,[],,PA,,,Erie,,
Princeton,['Prinstown'],,NJ,,,,,
Province Island,[],,PA,,,Philadelphia & Philadelphia,,
Puchcapuch,['Puchkapuchka'],,,,,,,
Put in Bay,['Pudding Bay'],,,,,Ohio Georgraphic Names | Lake Eire,H,
Quage Town,[],,08,,,Grand River,,
Quahen,[],,,CA,,,,
Quaker Hill,[],,CT,,,,T,
Quebec,[],,10,CA,,,,
Quechquetank,['Wechquetenk'],089,PA,,,,,
Queenston,['Queenstown'],,08,,,,,
Quelutumen,[],,PA,,,place on Susquehanna River,,
Quenischachachgeek,[],,,,,,,
Quenischachchachchqueh,[],,,,,,,
Quenischachchachqueh,[],081,PA,,,West Branch | Susquehanna,,
Quitahannek Creek,[],,OH,,,Richland or Ashland County,H,
Quittoppehille,[],,PA,,,Lebanon,T,
Race Hill,[],,,,,,T,
Raisin River,"['Reason', 'Raisen', 'Rissin']",,MI,,,,H,
Rapide,[],,08,,,probably on Jongquakamik River,,
Rapids,[],,OH,,,probably Grand Rapids | Maumee River,,
Ravenna,[],,OH,,,,,
Rays Hill,['Race Hill'],009,PA,,,,T,
Reading,[],,PA,,,,,
Red Hook,[],027,NY,,,,,
Redding,[],001,CT,,,,,
Redstone,[],,PA,,,now Bedford | probably Rays Town,,
Retrenche River,['Thames'],,08,,,same as Thames River,H,
Rheimstown,[],,PA,,,probably in Pennsylvania,,
Rhine River,[],,,DE,,,H,
Rhinebeck,['Reinbeck'],027,NY,,,,,
Rhode Island,[],,RI,,,,,
River Rouge,"['Reuche', 'River Bush']",,MI,,,,H,
Rixdorf,['Rucksdorf'],,,DE,,,,
Rockills Mill,[],,,,,,,
Rocky Hill,[],,NJ,,,,T,
Rocky Point,[],123,OH,,,presumably Scott Point & 16 miles from Sandusky | probably Scott Point,S,
Rocky River,[],035,OH,,,,H,
Rolof Janssens Kill,[],021,NY,,,,,
Ronchey's Tavern,"[""Runchey's""]",,,,,,,
Ronneburg,[],,,DE,,,,
Rose,[],,PA,,,Nazareth | The,,
Rowlya Creek,[],005,CT,,,,H,
Rush Creek,[],045,OH,,,,H,
Saddle,[],,,,,,,
Saginaw,"['Sackina', 'Sakina']",,MI,,,,,
Sakapochk,[],,PA,,,,,
Sakechnak Creek,[],025,PA,,,,H,
Sakechnak Creek Carbon County,"['also Sankechnank', 'Sakekenack', 'Sankinghnack', 'Sankegenahk', 'Sanschanachke', 'etc.']",,PA,,,,H,
Sakunk,['Gakung'],,PA,,,on Big Beaver Creek & place at the mouth of Beaver Creek & place at confluence of the Beaver River with the Ohio,,
Salem,[],143,OH,,,,,
Salem,[],157,OH,,,Muskingum River,,
Salem,[],,NC,,,North Carolina Moravian center,,
Salem,[],,OH,,,,,
Salisbury,[],,CT,,,,,
Salisbury,[],111,PA,,,,,
Salisbury,[],005,CT,,,,,
Sally Hand,[],,,,,,,
Salmons Creek,[],,NY,,,between Genessie River and Sodus Point | Lake Ontario,H,
Salt Creek,[],119,OH,,,,H,
Salt River,[],,MI,,,west side of Lake St. Clair | Siwatakanisipi,H,
Salt Spring,"['Salineville', 'Ohio?']",,,,,,,
Saltlick,[],,,,,not far from Goshen,,
Sambesink,"['Armstrongtown', 'Sambeing']",,OH,,,near Mansfield | Greentown,,
Sandusky,[],,OH,,,River and town,,
Sandusky Bay,"['St. Deske', 'Little Lake']",,OH,,,,H,
Sandusky Island,[],,,,,,,
Sandusky Plains,[],,OH,,,,,
Sandusky Point,[],,OH,,,,S,
Sandusky River,['St. Dusky River'],,OH,,,,H,
Sandwich,[],,08,,,,,
Sandy Creek,[],,OH,,,,H,
Saratoga,[],,NY,,,,,
Sarepta,[],,,RU,,on Volga River,,
Sasena,[],,,,,,,
Satked,[],005,CT,,,,,
Saucen,"['Saucena', 'Sacena']",077,PA,,,,,
Sax's Tavern,[],,,,,,,
Saxony,[],,,,,,,
Scatticock,[],,CT,,,,,
Scattigok,['Scattacook'],,CT,,,,,
Scha-mung,['Delaware'],,,,,horn,,
Schammungk,[],,,,,Schommunk,,
Schatticock,"['Shattegock', 'Shattigok', 'Shattegook', 'Skattegock', 'Skatchkock']",083,NY,,,,,
Schatticook,[],,NY,,,,,
Schechschequannink Bradford County,['Tschechschequannink'],,PA,,,,,
Schechschequanunk,[],,PA,,,place on Susquehanna,,
Schechschiquanunk,[],,,,,,,
Schechschiquanunk on Susquenanna River,['Schechaschequani'],,,,,Pennsylvania Geographic Names,H,Bradford County
Schecomeco,[],,,,,,,
Schenechtady,[],,NY,,,,,
Schenechten,[],,,,,,,
Schenectady,['Schenechten'],,NY,,,,,
Schih-shi-quan-nink,[],,,,,,,
Schkipoakanink,[],,08,,,place on Schneyecarty,,
Schneycarty,[],,,,,,,
Schoharie,"['Schochcheri', 'Schochery', 'also Sgochari', 'Schochari']",,NY,,,,,
Schoharie New York,['Schocharie'],,,,,,,
Schonbrunn,[],,OH,,,on Muskingum River,,
Schoneck,[],,PA,,,,,
Schuylkill River,[],,PA,,,,H,
Schwego,[],,08,,,Grand River,,
Scioto River,['Sioto'],,OH,,,,H,
Scotland,[],,,,,,,
Seabrook,[],015,NH,,,,,
Second Great Creek,[],,,,,,H,
Seneca Territory,[],,NY,,,,L,
Seven Ranges,[],,PA,,,,,
Shammunk,[],,,,,Shommunk,,
Shamokin,"['Shomokin', 'Shamoko', 'Shomoko', 'Schomoke', 'Schomoko']",,PA,,,place on Susquehanna River,,
Shamokin,['also Shomoko'],097,PA,,,Sunbury,,
Shamokin Creek,[],097,PA,,,,H,
Shamokin Island,[],097,PA,,,,,
Sharon,[],,OH,,,Tuscarawes County,,
Sharon,[],005,CT,,,,,
Shawnee Town,[],,,,,White River,,
Shawnee Towns,[],,OH,,,Au Glaise River,,
Shecomeco,[],027,NY,,,,,
Shecomeko,['Checomeko'],,NY,,,,,
Sheffield,[],003,MA,,,,,
Shekomeko,['Checomeko'],027,NY,,,,,
Shekomeko Dutchess County,"['Shecomeco', 'Checomeco']",,NY,,,,,
Shenango,[],,,,,,,
Shenango River and area,"['Shenenge', 'Sheninge']",,PA,,,Mercer and Lawrence County,L,
Shenenge,[],073,PA,,,Beaver River,,
Sheweko,[],,,,,place near Shekomeko,,
Shippensburg,[],041,PA,,,also Shippenstown,,
Shippenstown,[],,,,,,,
Shommunk,[],,,,,,,
Shomokin,[],,PA,,,,,
Shomoko,[],,,,,,,
Sichel's Tavern,[],,,,,,,
Sichem,['Oblong'],027,NY,,,,,
Sideling Hill,[],057,PA,,,,T,
Siis-queh-han-neek,[],,,,,,,
Sikhewo,['Sikhewunk'],,PA,,,above Kaskaskunk | place on Beaver Creek,,
Sikhewunk,[],119,OH,,,Salt Creek Township | Chandlersville & place on Muskingum River,,
Silesia,[],,,DE,,,,
Sinking Spring,[],011,PA,,,,,
Siwatakanisipi,[],,,,,West side of Lake St. Clair | Salt River,,
Six Nations towns,[],,08,,,Grand River,,
Skehantowa Shawnee center on the Susquehanna,"['Tschehantowah', 'Wyoming']",,,,,,,
Skipra[?],[],091,PA,,,,,
Snake Spring,[],009,PA,,,,,
Sneicaerty,[],,,,,Schney e carty | Schneyecarty | Schnei Kaerty | Snycardy | Sneicardy,,
Snycardy,[],,,,,,,
Socana,[],,,,,probably a river,,
Sodus Point,[],,NY,,,,S,
Somerset,[],127,OH,,,,,
Somerset,[],111,PA,,,,,
Somerset County,[],,,,,,,Somerset County
Sopus,[],,,,,,,
South America,[],,,,South America,,,
South Beaver,[],007,PA,,,,,
South Branch,['probably Ohio River'],,,,,,,
South Carolina,[],,SC,,,,,
South Huron Strait,['Straight'],,,,,,,
South Liberty,[],,PA,,,foot of Laurel Hill,,
South Sea Islands,[],,,,,,,
Southbury,[],009,CT,,,,,
Spain,[],,,ES,,,,
Spangenberg,[],097,PA,,,,,
Spanish Colonies,[],,,,,,,
Spanish Territory,[],,,,,,L,
Spitzborg,[],025,PA,,,,,
Spring Creek,[],089,PA,,,near Wechquetank,H,
Spring Garden,[],,,,,,,
Springfield,[],,OH,,,,,Springfield
Springplace,[],,GA,,,,,
St. Clair River,[],,,,,,H,
St. Croix,['Crux'],,,,,West Indies & West Indies,,
St. John,['Jan'],,,,,West Indies & West Indies & West Indies,,
St. Joseph River,[],,,,,Ohio and Indiana,H,
St. Lawrence River,[],,,,,,H,
St. Marys,[],,OH,,,Au Glaize County,,
St. Marys River,[],,,,,,H,
St. Thomas,[],,,,,West Indies,,
Staten Island,[],,NY,,,,,
Steuben County,[],101,NY,,,,,
Steubenville,[],,OH,,,,,
Stillwater Creek,[],,,,,,H,
Stillwater Creek,[],157,OH,,,Harrison and Tuscarawas County,H,
Stissing Mountain,['Stissick'],027,NY,,,,T,
Stockbridge,['Old'],003,MA,,,,,
Stone Creek,[],157,OH,,,,H,
Stone Creek,"['probably Rocky River', 'Ohio']",,,,,,H,
Stone River,['Achsin'],,,,,,H,
Stony Creek,[],091,OH,,,,H,
Stony Creek,[],115,MI,,,,H,
Stony Point,[],115,MI,,,,S,
Stoystown,[],111,PA,,,,,
Straits,[],,,,,between Lake Erie and Lake Huron,,
Strasburg,[],055,PA,,,,,
Stratford,[],001,CT,,,,,
Stromness,[],,,,,Island near mouth of St. Clair River,,
Stroudsburg,"['also Dansbury', 'Danesberg']",,PA,,,,,
Sucachqualle's Town,[],,OH,,,,,
Sugar Creek,[],019,OH,,,tributary of Tuscarawas River,H,
Suriname,[],,,SR,South America,,,
Susquehanna,[],,PA,,,River and area & West Branch & North Branch,,
Susquehanna River,[],,PA,,,,H,
Susquehanna River and Valley,[],,,,,,T,
Susquehanna River and area,[],,PA,,,,L,
Sussex County,[],037,NJ,,,,,
Swan Creek,[],,08,,,Lake Erie,H,
Swan River,[],,MI,,,vicinity of St. Clair River | Wabisisipi,H,
Swatara Creek,[],043,PA,,,,H,
Swatara Creek,[],107,PA,,,,H,
Swatara Creek and Valley,[],,PA,,,,T,
Swego,[],,08,,,Mingue Town on Grand River,,
Switzerland,[],,,CH,,,,
Ta-ne-wan-di,['Seneca'],,,,,rapid stream,,
Tahiti,['Otaheite'],,,,,,,
Taniwandi,[],,,,,,,
Tavandemung,[],,,,,place near Wyalusing | Tauwundamunk & Tauwundamunk,,
Tawa Bay,[],,,,,Maumee Bay & name for Maumee Bay,H,
Tawa River,['Miami of the Lake'],,OH,,,Maumee River & Maumee River,H,
Tawa Town,[],,OH,,,location of Toledo,,
Telpi-Mahonunk,[],,,,,,,
Temaitasunk,[],,OH,,,,,
Tenk-han-neck,['Delaware'],,,,,Small River,,
Tenkhannek,[],,PA,,,place on Susquehanna | Tengkannek | Tenkkanneck,,
Tenkhanneti,[],,,,,,,
Tenkhannik,['also Tenkhanneck'],,,,,,,
Tennessee,[],,TN,,,,,
Teockhansoutehan,['a French town'],,,,,,,
Tetechgath,[],,,,,,,
Thames River,['Retrenche'],,08,,,,H,
Thuernstein,[],107,PA,,,Broad Mount,,
Thuppeeking,[],,,,,meaning Schonbrunn | Thupaken | Thuppeekunk,,
Thuppekink,['Schonbrunn'],,,,,,,
Thuppekunk,[],,OH,,,Schonbrunn,,
Ti-a-o-ga,['Mohawk'],,,,,the forks,,
Tiaogu,[],,PA,,,,,
Tinkers Creek Cuyahoga County,"[""Dunker's Creek""]",,OH,,,,H,
Tioga,[],,,,,,,
Tioga,"['also Tiaogu', 'Tiaogu', 'Diaogu']",015,PA,,,modern Athens,,
Tioga Point,[],015,PA,,,site of Athens,S,
Tioga River,[],,NY,,,,H,
Tioga River or Creek,['Tiaogu'],,NY,,,name applied to Chemung River,H,
Tioga site of present Athens,"['Tiaogu', 'Diaugu', 'Diaoju']",,,,,Pennsylvania Geographic Names,,Bradford County
Tioginossongochto,[],,,,,,,
Tionionwaquagarõnto,[],,,,,,,
Tobihanna Creek,[],089,PA,,,,H,
Toiondo,[],,,,,Toronto,,
Tonawanda Town and Creek,['Taniwandi'],037,NY,,,,H,
Toronto,['York'],,08,,,,,
Tower Hamlets,[],,,,,England | London,,
Trenton,['Trentown'],,NJ,,,,,
Tripoli,[],,,,,,,
Trumbull County,[],155,OH,,,,,
Tschallachgasi,[],,,,,,,
Tsche-ne-sche-e,['Seneca'],,,,,a fine valley,,
Tschechachequanigk,['Schechschequanunk'],,,,,,,
Tschehantowsh,[],,,,,,,
Tschiaque Creek,[],,OH,,,East of Cuyahoga River,H,
Tschimitagan,[],,,,,,,
Tschitschiquanunk,['Schechschequanunk'],,,,,,,
Tschochnot,[],,,,,place near Wyalusing,,
Tschoniata River,[],,,,,,H,
Tulling Brook,['?'],,NY,,,,,
Tulpehocken,[],,,,,,,
Tulpehocken Berks County,['also Tulpehockin'],,PA,,,,,
Tulpenocken,[],011,PA,,,,,
Tunkhanneck,[],089,PA,,,,,
Tunkhannock,[],131,PA,,,,,
Turkey Hill,[],009,CT,,,Township of Derby,T,
Turtle Creek,[],,PA,,,Westmoreland and Allegheny County,H,
Tuscarawas,['Tuscarawi'],,OH,,,,,
Tuscarawas,['Tuscarawi'],151,OH,,,,,
Tuscarawas County,[],157,OH,,,,,
Tuscarawas River,['Tuscarawi'],,OH,,,,H,
Tuscarawas River standing for Muskingum,"['Tuscarabi', 'Delaware', 'Tuscalabi']",,OH,,,,H,
Tuscarawas Town,['Tuscarawi'],,OH,,,,,
Tuscarawi,[],,OH,,,,,
Tuscarawi Creek,[],,OH,,,,H,
Tuscarawi now Bolivar,['Tuscorawas'],,OH,,,,,
Tuscarora Creek,[],,,,,,H,
Tuscarora Mountains,[],,PA,,,between Franklin and Fulton County,T,
Tuscarora Town,['Tosgarore'],,08,,,Grand River,,
Tuscarores,[],,,,,place near Wyalusing,,
U. SouthA,[],,,,,,,
Ulator County,[],,PA,,,,,
Unami,[],,,,,Great,,
Unami River,[],,,,,,H,
Upper Canada,[],,08,,,,,
Upper Lusatia,[],,,DE,,,,
Upper Sandusky,[],,,,,,,
Upper Sandusky,[],175,OH,,,,,
Uschummo Uschummunk,[],,,,,,,
Utica,['Judica'],,,,,New York former Fort Skuyler,,
Venango,[],,,,,,,
Venango River,['French Creek'],121,PA,,,,H,
Vera Cruz Mexico,['La Vera Cruz'],,,,,,,
Vermilion Creek,[],,OH,,,also Almenisepunk,H,
Vermilion River Ohio,"['Wulamann', 'Zinneber River']",,,,,,H,
Vermillion River,['presumably'],,OH,,,,H,
Vienna,[],,,AT,,,,
Vier Bruder,['Four Brothers'],,,,,place between Gnadenhutten and Nescopeck,,
Vincennes,"['Fort Vincent', 'Post Vincennes']",,IN,,,,,
Vincennes Indiana,"['Post Vincennes', 'Post Vincent']",,,,,,,
Virgin Islands,['Danish West Indian Islands'],,,,,,,
Virginia,[],,VA,,,later State | Colony,,
Vredens Huia,[],,,,,,,
Wabash River,"['Wobash', 'Wapaasch', 'Wabbassch']",,IN,,,,H,
Wabicamigunk,[],,,,,,,
Wabisisipi,[],,MI,,,Swan River,,
Wachau,['Wachovia'],,NC,,,Moravian property in North Carolina,,
Wachovia,"['Wachau', 'Wachua']",,NC,,,,,
Wackatemake,[],,,,,,,
Wahochquage,[],007,NY,,,Ouaquage | possibliy Oquaga,,
Wajomick,[],,,,,,,
Wajomik,"['Wyoming', 'Pennsylvania']",,,,,,,
Wakotameki,['Wapitameki'],119,OH,,,near Dresden,,
Walbeck,['correctly Walpack'],,NJ,,,Lutheran mission place in New Jersey,,
Walhanding,[],,,,,,,
Walhanding Creek,[],,OH,,,,H,
Walhanding Creek modern Walhonding,"['Wahlandunk', 'Walhandunk']",,OH,,,joining the Muskingum River at Coshocton,H,
Walhanding River,['Walhanding Creek'],,,,,O,H,
Walhanding River,['Walhanding'],031,OH,,,also White Woman's Creek,H,
Wanachquaticok,"['Wannachquattagóck', 'Wannachgoattegóck', 'Wonachquaticok', 'etc.']",003,MA,,,Mass | Westenhuc & Westenhuc,,
Wanachquatikok,[],,,,,Wannoquatagoch,,
Wapwallopen,"['also Wambhallobank', 'Womphallepang', 'Waabhallobank', 'Waquallopank', 'etc.']",079,PA,,,Hollenback Township,,
Wapwallopen,[],,,,,,,
Warpoles,[],,,,,also Mittesagi,,
Warren,[],,OH,,,,,
Warren County,[],165,OH,LB,,,,
Warte,[],,PA,,,Lake Erie & Carbon or Luzerne County,,
Warwick,[],,PA,,,,,
Warwick,[],,OH,,,,,
Warwick,['Warrick'],,NY,,,,,
Warwick,[],029,PA,,,,,
Washington,[],,WA,,,District of Columbia,,
Washington County,['including also Beaver County'],125,PA,,,,,
Washington County,[],167,OH,,,,,
Washington County,[],125,PA,,,,,
Washington Road,[],,PA,,,Washington and Beaver County,,
Weapikamik,[],,,,,White River,,
Wechpakak,[],,,,,,,
Wechpakak place in Upper Susquehanna region,"['Wechpakak', 'Wiekpekat']",,,,,,,
Wechquatnach,[],005,CT,,,Mission place,,
Wechquetank,['Wequetank'],,PA,,,,,
Wechquetank,[],089,PA,,,,,
Wechquitehanek River,[],,OH,,,,H,
Weelhik Thuppeek,['Weelhik Tuppeek'],,,,,,,
Weh-to-pi-jah-neek,['Delaware'],,,,,Alder River,,
Wehtak,[],005,CT,,,Salisbury,,
Wenschigochpiechen,[],,PA,,,place in Susquehanna region,,
Wentschipaqua,[],,08,,,,,
Wequetank,[],,,,,,,
Wequetank Creek,[],089,PA,,,,H,
West Alexander,['Alexandria'],125,PA,,,,,
West Dever Township,[],,08,,,,,
West Indian Islands,[],,,,,,,
West Indies,[],,,,,,,
West River,[],,,,,,H,
Westenhuc,"['Westenhuck', 'Westenhook', 'Westenhuk']",003,MA,,,Wannaquatagoch | Massachusetts also Wanachquatikok,,
Westenhuc Moravian mission place in Massachusetts,"['Westenhuck', 'Westenhook']",,MA,,,,,
Western Sugar Creek,[],,OH,,,Stark and Tuscarawas County,H,
Westliberty,[],069,WV,,,,,
Westminster,[],,,,,Enland | London | Liberty of,,
Westmoreland County,[],129,PA,,,,,
Wheeling,"['Wuhling', 'Wilunk', 'Wiluck']",,WV,,,,,
Whi-a-lu-sis,['Delaware'],,,,,an old man,,
White Clay River,[],,,,,,H,
White Eye's Town,[],,OH,,,Coshecton County,,
White River,"['q.v.', 'also White Clay River', 'Woapikamik', 'also Woapicamikunk', 'Woapicamikunk']",,IN,,,,H,
White Stone,[],,NY,,,probably Long Island,,
White Woman's Creek,[],,,,,,H,
White Woman's Creek,"['Walbonding River', 'Walhonding Creek']",031,OH,,,,H,
White's Mill,[],007,PA,,,,,
Whitestown,[],,NY,,,site of Utica,,
Whitewater River,[],,,,,Indiana and Ohio,H,
Wihilusing,['Friedeshutten'],,PA,,,Wyalusing,,
Wilawana,[],,,,,,,
Wilawana,"['Wilawane', 'Wilawanunk', 'Wilawunk']",015,PA,,,,,
Wild Creek,['presumably Wills Creek'],031,OH,,,,H,
Wilkes-Barre,[],,PA,,,,,
Williamsburg,[],,NY,,,County | Livingston | near Mount Morris,,
Williamsburg,[],,VA,,,,,
Wills Creek,[],059,OH,,,,H,
Wilmington,[],,DE,,,,,
Wilson's Creek,['also Hackientschous Creek'],095,PA,,,,H,
Wilson's Mill,[],095,PA,,,,,
Wind Falls,[],,08,,,,H,
Windsor,[],,,,,England,,
Winginund's Town,[],,,,,,,
Wintering Place,[],,,,,,,
Wisachkim,[],,PA,,,place in Susquehanna Region,,
Wisauchsican,[],,,,,place between the Muskingum and Ohio River,,
Woachejeek Utoenink,[],,,,,,,
Woaketammeki,[],,,,,,,
Woaketammeki Muskingum County,"['Wackatomake', 'W[?]']",,OH,,,near Dresden,,
Woaketammeki Shawnee town on Muskingum River,"['Woakatammike', 'Woaktammike', 'Woaktammuk']",,OH,,,,H,
Woapicamikunk,[],,IN,,,White River | also White Clay River & White River,,
Woapicamikunk White River,['Wabicamigunk'],,IN,,,,H,
Woapikamik,[],,,,,,,
Woapikamik Sipo,[],,IN,,,White River,,
Woapikamikunk,[],,IN,,,White River | Delaware Town,,
Woapiminschijeek,['Where the chestnut trees grow'],,IN,,,,,
Woapimintshi,['Chestnut tree'],,IN,,,White River,,
Woapisitschankgissigabawik,[],,,,,,,
Woapisitschankgissigabewik,"['Swan standing on the tips of his toes', 'Wabisìtschangìasigabawit']",,08,,,,,
Wolf Creek,[],115,OH,,,,H,
Wolf Mountain,[],,,,,Pocono Mountains,T,
Wolf Mountain,[],089,PA,,,,T,
Wolf's Mountain,[],089,PA,,,,T,
Women's Town,[],,,,,,,
Wood Creek,[],065,NY,,,,H,
Woodbeck's Tavern,[],,,,,New York Geographic Names | place about halfway between Kingston and Albany,,
Woodbury,[],005,CT,,,,,
Wooster,[],169,OH,,,,,
Wulamanink,[],,OH,,,Vermilion River | Paint River,,
Wulunk,"['Wheeling', 'West Virginia']",,,,,,,
Wurtemberg,[],,,DE,,,,
Wyalusing,['Wihilusing'],,,,,,,
Wyalusing,"['Wiolousing', 'Wihilusing']",015,PA,,,Friedenshutten,,
Wyalusing Creek,['Wichlusing'],015,PA,,,,H,
Wyalusing Creek,[],,,,,,H,
Wyalusing Island,[],015,PA,,,,,
Wyandot Lower Town,[],,OH,,,Sandusky River,,
Wyandot Town,[],175,OH,,,Upper Sandusky,,
Wyandot Town,[],,,,,east bank below the lower rapids of Sandusky River,,
Wyandot Towns,[],,,,,,,
Wyoming,[],,WY,,,,,
Wyoming Hills,[],079,PA,,,,T,
Wyoming Luzerne County,"['also Wyomack', 'Wajomick', 'Yomack', 'etc.']",,PA,,,,,
Yellow Creek,[],081,OH,,,,H,
York,['Yorktown'],,PA,,,,,York
York,['Toronto'],3519,08,,,,,
York County,[],133,PA,,,,,
Yorktown,"['presumably York', 'Pennsylvania']",,VA,,,,,
Youngstown,[],,OH,,,,,Youngstown
Yrene,[],,,,,,,
Ysenburg-Budingen,[],,,DE,,,,
Ysselstein,[],,,,,Holland,,
Zanesville,[],,OH,,,Muskingum Co | Licking,,
Zeisberger Island,[],,OH,,,Muskingum River,,
Zeist,[],,,,,Holland,,
Zeninga,[],,,,,Zenenge | Zeningo,,
Zeninge,[],,,,,,,
Zeninge,"['Shenango', 'Chenango']",007,NY,,,Upper Susquehanna near Binghamton,,
Zoneschio,[],,NY,,,Zonesschio,,
Zoneschio River,[],,,,,,H,
Zurich,[],,,CH,,,,
kaskaskunk,[],,,,,,,
